{"type":"FeatureCollection", "features": [
{"type":"Feature","geometry":{"type":"Polygon","coordinates":[[[34.0785,-9.5102],[34.0824,-9.4775],[34.0033,-9.4269],[33.8959,-9.2635],[33.875,-9.1794],[33.7959,-9.0063],[33.8533,-8.9136],[33.949,-8.8663],[34.0228,-8.8915],[34.1116,-8.8332],[34.2277,-8.8371],[34.3275,-8.8129],[34.475,-8.8255],[34.5213,-8.8072],[34.5826,-8.7179],[34.7074,-8.6703],[34.7325,-8.6052],[34.7442,-8.5399],[34.6906,-8.434],[34.7399,-8.3492],[34.8541,-8.2742],[34.9164,-8.148],[34.9956,-8.102],[35.0635,-8.0356],[34.9907,-7.9918],[34.9159,-7.9911],[34.9096,-7.9351],[34.6388,-7.8922],[34.5593,-7.8526],[34.3599,-7.8136],[33.8946,-7.8369],[33.8418,-7.8027],[33.8688,-7.7251],[33.9804,-7.5346],[33.9385,-7.499],[33.8154,-7.4347],[33.7778,-7.3017],[33.7204,-7.2843],[33.6613,-7.1971],[33.584,-7.1477],[33.5598,-7.1078],[33.5381,-7.0013],[33.4849,-6.9428],[33.2677,-6.9556],[33.1872,-6.9373],[33.1178,-6.8909],[33.0362,-6.8669],[32.9186,-6.8982],[32.8611,-6.9413],[32.7923,-6.9469],[32.7164,-7.0747],[32.6905,-7.0938],[32.5528,-7.1036],[32.5014,-7.132],[32.2738,-7.2101],[32.2732,-7.3159],[32.197,-7.4955],[32.0943,-7.5344],[32.0201,-7.6683],[31.9926,-7.754],[32.0102,-7.7891],[32.2788,-7.9287],[32.4644,-8.0518],[32.5113,-8.0987],[32.7423,-8.4048],[32.7501,-8.4703],[32.6321,-8.4649],[32.5488,-8.36],[32.528,-8.2267],[32.5018,-8.2146],[32.3762,-8.299],[32.3149,-8.3011],[32.2781,-8.3451],[32.2919,-8.4563],[32.2874,-8.5691],[32.2124,-8.6635],[32.1547,-8.6985],[32.0302,-8.7426],[32.009,-8.7826],[32.0906,-8.8502],[32.0701,-8.8785],[32.1495,-8.9499],[32.1456,-9.0703],[32.2113,-9.1268],[32.383,-9.1339],[32.4597,-9.168],[32.518,-9.2582],[32.7132,-9.2858],[32.7596,-9.34],[32.9209,-9.4079],[32.9923,-9.3914],[33.1039,-9.4879],[33.1729,-9.511],[33.2024,-9.4935],[33.3003,-9.4922],[33.375,-9.5491],[33.4042,-9.6049],[33.4805,-9.6244],[33.5595,-9.5933],[33.6506,-9.611],[33.7346,-9.5841],[33.8653,-9.6696],[33.9119,-9.718],[33.9513,-9.6736],[33.9645,-9.5947],[33.9459,-9.55],[34.0127,-9.4775],[34.0785,-9.5102]]]},"properties":{"name":"Mbeya","adm0_a3":"TZA"}},
{"type":"Feature","geometry":{"type":"Polygon","coordinates":[[[34.5801,-10.5318],[34.6916,-10.5227],[34.7781,-10.4677],[34.8243,-10.4036],[34.8981,-10.3678],[34.9838,-10.3022],[34.989,-10.2365],[35.0467,-10.1985],[35.1192,-10.1913],[35.216,-10.042],[35.2065,-9.9765],[35.1669,-9.9193],[35.17,-9.8705],[35.1142,-9.7872],[35.1238,-9.7599],[35.2297,-9.7125],[35.3271,-9.6098],[35.3919,-9.5753],[35.5469,-9.4399],[35.6309,-9.3944],[35.697,-9.3399],[35.6802,-9.2469],[35.491,-9.0995],[35.4225,-8.9959],[35.3654,-9.0086],[35.2924,-9.0327],[35.1976,-9.0271],[35.1027,-8.9602],[35.1139,-8.7817],[34.8741,-8.698],[34.8741,-8.6478],[34.7325,-8.6052],[34.7074,-8.6703],[34.5826,-8.7179],[34.5213,-8.8072],[34.475,-8.8255],[34.3275,-8.8129],[34.2277,-8.8371],[34.1116,-8.8332],[34.0228,-8.8915],[33.949,-8.8663],[33.8533,-8.9136],[33.7959,-9.0063],[33.875,-9.1794],[33.8959,-9.2635],[34.0033,-9.4269],[34.0824,-9.4775],[34.0785,-9.5102],[34.1908,-9.6068],[34.4833,-9.9462],[34.5364,-10.043],[34.5247,-10.0948],[34.5656,-10.2027],[34.5853,-10.3007],[34.5651,-10.4098],[34.593,-10.4817],[34.5801,-10.5318]]]},"properties":{"name":"Njombe","adm0_a3":"TZA"}},
{"type":"Feature","geometry":{"type":"Polygon","coordinates":[[[34.5801,-10.5318],[34.6609,-10.6873],[34.6724,-10.7395],[34.6455,-10.9132],[34.593,-11.0162],[34.6211,-11.1197],[34.7141,-11.2027],[34.7591,-11.3375],[34.8005,-11.3319],[34.8866,-11.3754],[34.9607,-11.4985],[34.9646,-11.5736],[35.4987,-11.5823],[35.5763,-11.6052],[35.6548,-11.5783],[35.6956,-11.4946],[35.7643,-11.4749],[35.8264,-11.4135],[35.9397,-11.4341],[35.9885,-11.5122],[36.0222,-11.5057],[36.1681,-11.5787],[36.1997,-11.7015],[36.2787,-11.7088],[36.3781,-11.6809],[36.4949,-11.6809],[36.563,-11.7313],[36.6673,-11.7134],[36.747,-11.6665],[36.8201,-11.5736],[36.9059,-11.5928],[37.0444,-11.5957],[37.1065,-11.6581],[37.2266,-11.6938],[37.3314,-11.6816],[37.4278,-11.7226],[37.4697,-11.7195],[37.5038,-11.6727],[37.6478,-11.636],[37.7837,-11.5589],[37.8251,-11.5202],[37.8132,-11.4823],[37.8752,-11.3191],[37.9381,-11.284],[38.0934,-11.2563],[38.0243,-11.0202],[37.993,-10.817],[37.9038,-10.6756],[37.8217,-10.4985],[37.7175,-10.4269],[37.1623,-10.2929],[36.9206,-10.2012],[36.8712,-10.1595],[36.8773,-9.9539],[36.9027,-9.8991],[36.9855,-9.8248],[37.1056,-9.6791],[37.1431,-9.5612],[37.0687,-9.5829],[36.9796,-9.6488],[36.8686,-9.7125],[36.7445,-9.8398],[36.6642,-9.9089],[36.5716,-9.9592],[36.5037,-9.961],[36.4784,-9.9136],[36.533,-9.843],[36.5642,-9.7622],[36.4928,-9.6132],[36.4403,-9.634],[36.3644,-9.7273],[36.2207,-9.7288],[36.1334,-9.751],[36.0437,-9.7215],[35.9726,-9.8086],[35.7619,-9.8108],[35.7184,-9.7775],[35.7249,-9.7169],[35.7822,-9.6868],[35.8607,-9.5754],[35.8624,-9.5016],[35.9181,-9.4344],[35.9335,-9.3841],[35.905,-9.3156],[35.8998,-9.1887],[35.7766,-9.3154],[35.697,-9.3399],[35.6309,-9.3944],[35.5469,-9.4399],[35.3919,-9.5753],[35.3271,-9.6098],[35.2297,-9.7125],[35.1238,-9.7599],[35.1142,-9.7872],[35.17,-9.8705],[35.1669,-9.9193],[35.2065,-9.9765],[35.216,-10.042],[35.1192,-10.1913],[35.0467,-10.1985],[34.989,-10.2365],[34.9838,-10.3022],[34.8981,-10.3678],[34.8243,-10.4036],[34.7781,-10.4677],[34.6916,-10.5227],[34.5801,-10.5318]]]},"properties":{"name":"Ruvuma","adm0_a3":"TZA"}},
{"type":"Feature","geometry":{"type":"Polygon","coordinates":[[[30.8188,-2.9905],[30.7832,-3.0621],[30.8177,-3.0991],[30.8322,-3.1728],[30.7998,-3.2746],[30.6405,-3.3329],[30.6404,-3.3928],[30.6129,-3.4449],[30.5072,-3.5111],[30.4689,-3.513],[30.4269,-3.5639],[30.4289,-3.6022],[30.3801,-3.6856],[30.3816,-3.7883],[30.3117,-3.7899],[30.2088,-3.9305],[30.1498,-4.0868],[30.0515,-4.1802],[30.003,-4.2719],[29.9005,-4.3456],[29.8003,-4.3639],[29.7283,-4.4616],[29.6383,-4.4468],[29.4042,-4.4498],[29.4013,-4.5869],[29.3408,-4.7517],[29.321,-4.8363],[29.3238,-4.9202],[29.3778,-5.0875],[29.4556,-5.23],[29.4964,-5.3917],[29.5935,-5.6203],[29.6124,-5.7044],[29.603,-5.7817],[29.4961,-5.9387],[29.4761,-6.0021],[29.5255,-6.2731],[29.566,-6.3595],[29.6339,-6.4469],[29.6844,-6.5815],[29.7386,-6.6524],[29.8731,-6.7542],[29.9691,-6.803],[30.2428,-6.5807],[30.2984,-6.4582],[30.3932,-6.3936],[30.372,-6.3077],[30.3825,-6.2453],[30.304,-6.181],[30.2731,-6.0949],[30.2128,-5.983],[30.1842,-5.9011],[30.1188,-5.5203],[30.0805,-5.4339],[29.9896,-5.3571],[30.0074,-5.3347],[30.2212,-5.3321],[30.2702,-5.3208],[30.4087,-5.1902],[30.7299,-5.1914],[30.8348,-5.2567],[30.8858,-5.3151],[30.9226,-5.2614],[31.0379,-5.4177],[31.0622,-5.4986],[31.2117,-5.4618],[31.2303,-5.4271],[31.193,-5.2684],[31.2017,-5.153],[31.2503,-5.0181],[31.2276,-4.9592],[31.3977,-4.8321],[31.3868,-4.7273],[31.4665,-4.6758],[31.4909,-4.6205],[31.4638,-4.4698],[31.4241,-4.448],[31.4166,-4.3563],[31.3471,-4.2195],[31.3376,-4.1078],[31.3762,-3.9669],[31.3586,-3.8851],[31.2983,-3.7525],[31.2422,-3.699],[31.2179,-3.6364],[31.2054,-3.4644],[31.147,-3.3617],[31.1103,-3.2201],[31.0054,-3.1444],[31.0711,-3.0142],[31.0689,-2.9386],[31.0242,-2.8554],[30.9821,-2.8387],[30.8188,-2.9905]]]},"properties":{"name":"Kigoma","adm0_a3":"TZA"}},
{"type":"Feature","geometry":{"type":"Polygon","coordinates":[[[30.2945,-7.1494],[30.5778,-6.9457],[30.6867,-6.913],[30.9046,-6.9021],[30.9917,-6.9348],[31.0353,-7.0655],[31.0353,-7.1527],[31.0789,-7.218],[31.3839,-7.2398],[31.4383,-7.3052],[31.4492,-7.4141],[31.4928,-7.7082],[32.0102,-7.7891],[31.9926,-7.754],[32.0201,-7.6683],[32.0943,-7.5344],[32.197,-7.4955],[32.2732,-7.3159],[32.2738,-7.2101],[32.5014,-7.132],[32.5528,-7.1036],[32.5869,-6.9011],[32.5854,-6.693],[32.6145,-6.6007],[32.7014,-6.51],[32.7371,-6.4472],[32.6986,-6.389],[32.5533,-6.3765],[32.5123,-6.3609],[32.4304,-6.257],[32.3444,-6.22],[32.3177,-6.1716],[32.2277,-6.1239],[32.1783,-6.0768],[32.1014,-5.9046],[32.098,-5.8358],[32.0531,-5.7709],[31.9683,-5.7465],[31.7978,-5.7186],[31.6902,-5.8011],[31.6182,-5.8268],[31.5434,-5.8041],[31.4506,-5.8222],[31.3718,-5.7874],[31.2752,-5.8015],[31.2414,-5.7527],[31.1623,-5.7601],[31.1343,-5.6356],[31.0401,-5.579],[31.0622,-5.4986],[31.0379,-5.4177],[30.9226,-5.2614],[30.8858,-5.3151],[30.8348,-5.2567],[30.7299,-5.1914],[30.4087,-5.1902],[30.2702,-5.3208],[30.2212,-5.3321],[30.0074,-5.3347],[29.9896,-5.3571],[30.0805,-5.4339],[30.1188,-5.5203],[30.1842,-5.9011],[30.2128,-5.983],[30.2731,-6.0949],[30.304,-6.181],[30.3825,-6.2453],[30.372,-6.3077],[30.3932,-6.3936],[30.2984,-6.4582],[30.2428,-6.5807],[29.9691,-6.803],[30.0909,-6.89],[30.2347,-7.0571],[30.2945,-7.1494]]]},"properties":{"name":"Katavi","adm0_a3":"TZA"}},
{"type":"Feature","geometry":{"type":"Polygon","coordinates":[[[30.2945,-7.1494],[30.3696,-7.3102],[30.4416,-7.5963],[30.655,-7.9274],[30.7281,-8.1041],[30.7783,-8.2891],[30.8283,-8.3881],[30.8919,-8.4792],[30.9595,-8.5505],[31.0336,-8.6003],[31.1198,-8.6166],[31.2068,-8.5808],[31.2609,-8.624],[31.3533,-8.5872],[31.386,-8.6325],[31.4275,-8.6335],[31.539,-8.7035],[31.5534,-8.8091],[31.6727,-8.913],[31.7876,-8.8922],[31.9366,-8.9326],[31.9177,-9.0225],[31.9806,-9.0719],[32.0317,-9.046],[32.1456,-9.0703],[32.1495,-8.9499],[32.0701,-8.8785],[32.0906,-8.8502],[32.009,-8.7826],[32.0302,-8.7426],[32.1547,-8.6985],[32.2124,-8.6635],[32.2874,-8.5691],[32.2919,-8.4563],[32.2781,-8.3451],[32.3149,-8.3011],[32.3762,-8.299],[32.5018,-8.2146],[32.528,-8.2267],[32.5488,-8.36],[32.6321,-8.4649],[32.7501,-8.4703],[32.7423,-8.4048],[32.5113,-8.0987],[32.4644,-8.0518],[32.2788,-7.9287],[32.0102,-7.7891],[31.4928,-7.7082],[31.4492,-7.4141],[31.4383,-7.3052],[31.3839,-7.2398],[31.0789,-7.218],[31.0353,-7.1527],[31.0353,-7.0655],[30.9917,-6.9348],[30.9046,-6.9021],[30.6867,-6.913],[30.5778,-6.9457],[30.2945,-7.1494]]]},"properties":{"name":"Rukwa","adm0_a3":"TZA"}},
{"type":"Feature","geometry":{"type":"Polygon","coordinates":[[[32.7223,-1.0026],[31.9914,-1.0026],[31.4422,-1.0026],[30.8284,-1.0026],[30.7771,-0.9858],[30.6871,-1.025],[30.6386,-1.0734],[30.5117,-1.0734],[30.453,-1.0973],[30.4656,-1.1493],[30.5112,-1.1704],[30.5566,-1.2816],[30.5553,-1.3184],[30.6324,-1.3676],[30.7375,-1.4067],[30.7329,-1.4764],[30.7916,-1.591],[30.831,-1.5942],[30.8242,-1.7307],[30.8379,-1.8368],[30.8166,-1.8842],[30.8299,-1.9606],[30.8878,-2.0825],[30.8447,-2.2378],[30.8344,-2.3453],[30.7588,-2.3811],[30.6748,-2.3517],[30.6379,-2.397],[30.5739,-2.3893],[30.5081,-2.4635],[30.462,-2.5875],[30.416,-2.6456],[30.4505,-2.7418],[30.4158,-2.8517],[30.4933,-2.9413],[30.547,-2.9003],[30.7189,-2.9895],[30.8188,-2.9905],[30.9821,-2.8387],[30.9699,-2.7756],[30.8749,-2.6842],[30.9101,-2.5857],[31.0191,-2.5329],[31.1669,-2.2796],[31.1985,-2.2867],[31.3181,-2.2585],[31.3639,-2.2656],[31.5644,-2.3535],[31.6337,-2.3563],[31.7278,-2.2833],[31.7465,-2.1804],[31.8772,-2.148],[32.7039,-1.4688],[32.7223,-1.0026]]]},"properties":{"name":"Kagera","adm0_a3":"TZA"}},
{"type":"Feature","geometry":{"type":"Polygon","coordinates":[[[38.0934,-11.2563],[38.155,-11.2806],[38.2566,-11.2771],[38.3477,-11.3588],[38.4923,-11.4135],[38.6542,-11.2758],[38.7597,-11.2632],[38.8963,-11.1677],[39.0608,-11.1601],[39.1262,-11.1397],[39.2116,-11.1739],[39.2866,-11.1541],[39.4827,-10.9992],[39.7605,-10.9431],[39.886,-10.8645],[40.0081,-10.8111],[40.1611,-10.7044],[40.2507,-10.6109],[40.3533,-10.5607],[40.421,-10.5038],[40.4494,-10.3454],[40.3898,-10.3649],[40.3387,-10.3488],[40.3065,-10.2776],[40.2321,-10.2005],[40.1677,-10.2563],[40.1243,-10.2216],[40.1248,-10.1694],[40.0344,-10.1371],[39.9764,-10.1783],[39.7479,-10.315],[39.6804,-10.3634],[39.6572,-10.4718],[39.6884,-10.5293],[39.6318,-10.5949],[39.591,-10.5735],[39.5316,-10.4749],[39.4984,-10.3832],[39.4217,-10.3349],[39.372,-10.3397],[39.2833,-10.3808],[39.262,-10.4459],[39.2178,-10.4547],[39.1659,-10.3895],[38.9187,-10.5021],[38.8728,-10.5423],[38.8029,-10.548],[38.7351,-10.5171],[38.58,-10.5379],[38.3142,-10.6463],[38.1679,-10.8047],[37.993,-10.817],[38.0243,-11.0202],[38.0934,-11.2563]]]},"properties":{"name":"Mtwara","adm0_a3":"TZA"}},
{"type":"Feature","geometry":{"type":"Polygon","coordinates":[[[35.2464,-1.7068],[34.5569,-1.3219],[34.0525,-1.0404],[34,-1.0026],[33.2731,-1.0026],[32.7223,-1.0026],[32.7039,-1.4688],[32.7208,-1.4835],[33.3344,-1.4736],[33.4561,-1.5213],[33.4644,-1.6826],[33.3431,-1.7386],[33.3007,-1.8343],[33.3144,-1.9445],[33.4379,-1.8803],[33.5044,-1.9537],[33.5734,-1.9872],[33.5504,-2.0289],[33.4964,-2.0255],[33.3999,-1.9723],[33.3177,-2.0459],[33.2283,-2.0459],[33.2078,-2.1148],[33.3109,-2.1216],[33.3581,-2.1679],[33.5094,-2.1531],[33.6056,-2.1831],[33.6422,-2.1468],[33.7494,-2.086],[33.816,-2.1233],[33.8311,-2.1721],[34.0043,-2.182],[34.0356,-2.1324],[34.0996,-2.1916],[34.1696,-2.196],[34.2983,-2.2569],[34.3216,-2.2905],[34.4284,-2.3578],[34.4785,-2.4249],[34.5648,-2.4367],[34.6578,-2.4913],[35.2076,-2.487],[35.2489,-2.37],[35.3012,-2.3496],[35.3414,-2.237],[35.3274,-2.1874],[35.2328,-2.1459],[35.2249,-2.1012],[35.2464,-1.7068]]]},"properties":{"name":"Mara","adm0_a3":"TZA"}},
{"type":"Feature","geometry":{"type":"Polygon","coordinates":[[[35.2464,-1.7068],[35.2249,-2.1012],[35.2328,-2.1459],[35.3274,-2.1874],[35.3414,-2.237],[35.3012,-2.3496],[35.2489,-2.37],[35.2076,-2.487],[35.2162,-2.5837],[35.1501,-2.8686],[35.1227,-2.9196],[35.0356,-2.9675],[34.9975,-2.9554],[34.936,-2.8883],[34.9012,-2.8831],[34.8925,-3.5969],[34.8143,-3.654],[34.7533,-3.7231],[34.7605,-3.8018],[34.8922,-3.9095],[35.0579,-3.8386],[35.0844,-3.7968],[35.1796,-3.7385],[35.2384,-3.7297],[35.313,-3.6912],[35.3794,-3.6243],[35.4216,-3.6239],[35.5319,-3.666],[35.4869,-3.7287],[35.5623,-3.7661],[35.5767,-3.7013],[35.6954,-3.6696],[35.7337,-3.6871],[35.7266,-3.7599],[35.7484,-3.8287],[35.8825,-3.6643],[35.9402,-3.6448],[36.0207,-3.7812],[36.2466,-4.1086],[36.2963,-4.1295],[36.3524,-4.1032],[36.5307,-4.0821],[36.501,-3.7842],[36.5771,-3.6654],[36.6551,-3.6295],[36.6694,-3.595],[36.7424,-3.5913],[36.8284,-3.635],[36.8792,-3.573],[36.9544,-3.5722],[36.9958,-3.5255],[37.0624,-3.491],[37.0603,-3.3096],[37.023,-3.2411],[36.8969,-3.1577],[36.8862,-3.063],[36.9092,-2.9972],[37.0093,-2.9632],[37.1406,-2.8573],[37.2644,-2.8594],[37.4242,-2.9228],[36.7035,-2.5204],[36.0595,-2.161],[35.6302,-1.9212],[35.2464,-1.7068]]]},"properties":{"name":"Arusha","adm0_a3":"TZA"}},
{"type":"Feature","geometry":{"type":"Polygon","coordinates":[[[37.4242,-2.9228],[37.2644,-2.8594],[37.1406,-2.8573],[37.0093,-2.9632],[36.9092,-2.9972],[36.8862,-3.063],[36.8969,-3.1577],[37.023,-3.2411],[37.0603,-3.3096],[37.0624,-3.491],[37.1397,-3.485],[37.2059,-3.4507],[37.288,-3.4946],[37.3294,-3.5993],[37.3832,-3.6577],[37.4674,-3.817],[37.4639,-3.9281],[37.5069,-4.075],[37.4968,-4.3835],[37.5299,-4.4401],[37.6917,-4.5339],[37.761,-4.5869],[37.9274,-4.568],[37.9816,-4.5883],[38.0299,-4.6386],[38.075,-4.6073],[38.4162,-4.12],[37.771,-3.6554],[37.7223,-3.54],[37.6894,-3.5181],[37.5991,-3.5134],[37.5903,-3.4041],[37.6699,-3.3561],[37.7001,-3.3144],[37.6602,-3.0706],[37.6449,-3.046],[37.4242,-2.9228]]]},"properties":{"name":"Kilimanjaro","adm0_a3":"TZA"}},
{"type":"Feature","geometry":{"type":"Polygon","coordinates":[[[38.4162,-4.12],[38.075,-4.6073],[38.0299,-4.6386],[37.9799,-4.6912],[37.9715,-4.8056],[38.0404,-4.961],[38.0009,-4.997],[37.9469,-4.9622],[37.7496,-5.0086],[37.5917,-4.9782],[37.5366,-5.0278],[37.3893,-5.2055],[37.3881,-5.2834],[37.3436,-5.4464],[37.2517,-5.5647],[37.2112,-5.7357],[37.1796,-5.7871],[37.0607,-5.8679],[37.0758,-5.9735],[37.1325,-5.9978],[37.1192,-6.0693],[37.1685,-6.1109],[37.215,-6.044],[37.2891,-5.9742],[37.3575,-5.9308],[37.3908,-5.7894],[37.5273,-5.8394],[37.5389,-5.8853],[37.6279,-5.9802],[37.655,-5.9529],[37.7478,-5.9427],[37.8015,-5.8946],[37.9531,-5.8541],[38.0209,-5.8696],[38.147,-5.8581],[38.2378,-5.9202],[38.3177,-5.9448],[38.3438,-5.9814],[38.4354,-6.0165],[38.5555,-6.0182],[38.7167,-5.9493],[38.8003,-5.9631],[38.8213,-5.925],[38.8325,-5.8156],[38.8952,-5.7105],[38.9026,-5.6433],[38.9566,-5.5637],[38.9988,-5.4653],[38.9813,-5.4174],[39.0373,-5.3565],[39.0806,-5.2311],[39.0742,-5.1863],[39.1387,-5.1032],[39.1304,-4.9181],[39.1751,-4.9264],[39.207,-4.8723],[39.2151,-4.6887],[39.1906,-4.6775],[38.8496,-4.4319],[38.4162,-4.12]]]},"properties":{"name":"Tanga","adm0_a3":"TZA"}},
{"type":"Feature","geometry":{"type":"Polygon","coordinates":[[[39.2847,-8.3186],[39.2332,-8.284],[39.1833,-8.2857],[38.9892,-8.328],[38.8022,-8.3826],[38.7567,-8.3563],[38.687,-8.3718],[38.6398,-8.4688],[38.5933,-8.4968],[38.5364,-8.495],[38.5038,-8.3597],[38.2892,-8.1759],[38.2336,-8.1478],[38.1103,-8.121],[37.9917,-8.0799],[37.8012,-7.9434],[37.717,-8.028],[37.6284,-8.1875],[37.5806,-8.2069],[37.5067,-8.3332],[37.4741,-8.3543],[37.3686,-8.4994],[37.3819,-8.5721],[37.3553,-8.6922],[37.3056,-8.8092],[37.3192,-8.9331],[37.3457,-8.998],[37.3371,-9.0603],[37.3595,-9.1423],[37.2578,-9.1978],[37.1431,-9.5612],[37.1056,-9.6791],[36.9855,-9.8248],[36.9027,-9.8991],[36.8773,-9.9539],[36.8712,-10.1595],[36.9206,-10.2012],[37.1623,-10.2929],[37.7175,-10.4269],[37.8217,-10.4985],[37.9038,-10.6756],[37.993,-10.817],[38.1679,-10.8047],[38.3142,-10.6463],[38.58,-10.5379],[38.7351,-10.5171],[38.8029,-10.548],[38.8728,-10.5423],[38.9187,-10.5021],[39.1659,-10.3895],[39.2178,-10.4547],[39.262,-10.4459],[39.2833,-10.3808],[39.372,-10.3397],[39.4217,-10.3349],[39.4984,-10.3832],[39.5316,-10.4749],[39.591,-10.5735],[39.6318,-10.5949],[39.6884,-10.5293],[39.6572,-10.4718],[39.6804,-10.3634],[39.7479,-10.315],[39.9764,-10.1783],[39.9749,-10.1334],[39.9143,-10.0339],[39.8269,-9.9903],[39.7263,-9.9889],[39.7142,-9.9521],[39.7795,-9.9301],[39.794,-9.8124],[39.7523,-9.7486],[39.7409,-9.6668],[39.7121,-9.6251],[39.6807,-9.5053],[39.6507,-9.4448],[39.5674,-9.4475],[39.564,-9.4142],[39.6428,-9.3686],[39.6438,-9.1891],[39.5837,-9.1062],[39.53,-9.1131],[39.4933,-9.0795],[39.4919,-8.9384],[39.4089,-8.8702],[39.4526,-8.8054],[39.4391,-8.7555],[39.36,-8.6944],[39.3618,-8.6109],[39.3031,-8.5055],[39.301,-8.3611],[39.2847,-8.3186]]]},"properties":{"name":"Lindi","adm0_a3":"TZA"}},
{"type":"Feature","geometry":{"type":"MultiPolygon","coordinates":[[[[39.4347,-7.1817],[39.4092,-7.1697],[39.4077,-7.0278],[39.3578,-6.9602],[39.2462,-6.9535],[39.1691,-7.0164],[39.1358,-7.0033],[39.0789,-7.056],[39.0272,-7.0326],[39.1048,-6.9124],[39.0625,-6.8533],[39.0483,-6.7371],[39.0843,-6.6005],[39.1292,-6.5619],[39.0409,-6.4701],[38.9647,-6.4732],[38.9231,-6.4452],[38.8522,-6.3487],[38.8568,-6.1637],[38.8191,-6.1364],[38.778,-6.0307],[38.8003,-5.9631],[38.7167,-5.9493],[38.5555,-6.0182],[38.4354,-6.0165],[38.3438,-5.9814],[38.3177,-5.9448],[38.2378,-5.9202],[38.147,-5.8581],[38.0209,-5.8696],[37.9531,-5.8541],[37.8015,-5.8946],[37.8489,-5.9305],[37.8872,-6.0379],[37.9843,-6.194],[38.057,-6.2519],[38.0602,-6.3324],[38.0395,-6.4853],[37.9949,-6.5861],[38.0232,-6.6407],[38.1997,-6.705],[38.3037,-6.6919],[38.3209,-6.767],[38.286,-6.8854],[38.3249,-6.9409],[38.4967,-6.9831],[38.5156,-7.043],[38.4323,-7.181],[38.3554,-7.2081],[38.3027,-7.3191],[38.3658,-7.4855],[38.3604,-7.5219],[38.1004,-7.5756],[38.0289,-7.5629],[37.9015,-7.593],[37.8717,-7.6197],[37.8553,-7.8177],[37.8256,-7.8571],[37.8012,-7.9434],[37.9917,-8.0799],[38.1103,-8.121],[38.2336,-8.1478],[38.2892,-8.1759],[38.5038,-8.3597],[38.5364,-8.495],[38.5933,-8.4968],[38.6398,-8.4688],[38.687,-8.3718],[38.7567,-8.3563],[38.8022,-8.3826],[38.9892,-8.328],[39.1833,-8.2857],[39.2332,-8.284],[39.2847,-8.3186],[39.3278,-8.2956],[39.3478,-8.2216],[39.4544,-8.0104],[39.4209,-7.902],[39.4435,-7.8326],[39.3567,-7.7669],[39.2962,-7.6884],[39.2748,-7.5964],[39.304,-7.4485],[39.3304,-7.4242],[39.3698,-7.3069],[39.4347,-7.1817]]],[[[39.8957,-7.6376],[39.8449,-7.7377],[39.7972,-7.7919],[39.7153,-7.8116],[39.693,-7.8703],[39.6219,-7.9392],[39.6499,-7.9939],[39.7263,-7.9734],[39.7546,-7.9153],[39.8233,-7.914],[39.8934,-7.7541],[39.8957,-7.6376]]],[[[39.742,-7.9948],[39.6969,-8.0749],[39.7194,-8.0926],[39.8015,-8.0066],[39.742,-7.9948]]]]},"properties":{"name":"Pwani","adm0_a3":"TZA"}},
{"type":"Feature","geometry":{"type":"Polygon","coordinates":[[[39.1292,-6.5619],[39.0843,-6.6005],[39.0483,-6.7371],[39.0625,-6.8533],[39.1048,-6.9124],[39.0272,-7.0326],[39.0789,-7.056],[39.1358,-7.0033],[39.1691,-7.0164],[39.2462,-6.9535],[39.3578,-6.9602],[39.4077,-7.0278],[39.4092,-7.1697],[39.4347,-7.1817],[39.509,-7.1684],[39.5475,-7.1183],[39.5505,-6.9938],[39.4645,-6.8577],[39.4279,-6.8581],[39.2937,-6.8152],[39.2844,-6.7561],[39.2459,-6.7311],[39.2127,-6.6418],[39.1292,-6.5619]]]},"properties":{"name":"Dar-Es-Salaam","adm0_a3":"TZA"}},
{"type":"Feature","geometry":{"type":"Polygon","coordinates":[[[39.3907,-6.0004],[39.3468,-6.029],[39.2741,-6.0339],[39.2764,-6.1779],[39.3081,-6.2457],[39.3744,-6.3288],[39.3757,-6.3634],[39.5085,-6.4628],[39.5695,-6.4208],[39.5435,-6.3212],[39.5249,-6.1751],[39.4583,-6.1972],[39.3907,-6.0004]]]},"properties":{"name":"Zanzibar South and Central","adm0_a3":"TZA"}},
{"type":"Feature","geometry":{"type":"Polygon","coordinates":[[[39.1979,-6.0336],[39.2741,-6.0339],[39.3468,-6.029],[39.3907,-6.0004],[39.3543,-5.8967],[39.3557,-5.8038],[39.2953,-5.7365],[39.28,-5.842],[39.1904,-5.9142],[39.1979,-6.0336]]]},"properties":{"name":"Kaskazini-Unguja","adm0_a3":"TZA"}},
{"type":"Feature","geometry":{"type":"Polygon","coordinates":[[[39.3081,-6.2457],[39.2764,-6.1779],[39.2741,-6.0339],[39.1979,-6.0336],[39.2129,-6.1142],[39.177,-6.1579],[39.208,-6.2365],[39.2642,-6.3024],[39.3081,-6.2457]]]},"properties":{"name":"Zanzibar West","adm0_a3":"TZA"}},
{"type":"Feature","geometry":{"type":"Polygon","coordinates":[[[39.8559,-5.1823],[39.7889,-5.1975],[39.7425,-5.1618],[39.7363,-5.24],[39.6693,-5.3027],[39.6431,-5.414],[39.6634,-5.4322],[39.764,-5.4323],[39.7961,-5.4068],[39.8556,-5.2294],[39.8559,-5.1823]]]},"properties":{"name":"Kusini-Pemba","adm0_a3":"TZA"}},
{"type":"Feature","geometry":{"type":"Polygon","coordinates":[[[39.7425,-5.1618],[39.7889,-5.1975],[39.8559,-5.1823],[39.8281,-5.1021],[39.8356,-5.0265],[39.8782,-4.9877],[39.8059,-4.9609],[39.7402,-4.9138],[39.6773,-4.9451],[39.6758,-5.0017],[39.7096,-5.0567],[39.6942,-5.1039],[39.7425,-5.1618]]]},"properties":{"name":"Kaskazini-Pemba","adm0_a3":"TZA"}},
{"type":"Feature","geometry":{"type":"Polygon","coordinates":[[[37.8012,-7.9434],[37.8256,-7.8571],[37.8553,-7.8177],[37.8717,-7.6197],[37.9015,-7.593],[38.0289,-7.5629],[38.1004,-7.5756],[38.3604,-7.5219],[38.3658,-7.4855],[38.3027,-7.3191],[38.3554,-7.2081],[38.4323,-7.181],[38.5156,-7.043],[38.4967,-6.9831],[38.3249,-6.9409],[38.286,-6.8854],[38.3209,-6.767],[38.3037,-6.6919],[38.1997,-6.705],[38.0232,-6.6407],[37.9949,-6.5861],[38.0395,-6.4853],[38.0602,-6.3324],[38.057,-6.2519],[37.9843,-6.194],[37.8872,-6.0379],[37.8489,-5.9305],[37.8015,-5.8946],[37.7478,-5.9427],[37.655,-5.9529],[37.6279,-5.9802],[37.5389,-5.8853],[37.5273,-5.8394],[37.3908,-5.7894],[37.3575,-5.9308],[37.2891,-5.9742],[37.215,-6.044],[37.1685,-6.1109],[37.1192,-6.0693],[37.1325,-5.9978],[37.0758,-5.9735],[37.0607,-5.8679],[36.9151,-5.9846],[36.8617,-6.0021],[36.8318,-6.0505],[36.8303,-6.1078],[36.8575,-6.3435],[36.8034,-6.4248],[36.7621,-6.4451],[36.7375,-6.543],[36.6408,-6.779],[36.6409,-7.0035],[36.5588,-7.0541],[36.5035,-7.1883],[36.5222,-7.2855],[36.4778,-7.3704],[36.5173,-7.5008],[36.6623,-7.53],[36.693,-7.5584],[36.777,-7.5779],[36.8175,-7.652],[36.8605,-7.6377],[36.9683,-7.6538],[36.8474,-7.7838],[36.7658,-7.9563],[36.6901,-7.978],[36.6018,-7.9521],[36.5078,-7.9428],[36.4198,-7.975],[36.3155,-8.0604],[36.3266,-8.1511],[36.3093,-8.1803],[36.182,-8.1894],[36.0945,-8.2424],[36.0171,-8.3139],[35.9482,-8.3992],[35.9107,-8.5029],[35.8397,-8.5662],[35.7174,-8.6369],[35.6802,-8.7642],[35.6273,-8.7308],[35.4214,-8.6856],[35.3412,-8.6881],[35.3538,-8.8171],[35.3284,-8.8539],[35.357,-8.8983],[35.3654,-9.0086],[35.4225,-8.9959],[35.491,-9.0995],[35.6802,-9.2469],[35.697,-9.3399],[35.7766,-9.3154],[35.8998,-9.1887],[35.905,-9.3156],[35.9335,-9.3841],[35.9181,-9.4344],[35.8624,-9.5016],[35.8607,-9.5754],[35.7822,-9.6868],[35.7249,-9.7169],[35.7184,-9.7775],[35.7619,-9.8108],[35.9726,-9.8086],[36.0437,-9.7215],[36.1334,-9.751],[36.2207,-9.7288],[36.3644,-9.7273],[36.4403,-9.634],[36.4928,-9.6132],[36.5642,-9.7622],[36.533,-9.843],[36.4784,-9.9136],[36.5037,-9.961],[36.5716,-9.9592],[36.6642,-9.9089],[36.7445,-9.8398],[36.8686,-9.7125],[36.9796,-9.6488],[37.0687,-9.5829],[37.1431,-9.5612],[37.2578,-9.1978],[37.3595,-9.1423],[37.3371,-9.0603],[37.3457,-8.998],[37.3192,-8.9331],[37.3056,-8.8092],[37.3553,-8.6922],[37.3819,-8.5721],[37.3686,-8.4994],[37.4741,-8.3543],[37.5067,-8.3332],[37.5806,-8.2069],[37.6284,-8.1875],[37.717,-8.028],[37.8012,-7.9434]]]},"properties":{"name":"Morogoro","adm0_a3":"TZA"}},
{"type":"Feature","geometry":{"type":"Polygon","coordinates":[[[36.8617,-6.0021],[36.7251,-5.9558],[36.6753,-5.9119],[36.5701,-5.7488],[36.4449,-5.6813],[36.3812,-5.5858],[36.2442,-5.4578],[36.2372,-5.2927],[36.2907,-5.1899],[36.3121,-5.1197],[36.349,-4.8792],[36.3607,-4.6759],[36.3062,-4.4814],[36.2992,-4.1848],[36.0491,-4.2553],[35.9835,-4.3007],[35.9529,-4.3515],[35.8546,-4.3791],[35.8204,-4.3624],[35.7505,-4.432],[35.6362,-4.5002],[35.6613,-4.5684],[35.5103,-4.8616],[35.4581,-4.8703],[35.3409,-4.8545],[35.3194,-4.9489],[35.0755,-5.1158],[35.0929,-5.2571],[35.1397,-5.4047],[35.3385,-5.7003],[35.2869,-5.7525],[35.2722,-5.8311],[35.2109,-5.9519],[35.2072,-6.0679],[35.1855,-6.1579],[35.1937,-6.2447],[35.223,-6.3555],[35.196,-6.4773],[35.2137,-6.6485],[35.186,-6.7152],[35.06,-6.721],[35.0809,-6.9205],[35.1779,-6.9789],[35.2787,-6.9633],[35.2992,-6.9418],[35.443,-6.9332],[35.5124,-6.9613],[35.5391,-7.0056],[35.6353,-7.0284],[35.7067,-7.0675],[35.7742,-7.068],[35.9828,-7.1306],[36.1099,-7.1257],[36.243,-7.1723],[36.3386,-7.327],[36.4251,-7.3161],[36.4778,-7.3704],[36.5222,-7.2855],[36.5035,-7.1883],[36.5588,-7.0541],[36.6409,-7.0035],[36.6408,-6.779],[36.7375,-6.543],[36.7621,-6.4451],[36.8034,-6.4248],[36.8575,-6.3435],[36.8303,-6.1078],[36.8318,-6.0505],[36.8617,-6.0021]]]},"properties":{"name":"Dodoma","adm0_a3":"TZA"}},
{"type":"Feature","geometry":{"type":"Polygon","coordinates":[[[37.0607,-5.8679],[37.1796,-5.7871],[37.2112,-5.7357],[37.2517,-5.5647],[37.3436,-5.4464],[37.3881,-5.2834],[37.3893,-5.2055],[37.5366,-5.0278],[37.5917,-4.9782],[37.7496,-5.0086],[37.9469,-4.9622],[38.0009,-4.997],[38.0404,-4.961],[37.9715,-4.8056],[37.9799,-4.6912],[38.0299,-4.6386],[37.9816,-4.5883],[37.9274,-4.568],[37.761,-4.5869],[37.6917,-4.5339],[37.5299,-4.4401],[37.4968,-4.3835],[37.5069,-4.075],[37.4639,-3.9281],[37.4674,-3.817],[37.3832,-3.6577],[37.3294,-3.5993],[37.288,-3.4946],[37.2059,-3.4507],[37.1397,-3.485],[37.0624,-3.491],[36.9958,-3.5255],[36.9544,-3.5722],[36.8792,-3.573],[36.8284,-3.635],[36.7424,-3.5913],[36.6694,-3.595],[36.6551,-3.6295],[36.5771,-3.6654],[36.501,-3.7842],[36.5307,-4.0821],[36.3524,-4.1032],[36.2963,-4.1295],[36.2466,-4.1086],[36.0207,-3.7812],[35.9402,-3.6448],[35.8825,-3.6643],[35.7484,-3.8287],[35.7266,-3.7599],[35.7337,-3.6871],[35.6954,-3.6696],[35.5767,-3.7013],[35.5623,-3.7661],[35.4869,-3.7287],[35.5319,-3.666],[35.4216,-3.6239],[35.3794,-3.6243],[35.313,-3.6912],[35.2384,-3.7297],[35.1796,-3.7385],[35.0844,-3.7968],[35.0579,-3.8386],[34.8922,-3.9095],[34.929,-3.985],[35.0144,-4.0778],[35.017,-4.1076],[34.9064,-4.28],[34.8692,-4.3811],[34.9144,-4.4312],[34.9825,-4.4715],[35.0323,-4.5287],[35.069,-4.6095],[35.1357,-4.6419],[35.1448,-4.7235],[35.2436,-4.7614],[35.2813,-4.8316],[35.3409,-4.8545],[35.4581,-4.8703],[35.5103,-4.8616],[35.6613,-4.5684],[35.6362,-4.5002],[35.7505,-4.432],[35.8204,-4.3624],[35.8546,-4.3791],[35.9529,-4.3515],[35.9835,-4.3007],[36.0491,-4.2553],[36.2992,-4.1848],[36.3062,-4.4814],[36.3607,-4.6759],[36.349,-4.8792],[36.3121,-5.1197],[36.2907,-5.1899],[36.2372,-5.2927],[36.2442,-5.4578],[36.3812,-5.5858],[36.4449,-5.6813],[36.5701,-5.7488],[36.6753,-5.9119],[36.7251,-5.9558],[36.8617,-6.0021],[36.9151,-5.9846],[37.0607,-5.8679]]]},"properties":{"name":"Manyara","adm0_a3":"TZA"}},
{"type":"Feature","geometry":{"type":"Polygon","coordinates":[[[35.3409,-4.8545],[35.2813,-4.8316],[35.2436,-4.7614],[35.1448,-4.7235],[35.1357,-4.6419],[35.069,-4.6095],[35.0323,-4.5287],[34.9825,-4.4715],[34.9144,-4.4312],[34.8692,-4.3811],[34.9064,-4.28],[35.017,-4.1076],[35.0144,-4.0778],[34.929,-3.985],[34.8922,-3.9095],[34.7605,-3.8018],[34.685,-3.8517],[34.4129,-3.9609],[34.2888,-4.0365],[34.2603,-4.146],[34.1736,-4.1579],[34.0789,-4.3392],[33.9601,-4.4925],[33.9385,-4.5838],[33.9518,-4.7541],[33.9159,-4.8506],[33.9418,-4.9878],[33.9135,-5.0663],[33.9294,-5.1505],[34.1208,-5.2735],[34.2313,-5.39],[34.2033,-5.4334],[34.1011,-5.5262],[34.0569,-5.5935],[34.1089,-5.6417],[34.112,-5.6867],[34.0645,-5.7496],[34.0553,-5.8745],[34.0029,-6.0689],[34.0153,-6.2189],[33.8879,-6.319],[33.8527,-6.3754],[33.7559,-6.4249],[33.6541,-6.5279],[33.5664,-6.564],[33.5186,-6.6206],[33.5283,-6.8546],[33.4849,-6.9428],[33.5381,-7.0013],[33.5598,-7.1078],[33.584,-7.1477],[33.6613,-7.1971],[33.7204,-7.2843],[33.7778,-7.3017],[33.8154,-7.4347],[33.9385,-7.499],[34.1089,-7.3944],[34.174,-7.3138],[34.2647,-7.3306],[34.358,-7.3258],[34.4265,-7.2181],[34.7207,-7.1571],[34.758,-7.0869],[34.7695,-6.9901],[34.9195,-6.8897],[35.0809,-6.9205],[35.06,-6.721],[35.186,-6.7152],[35.2137,-6.6485],[35.196,-6.4773],[35.223,-6.3555],[35.1937,-6.2447],[35.1855,-6.1579],[35.2072,-6.0679],[35.2109,-5.9519],[35.2722,-5.8311],[35.2869,-5.7525],[35.3385,-5.7003],[35.1397,-5.4047],[35.0929,-5.2571],[35.0755,-5.1158],[35.3194,-4.9489],[35.3409,-4.8545]]]},"properties":{"name":"Singida","adm0_a3":"TZA"}},
{"type":"Feature","geometry":{"type":"Polygon","coordinates":[[[34.2888,-4.0365],[34.224,-4.069],[34.1063,-4.0472],[34.0714,-4.025],[33.984,-4.0221],[33.9099,-3.9588],[33.8181,-3.9527],[33.7432,-3.9271],[33.6758,-3.9333],[33.6514,-3.8923],[33.5955,-3.8796],[33.5102,-3.904],[33.3864,-3.8896],[33.2708,-3.9174],[33.182,-3.9593],[33.0689,-3.9568],[32.983,-3.9053],[32.935,-3.9261],[32.8637,-3.9106],[32.713,-3.9797],[32.7092,-4.0917],[32.6496,-4.1463],[32.7318,-4.1996],[32.7134,-4.2527],[32.6163,-4.2812],[32.5623,-4.1983],[32.5291,-4.1831],[32.4676,-4.2087],[32.4482,-4.3331],[32.3711,-4.3849],[32.2114,-4.317],[32.1283,-4.3331],[32.0462,-4.3955],[31.9717,-4.4302],[31.9821,-4.3507],[31.9678,-4.3014],[31.9592,-4.144],[31.8964,-4.0921],[31.6906,-4.0379],[31.6371,-4.1279],[31.6818,-4.2123],[31.6128,-4.2464],[31.4755,-4.2471],[31.4166,-4.3563],[31.4241,-4.448],[31.4638,-4.4698],[31.4909,-4.6205],[31.4665,-4.6758],[31.3868,-4.7273],[31.3977,-4.8321],[31.2276,-4.9592],[31.2503,-5.0181],[31.2017,-5.153],[31.193,-5.2684],[31.2303,-5.4271],[31.2117,-5.4618],[31.0622,-5.4986],[31.0401,-5.579],[31.1343,-5.6356],[31.1623,-5.7601],[31.2414,-5.7527],[31.2752,-5.8015],[31.3718,-5.7874],[31.4506,-5.8222],[31.5434,-5.8041],[31.6182,-5.8268],[31.6902,-5.8011],[31.7978,-5.7186],[31.9683,-5.7465],[32.0531,-5.7709],[32.098,-5.8358],[32.1014,-5.9046],[32.1783,-6.0768],[32.2277,-6.1239],[32.3177,-6.1716],[32.3444,-6.22],[32.4304,-6.257],[32.5123,-6.3609],[32.5533,-6.3765],[32.6986,-6.389],[32.7371,-6.4472],[32.7014,-6.51],[32.6145,-6.6007],[32.5854,-6.693],[32.5869,-6.9011],[32.5528,-7.1036],[32.6905,-7.0938],[32.7164,-7.0747],[32.7923,-6.9469],[32.8611,-6.9413],[32.9186,-6.8982],[33.0362,-6.8669],[33.1178,-6.8909],[33.1872,-6.9373],[33.2677,-6.9556],[33.4849,-6.9428],[33.5283,-6.8546],[33.5186,-6.6206],[33.5664,-6.564],[33.6541,-6.5279],[33.7559,-6.4249],[33.8527,-6.3754],[33.8879,-6.319],[34.0153,-6.2189],[34.0029,-6.0689],[34.0553,-5.8745],[34.0645,-5.7496],[34.112,-5.6867],[34.1089,-5.6417],[34.0569,-5.5935],[34.1011,-5.5262],[34.2033,-5.4334],[34.2313,-5.39],[34.1208,-5.2735],[33.9294,-5.1505],[33.9135,-5.0663],[33.9418,-4.9878],[33.9159,-4.8506],[33.9518,-4.7541],[33.9385,-4.5838],[33.9601,-4.4925],[34.0789,-4.3392],[34.1736,-4.1579],[34.2603,-4.146],[34.2888,-4.0365]]]},"properties":{"name":"Tabora","adm0_a3":"TZA"}},
{"type":"Feature","geometry":{"type":"Polygon","coordinates":[[[36.4778,-7.3704],[36.4251,-7.3161],[36.3386,-7.327],[36.243,-7.1723],[36.1099,-7.1257],[35.9828,-7.1306],[35.7742,-7.068],[35.7067,-7.0675],[35.6353,-7.0284],[35.5391,-7.0056],[35.5124,-6.9613],[35.443,-6.9332],[35.2992,-6.9418],[35.2787,-6.9633],[35.1779,-6.9789],[35.0809,-6.9205],[34.9195,-6.8897],[34.7695,-6.9901],[34.758,-7.0869],[34.7207,-7.1571],[34.4265,-7.2181],[34.358,-7.3258],[34.2647,-7.3306],[34.174,-7.3138],[34.1089,-7.3944],[33.9385,-7.499],[33.9804,-7.5346],[33.8688,-7.7251],[33.8418,-7.8027],[33.8946,-7.8369],[34.3599,-7.8136],[34.5593,-7.8526],[34.6388,-7.8922],[34.9096,-7.9351],[34.9159,-7.9911],[34.9907,-7.9918],[35.0635,-8.0356],[34.9956,-8.102],[34.9164,-8.148],[34.8541,-8.2742],[34.7399,-8.3492],[34.6906,-8.434],[34.7442,-8.5399],[34.7325,-8.6052],[34.8741,-8.6478],[34.8741,-8.698],[35.1139,-8.7817],[35.1027,-8.9602],[35.1976,-9.0271],[35.2924,-9.0327],[35.3654,-9.0086],[35.357,-8.8983],[35.3284,-8.8539],[35.3538,-8.8171],[35.3412,-8.6881],[35.4214,-8.6856],[35.6273,-8.7308],[35.6802,-8.7642],[35.7174,-8.6369],[35.8397,-8.5662],[35.9107,-8.5029],[35.9482,-8.3992],[36.0171,-8.3139],[36.0945,-8.2424],[36.182,-8.1894],[36.3093,-8.1803],[36.3266,-8.1511],[36.3155,-8.0604],[36.4198,-7.975],[36.5078,-7.9428],[36.6018,-7.9521],[36.6901,-7.978],[36.7658,-7.9563],[36.8474,-7.7838],[36.9683,-7.6538],[36.8605,-7.6377],[36.8175,-7.652],[36.777,-7.5779],[36.693,-7.5584],[36.6623,-7.53],[36.5173,-7.5008],[36.4778,-7.3704]]]},"properties":{"name":"Iringa","adm0_a3":"TZA"}},
{"type":"Feature","geometry":{"type":"Polygon","coordinates":[[[32.7039,-1.4688],[31.8772,-2.148],[31.9073,-2.2912],[31.9805,-2.4116],[32.1624,-2.5208],[32.245,-2.5804],[32.4138,-2.6085],[32.3604,-2.7098],[32.5348,-2.8111],[32.5095,-2.8871],[32.5967,-2.9603],[32.5104,-3.1978],[32.5407,-3.2643],[32.5338,-3.3711],[32.6493,-3.4466],[32.6808,-3.3197],[32.7542,-3.2761],[32.8621,-3.255],[32.964,-3.3629],[33.0667,-3.3996],[33.1099,-3.4326],[33.1759,-3.4018],[33.2139,-3.3275],[33.3683,-3.3069],[33.4229,-3.274],[33.4724,-3.1785],[33.5295,-2.9728],[33.4986,-2.8608],[33.5686,-2.7959],[33.6199,-2.7715],[33.6888,-2.7914],[33.7646,-2.7554],[33.7873,-2.7075],[33.7632,-2.6617],[33.6721,-2.6129],[33.5918,-2.5372],[33.4855,-2.4092],[33.3581,-2.1679],[33.3109,-2.1216],[33.2078,-2.1148],[33.2283,-2.0459],[33.3177,-2.0459],[33.3999,-1.9723],[33.4964,-2.0255],[33.5504,-2.0289],[33.5734,-1.9872],[33.5044,-1.9537],[33.4379,-1.8803],[33.3144,-1.9445],[33.3007,-1.8343],[33.3431,-1.7386],[33.4644,-1.6826],[33.4561,-1.5213],[33.3344,-1.4736],[32.7208,-1.4835],[32.7039,-1.4688]]]},"properties":{"name":"Mwanza","adm0_a3":"TZA"}},
{"type":"Feature","geometry":{"type":"Polygon","coordinates":[[[35.2076,-2.487],[34.6578,-2.4913],[34.5648,-2.4367],[34.4785,-2.4249],[34.4284,-2.3578],[34.3216,-2.2905],[34.2983,-2.2569],[34.1696,-2.196],[34.0996,-2.1916],[34.0356,-2.1324],[34.0043,-2.182],[33.8311,-2.1721],[33.816,-2.1233],[33.7494,-2.086],[33.6422,-2.1468],[33.6056,-2.1831],[33.5094,-2.1531],[33.3581,-2.1679],[33.4855,-2.4092],[33.5918,-2.5372],[33.6721,-2.6129],[33.7632,-2.6617],[33.7873,-2.7075],[33.7646,-2.7554],[33.6888,-2.7914],[33.6199,-2.7715],[33.5686,-2.7959],[33.4986,-2.8608],[33.5295,-2.9728],[33.4724,-3.1785],[33.4229,-3.274],[33.4748,-3.28],[33.594,-3.3886],[33.7318,-3.4442],[33.8033,-3.4177],[33.8616,-3.4866],[33.9093,-3.5157],[34.0762,-3.5263],[34.1583,-3.5502],[34.1901,-3.6031],[34.2669,-3.8151],[34.3225,-3.8866],[34.4129,-3.9609],[34.685,-3.8517],[34.7605,-3.8018],[34.7533,-3.7231],[34.8143,-3.654],[34.8925,-3.5969],[34.9012,-2.8831],[34.936,-2.8883],[34.9975,-2.9554],[35.0356,-2.9675],[35.1227,-2.9196],[35.1501,-2.8686],[35.2162,-2.5837],[35.2076,-2.487]]]},"properties":{"name":"Simiyu","adm0_a3":"TZA"}},
{"type":"Feature","geometry":{"type":"Polygon","coordinates":[[[31.4166,-4.3563],[31.4755,-4.2471],[31.6128,-4.2464],[31.6818,-4.2123],[31.6371,-4.1279],[31.6906,-4.0379],[31.6769,-3.968],[31.691,-3.9047],[31.7473,-3.8203],[31.8352,-3.7429],[31.9407,-3.6937],[32.1342,-3.6726],[32.1483,-3.5952],[32.1166,-3.3947],[32.1377,-3.3279],[32.1809,-3.2722],[32.2502,-3.2364],[32.289,-3.2946],[32.3464,-3.3191],[32.4157,-3.2344],[32.5104,-3.1978],[32.5967,-2.9603],[32.5095,-2.8871],[32.5348,-2.8111],[32.3604,-2.7098],[32.4138,-2.6085],[32.245,-2.5804],[32.1624,-2.5208],[31.9805,-2.4116],[31.9073,-2.2912],[31.8772,-2.148],[31.7465,-2.1804],[31.7278,-2.2833],[31.6337,-2.3563],[31.5644,-2.3535],[31.3639,-2.2656],[31.3181,-2.2585],[31.1985,-2.2867],[31.1669,-2.2796],[31.0191,-2.5329],[30.9101,-2.5857],[30.8749,-2.6842],[30.9699,-2.7756],[30.9821,-2.8387],[31.0242,-2.8554],[31.0689,-2.9386],[31.0711,-3.0142],[31.0054,-3.1444],[31.1103,-3.2201],[31.147,-3.3617],[31.2054,-3.4644],[31.2179,-3.6364],[31.2422,-3.699],[31.2983,-3.7525],[31.3586,-3.8851],[31.3762,-3.9669],[31.3376,-4.1078],[31.3471,-4.2195],[31.4166,-4.3563]]]},"properties":{"name":"Geita","adm0_a3":"TZA"}},
{"type":"Feature","geometry":{"type":"Polygon","coordinates":[[[31.6906,-4.0379],[31.8964,-4.0921],[31.9592,-4.144],[31.9678,-4.3014],[31.9821,-4.3507],[31.9717,-4.4302],[32.0462,-4.3955],[32.1283,-4.3331],[32.2114,-4.317],[32.3711,-4.3849],[32.4482,-4.3331],[32.4676,-4.2087],[32.5291,-4.1831],[32.5623,-4.1983],[32.6163,-4.2812],[32.7134,-4.2527],[32.7318,-4.1996],[32.6496,-4.1463],[32.7092,-4.0917],[32.713,-3.9797],[32.8637,-3.9106],[32.935,-3.9261],[32.983,-3.9053],[33.0689,-3.9568],[33.182,-3.9593],[33.2708,-3.9174],[33.3864,-3.8896],[33.5102,-3.904],[33.5955,-3.8796],[33.6514,-3.8923],[33.6758,-3.9333],[33.7432,-3.9271],[33.8181,-3.9527],[33.9099,-3.9588],[33.984,-4.0221],[34.0714,-4.025],[34.1063,-4.0472],[34.224,-4.069],[34.2888,-4.0365],[34.4129,-3.9609],[34.3225,-3.8866],[34.2669,-3.8151],[34.1901,-3.6031],[34.1583,-3.5502],[34.0762,-3.5263],[33.9093,-3.5157],[33.8616,-3.4866],[33.8033,-3.4177],[33.7318,-3.4442],[33.594,-3.3886],[33.4748,-3.28],[33.4229,-3.274],[33.3683,-3.3069],[33.2139,-3.3275],[33.1759,-3.4018],[33.1099,-3.4326],[33.0667,-3.3996],[32.964,-3.3629],[32.8621,-3.255],[32.7542,-3.2761],[32.6808,-3.3197],[32.6493,-3.4466],[32.5338,-3.3711],[32.5407,-3.2643],[32.5104,-3.1978],[32.4157,-3.2344],[32.3464,-3.3191],[32.289,-3.2946],[32.2502,-3.2364],[32.1809,-3.2722],[32.1377,-3.3279],[32.1166,-3.3947],[32.1483,-3.5952],[32.1342,-3.6726],[31.9407,-3.6937],[31.8352,-3.7429],[31.7473,-3.8203],[31.691,-3.9047],[31.6769,-3.968],[31.6906,-4.0379]]]},"properties":{"name":"Shinyanga","adm0_a3":"TZA"}}
]}