{"type":"FeatureCollection", "features": [
{"type":"Feature","geometry":{"type":"Polygon","coordinates":[[[36.0453,4.4437],[35.9971,4.463],[35.9338,4.5222],[35.936,4.5785],[35.9208,4.6193],[35.7812,4.6199],[35.7784,4.6783],[35.7394,4.6811],[35.7115,4.6616],[35.7004,4.5891],[35.6106,4.62],[35.5222,4.7805],[35.5708,4.9043],[35.4956,4.9264],[35.3961,4.9264],[35.4337,5.0038],[35.4116,5.0304],[35.2634,4.9485],[35.2457,4.9817],[34.9208,4.8595],[34.6663,4.765],[34.3812,4.6202],[33.9771,4.2197],[34.0285,4.188],[34.0411,4.1648],[34.041,4.1204],[34.0693,4.088],[34.0611,4.0078],[34.1071,3.9595],[34.0862,3.8947],[34.108,3.8689],[34.1634,3.8862],[34.205,3.8745],[34.1967,3.8474],[34.149,3.8227],[34.179,3.7961],[34.1652,3.7708],[34.2304,3.7827],[34.2638,3.7501],[34.2789,3.7097],[34.3371,3.7346],[34.3875,3.6927],[34.4397,3.6677],[34.4464,3.6467],[34.4439,3.5663],[34.4345,3.5262],[34.3821,3.466],[34.3986,3.4336],[34.384,3.3883],[34.4112,3.3447],[34.4241,3.3048],[34.434,3.182],[34.4657,3.1459],[34.5129,3.1324],[34.5456,3.0974],[34.5747,2.9461],[34.6405,2.8601],[34.6889,2.8792],[34.7301,2.8529],[34.7613,2.7725],[34.7765,2.6856],[34.8187,2.598],[34.8756,2.5912],[34.8871,2.5224],[34.9236,2.4773],[34.9061,2.4369],[34.8679,2.4115],[34.8591,2.3868],[34.8656,2.3475],[34.9675,2.1019],[34.9579,1.9978],[34.9692,1.9603],[35.0014,1.928],[35.0028,1.9061],[34.9797,1.8703],[34.9787,1.6759],[34.9409,1.587],[34.9235,1.5661],[34.8826,1.5522],[34.8595,1.5179],[34.8384,1.4372],[34.779,1.3885],[34.7827,1.353],[34.8105,1.2725],[34.7979,1.2319],[34.7661,1.2175],[34.6838,1.2091],[34.6289,1.1636],[34.5805,1.1525],[34.5669,1.103],[34.6045,1.0673],[34.6244,1.0208],[34.727,0.9132],[34.7579,0.9022],[34.7602,0.8595],[34.7971,0.8267],[34.8942,0.8451],[34.9233,0.8454],[34.9624,0.8818],[35.0511,0.8837],[35.1141,0.8593],[35.1529,0.8073],[35.1566,0.7612],[35.1701,0.737],[35.1642,0.708],[35.1291,0.6854],[35.0871,0.6328],[35.0445,0.6385],[35.0044,0.627],[34.9678,0.6286],[34.9165,0.5715],[34.8749,0.582],[34.845,0.5707],[34.836,0.5058],[34.8904,0.4714],[34.9137,0.4327],[34.9282,0.3721],[34.9196,0.3071],[34.934,0.26],[34.9103,0.1787],[34.8508,0.1209],[34.8364,0.0831],[34.7586,-0.0075],[34.8162,-0.0369],[34.9332,-0.0424],[34.9911,-0.0256],[35.0471,-0.0589],[35.0769,-0.0503],[35.113,-0.0194],[35.1652,-0.0416],[35.2134,-0.0373],[35.2303,-0.0895],[35.2612,-0.1067],[35.2724,-0.14],[35.3256,-0.1886],[35.3214,-0.2369],[35.3004,-0.2495],[35.2676,-0.2351],[35.2529,-0.2084],[35.2261,-0.2013],[35.1976,-0.1693],[35.1644,-0.1721],[35.1208,-0.1276],[35.0845,-0.1852],[35.0491,-0.2115],[35.0381,-0.3058],[34.9987,-0.3607],[35.0319,-0.4461],[35.0279,-0.4797],[35.0424,-0.5237],[35.0542,-0.6316],[35.0486,-0.7002],[35.0724,-0.7808],[35.0159,-0.8283],[34.9943,-0.8856],[34.9756,-0.8947],[34.708,-0.9713],[34.6441,-0.963],[34.5732,-1.01],[34.6302,-1.1652],[34.6585,-1.1893],[34.6803,-1.2324],[34.7189,-1.4124],[34.9862,-1.5616],[35.4156,-1.8013],[35.8449,-2.0411],[36.2741,-2.2808],[36.7035,-2.5204],[37.1329,-2.7601],[37.6449,-3.046],[37.6602,-3.0706],[37.68,-3.1921],[37.7902,-3.1741],[37.8244,-3.1739],[37.8346,-3.1531],[37.8504,-3.01],[37.9179,-2.7799],[37.8965,-2.7038],[37.6002,-2.3619],[37.5957,-2.3321],[37.6559,-2.2957],[37.6718,-2.2301],[37.7125,-2.1864],[37.6611,-2.1625],[37.6231,-2.1654],[37.5935,-2.1549],[37.5311,-2.1056],[37.4993,-2.0944],[37.4309,-2.0464],[37.3752,-2.0181],[37.2985,-2.0003],[37.2355,-1.9423],[37.179,-1.9075],[37.1503,-1.8376],[37.1581,-1.7798],[37.1439,-1.7583],[36.9967,-1.5826],[36.9633,-1.5126],[36.9798,-1.4607],[36.9188,-1.4461],[36.8862,-1.4614],[36.8622,-1.4481],[36.8696,-1.4132],[36.8427,-1.3907],[36.7877,-1.3862],[36.7371,-1.3584],[36.7096,-1.3202],[36.6762,-1.2982],[36.6249,-1.2694],[36.5079,-1.2519],[36.5011,-1.2313],[36.5391,-1.1193],[36.576,-1.1115],[36.5849,-0.9974],[36.5614,-0.9535],[36.561,-0.9137],[36.5262,-0.8186],[36.5187,-0.7774],[36.5295,-0.7252],[36.5065,-0.6153],[36.4519,-0.581],[36.4016,-0.585],[36.3898,-0.5434],[36.3813,-0.4691],[36.387,-0.4314],[36.3701,-0.3998],[36.3249,-0.3904],[36.2559,-0.3882],[36.2064,-0.2796],[36.2,-0.2446],[36.2146,-0.1918],[36.2126,-0.1411],[36.2264,-0.0783],[36.2615,0.0005],[36.3251,0.035],[36.3363,0.0564],[36.4017,0.0642],[36.4832,0.111],[36.5169,0.0611],[36.5658,0.0366],[36.5999,0.0083],[36.6312,0.0233],[36.644,0.0054],[36.556,-0.0482],[36.5377,-0.0811],[36.5444,-0.1018],[36.5884,-0.1384],[36.6683,-0.1496],[36.8078,-0.1248],[36.8596,-0.1454],[36.8542,-0.1838],[36.8338,-0.2124],[36.8814,-0.2817],[36.9147,-0.3014],[36.9348,-0.2873],[36.9692,-0.2936],[37.0234,-0.2316],[37.0313,-0.16],[37.0038,-0.0995],[37.0388,-0.0586],[37.0862,0.0192],[37.2116,0.068],[37.2546,0.0977],[37.3582,0.2053],[37.3653,0.26],[37.3939,0.313],[37.3942,0.3493],[37.3598,0.4117],[37.35,0.4432],[37.3486,0.5127],[37.3309,0.5282],[36.8789,0.5862],[36.8654,0.613],[36.9186,0.6829],[36.9186,0.7334],[36.9317,0.7595],[36.961,0.7574],[37.1045,0.7928],[37.2091,0.7522],[37.2386,0.7703],[37.2941,0.7331],[37.3812,0.5927],[37.4066,0.5856],[37.473,0.6014],[37.5036,0.5848],[37.5668,0.577],[37.6979,0.6727],[37.7221,0.6698],[37.7598,0.6865],[37.7958,0.6846],[37.8289,0.6962],[37.8751,0.7409],[37.9136,0.7341],[37.9532,0.7565],[38.0007,0.8012],[38.057,0.7945],[38.0355,1.137],[38.02,1.1681],[37.9591,1.2388],[37.9426,1.2732],[37.9325,1.4083],[37.915,1.4383],[37.8507,1.4997],[37.8012,1.4751],[37.7562,1.474],[37.7184,1.4525],[37.6737,1.4508],[37.653,1.4379],[37.5618,1.4187],[37.5465,1.4307],[37.4788,1.5909],[37.419,1.6467],[37.3849,1.6937],[37.3753,1.7624],[37.3643,1.7784],[37.3027,1.8198],[37.2861,1.8636],[37.2505,1.9223],[37.2006,1.9611],[37.1754,2.0006],[37.1407,2.0156],[37.0419,2.0244],[36.9666,2.0205],[36.9509,2.0861],[36.9073,2.2013],[36.8932,2.2258],[36.8269,2.29],[36.7459,2.5194],[36.7329,2.5391],[36.6967,2.5381],[36.7084,2.5085],[36.6911,2.4672],[36.636,2.409],[36.5939,2.4083],[36.5585,2.3946],[36.5322,2.4227],[36.5181,2.5516],[36.4772,2.6118],[36.4436,2.6307],[36.4368,2.6544],[36.4371,2.7236],[36.4107,2.7914],[36.381,2.8464],[36.3027,2.9025],[36.2581,2.9427],[36.2516,2.9726],[36.203,2.966],[36.1823,2.9836],[36.1269,2.9877],[36.1209,3.0081],[36.1483,3.1166],[36.1363,3.1608],[36.1429,3.2198],[36.1066,3.2164],[36.0533,3.2429],[36.0455,3.2679],[36.0453,4.4437]]]},"properties":{"name":"Rift Valley","adm0_a3":"KEN"}},
{"type":"Feature","geometry":{"type":"Polygon","coordinates":[[[39.2963,3.492],[39.2576,3.4697],[39.1805,3.477],[39.0679,3.5266],[39.0105,3.5145],[38.9632,3.5221],[38.8952,3.5136],[38.722,3.5604],[38.6603,3.5945],[38.5471,3.6095],[38.5143,3.6485],[38.4969,3.6239],[38.446,3.6017],[38.3899,3.5969],[38.1769,3.6209],[38.1019,3.6126],[38.0362,3.6489],[37.9767,3.7264],[37.4751,4.049],[37.1119,4.2823],[37.0948,4.2849],[37.0759,4.3311],[37.0484,4.332],[37.0157,4.3706],[36.9748,4.3799],[36.9037,4.4158],[36.8441,4.4322],[36.6513,4.4306],[36.6195,4.4434],[36.2772,4.4364],[36.2257,4.4496],[36.1913,4.4449],[36.0453,4.4437],[36.0455,3.2679],[36.0533,3.2429],[36.1066,3.2164],[36.1429,3.2198],[36.1363,3.1608],[36.1483,3.1166],[36.1209,3.0081],[36.1269,2.9877],[36.1823,2.9836],[36.203,2.966],[36.2516,2.9726],[36.2581,2.9427],[36.3027,2.9025],[36.381,2.8464],[36.4107,2.7914],[36.4371,2.7236],[36.4368,2.6544],[36.4436,2.6307],[36.4772,2.6118],[36.5181,2.5516],[36.5322,2.4227],[36.5585,2.3946],[36.5939,2.4083],[36.636,2.409],[36.6911,2.4672],[36.7084,2.5085],[36.6967,2.5381],[36.7329,2.5391],[36.7459,2.5194],[36.8269,2.29],[36.8932,2.2258],[36.9073,2.2013],[36.9509,2.0861],[36.9666,2.0205],[37.0419,2.0244],[37.1407,2.0156],[37.1754,2.0006],[37.2006,1.9611],[37.2505,1.9223],[37.2861,1.8636],[37.3027,1.8198],[37.3643,1.7784],[37.3753,1.7624],[37.3849,1.6937],[37.419,1.6467],[37.4788,1.5909],[37.5465,1.4307],[37.5618,1.4187],[37.653,1.4379],[37.6737,1.4508],[37.7184,1.4525],[37.7562,1.474],[37.8012,1.4751],[37.8507,1.4997],[37.915,1.4383],[37.9325,1.4083],[37.9426,1.2732],[37.9591,1.2388],[38.02,1.1681],[38.0355,1.137],[38.057,0.7945],[38.0007,0.8012],[37.9532,0.7565],[37.9136,0.7341],[37.8751,0.7409],[37.8289,0.6962],[37.7958,0.6846],[37.7598,0.6865],[37.7221,0.6698],[37.6979,0.6727],[37.5668,0.577],[37.5036,0.5848],[37.473,0.6014],[37.4066,0.5856],[37.3812,0.5927],[37.2941,0.7331],[37.2386,0.7703],[37.2091,0.7522],[37.1045,0.7928],[36.961,0.7574],[36.9317,0.7595],[36.9186,0.7334],[36.9186,0.6829],[36.8654,0.613],[36.8789,0.5862],[37.3309,0.5282],[37.3486,0.5127],[37.35,0.4432],[37.3598,0.4117],[37.3942,0.3493],[37.3939,0.313],[37.3653,0.26],[37.3582,0.2053],[37.2546,0.0977],[37.2116,0.068],[37.0862,0.0192],[37.1097,-0.0041],[37.3165,-0.1594],[37.3236,-0.1699],[37.4292,-0.4273],[37.4368,-0.5377],[37.4769,-0.5901],[37.4783,-0.6958],[37.4925,-0.7357],[37.4802,-0.7466],[37.3478,-0.7961],[37.3295,-0.794],[37.2884,-0.7602],[37.2555,-0.7653],[37.2428,-0.8696],[37.28,-0.9004],[37.2989,-0.9505],[37.3246,-0.9788],[37.3736,-0.973],[37.3643,-1.0388],[37.3212,-1.0895],[37.2896,-1.0674],[37.2158,-1.0771],[37.1734,-1.1127],[37.1775,-1.1475],[37.1451,-1.223],[37.1315,-1.2371],[37.0702,-1.2988],[37.0535,-1.3029],[36.9743,-1.2896],[36.9565,-1.3258],[36.9107,-1.3566],[36.9248,-1.3873],[36.9065,-1.4129],[36.8696,-1.4132],[36.8622,-1.4481],[36.8862,-1.4614],[36.9188,-1.4461],[36.9798,-1.4607],[36.9633,-1.5126],[36.9967,-1.5826],[37.1439,-1.7583],[37.1581,-1.7798],[37.1503,-1.8376],[37.179,-1.9075],[37.2355,-1.9423],[37.2985,-2.0003],[37.3752,-2.0181],[37.4309,-2.0464],[37.4993,-2.0944],[37.5311,-2.1056],[37.5935,-2.1549],[37.6231,-2.1654],[37.6611,-2.1625],[37.7125,-2.1864],[37.6718,-2.2301],[37.6559,-2.2957],[37.5957,-2.3321],[37.6002,-2.3619],[37.8965,-2.7038],[37.9179,-2.7799],[37.9676,-2.78],[38.0886,-2.7225],[38.1349,-2.69],[38.2033,-2.7505],[38.2604,-2.7748],[38.2781,-2.7908],[38.3215,-2.857],[38.352,-2.9218],[38.407,-2.9482],[38.4441,-2.9849],[38.4632,-2.9735],[38.5391,-2.964],[38.6567,-3.029],[38.6966,-3.0249],[38.7436,-3.0391],[38.7917,-3.0432],[38.8038,-3.0675],[38.8542,-3.0526],[38.8826,-3.0336],[38.9793,-3.032],[38.9962,-3.0148],[39.0421,-3.0181],[38.63,-2.4114],[38.6893,-2.4112],[38.7208,-2.3942],[38.7404,-2.3656],[38.7971,-2.3337],[38.9795,-1.9689],[38.9857,-1.9197],[38.9602,-1.7643],[38.9619,-1.7374],[39.0001,-1.6868],[38.9965,-1.1463],[38.9894,-1.1242],[38.8707,-0.8652],[38.4159,-0.0806],[38.4435,-0.0652],[38.4662,-0.0751],[38.5465,-0.0242],[38.5737,-0.0238],[38.6327,-0.0436],[38.7042,-0.0413],[38.7458,-0.0652],[38.7369,0.1424],[38.75,0.1773],[38.7472,0.2153],[38.6927,0.4475],[38.6648,0.4745],[38.7043,0.5056],[38.7661,0.5137],[38.7826,0.5241],[38.8259,0.5856],[39.1585,0.7111],[39.1821,0.7647],[39.2099,0.8053],[39.2692,0.8632],[39.3075,0.926],[39.426,0.9718],[39.445,0.9989],[39.2794,1.4416],[39.2942,1.4651],[39.4508,1.5285],[39.3923,1.5684],[39.3409,1.6339],[39.2156,1.7066],[39.1855,1.7384],[39.1752,1.7835],[39.1219,1.8686],[39.0679,1.9114],[39.0265,1.9744],[38.9823,2.0754],[38.9432,2.1327],[38.9441,2.2147],[38.9194,2.3328],[38.9162,2.3879],[38.9016,2.4497],[38.8798,2.4996],[38.8853,2.52],[38.9503,2.5431],[38.9708,2.5738],[39.0954,2.8519],[39.1129,2.9092],[39.1399,2.931],[39.1843,2.9468],[39.2162,2.9735],[39.267,2.9898],[39.3233,3.0423],[39.3281,3.0676],[39.3272,3.1998],[39.3104,3.2909],[39.2963,3.492]]]},"properties":{"name":"Eastern","adm0_a3":"KEN"}},
{"type":"Feature","geometry":{"type":"Polygon","coordinates":[[[41.5359,-1.6763],[41.5386,-1.6137],[41.5229,-1.5728],[41.3322,-1.3264],[40.9798,-0.8708],[40.9755,-0.5452],[40.9685,-0.0027],[40.9685,0.2473],[40.9685,0.6223],[40.9685,1.1222],[40.9685,1.4971],[40.9685,1.7472],[40.9685,2.21],[40.9685,2.4971],[40.9654,2.8141],[40.9798,2.8419],[41.3427,3.2011],[41.6336,3.6171],[41.885,3.9772],[41.8359,3.9495],[41.7914,3.9582],[41.6998,3.9969],[41.6574,3.9727],[41.5863,3.9842],[41.4295,3.9489],[41.2153,3.9366],[41.163,3.9427],[41.1145,3.9623],[41.0701,3.9969],[41.0059,4.0867],[40.9636,4.1204],[40.8874,4.1561],[40.846,4.215],[40.7858,4.2558],[40.7637,4.2849],[40.7007,4.2435],[40.3827,4.1214],[40.3657,4.0949],[40.1856,4.0322],[40.1624,4.0194],[39.8485,3.8673],[39.8283,3.8426],[39.7808,3.7166],[39.7451,3.6606],[39.6008,3.5289],[39.575,3.4979],[39.5532,3.4313],[39.5363,3.405],[39.4885,3.4139],[39.467,3.452],[39.4362,3.4624],[39.3113,3.4661],[39.2963,3.492],[39.3104,3.2909],[39.3272,3.1998],[39.3281,3.0676],[39.3233,3.0423],[39.267,2.9898],[39.2162,2.9735],[39.1843,2.9468],[39.1399,2.931],[39.1129,2.9092],[39.0954,2.8519],[38.9708,2.5738],[38.9503,2.5431],[38.8853,2.52],[38.8798,2.4996],[38.9016,2.4497],[38.9162,2.3879],[38.9194,2.3328],[38.9441,2.2147],[38.9432,2.1327],[38.9823,2.0754],[39.0265,1.9744],[39.0679,1.9114],[39.1219,1.8686],[39.1752,1.7835],[39.1855,1.7384],[39.2156,1.7066],[39.3409,1.6339],[39.3923,1.5684],[39.4508,1.5285],[39.2942,1.4651],[39.2794,1.4416],[39.445,0.9989],[39.426,0.9718],[39.3075,0.926],[39.2692,0.8632],[39.2099,0.8053],[39.1821,0.7647],[39.1585,0.7111],[38.8259,0.5856],[38.7826,0.5241],[38.7661,0.5137],[38.7043,0.5056],[38.6648,0.4745],[38.6927,0.4475],[38.7472,0.2153],[38.75,0.1773],[38.7369,0.1424],[38.7458,-0.0652],[38.9338,-0.0931],[38.968,-0.0553],[38.9945,-0.0436],[39.0571,-0.0379],[39.09,-0.0621],[39.143,-0.1273],[39.2287,-0.1307],[39.247,-0.1394],[39.3069,-0.1341],[39.3428,-0.1589],[39.4304,-0.1887],[39.459,-0.2047],[39.4955,-0.2418],[39.5123,-0.2781],[39.5471,-0.2849],[39.5944,-0.3463],[39.6332,-0.4895],[39.6591,-0.5154],[39.6985,-0.5791],[39.7525,-0.5928],[39.7739,-0.6125],[39.7811,-0.6446],[39.8115,-0.6896],[39.8134,-0.7508],[39.834,-0.8405],[39.8624,-0.9224],[39.8624,-0.949],[39.8877,-1.0152],[39.9232,-1.0862],[39.9375,-1.1005],[39.917,-1.1347],[39.9563,-1.1511],[39.9716,-1.1927],[39.9939,-1.2187],[40.0058,-1.2575],[40.0105,-1.3421],[40.0269,-1.4158],[40.0335,-1.4804],[40.0838,-1.5864],[40.1134,-1.6262],[40.1205,-1.7255],[40.1094,-1.738],[40.1156,-1.7994],[40.1086,-1.8184],[40.1293,-1.854],[40.1436,-1.9155],[40.1374,-1.9431],[40.1683,-2.043],[40.1682,-2.0781],[40.223,-2.0571],[40.9965,-1.7111],[41.5359,-1.6763]]]},"properties":{"name":"North-Eastern","adm0_a3":"KEN"}},
{"type":"Feature","geometry":{"type":"MultiPolygon","coordinates":[[[[41.5359,-1.6763],[40.9965,-1.7111],[40.223,-2.0571],[40.1682,-2.0781],[40.1683,-2.043],[40.1374,-1.9431],[40.1436,-1.9155],[40.1293,-1.854],[40.1086,-1.8184],[40.1156,-1.7994],[40.1094,-1.738],[40.1205,-1.7255],[40.1134,-1.6262],[40.0838,-1.5864],[40.0335,-1.4804],[40.0269,-1.4158],[40.0105,-1.3421],[40.0058,-1.2575],[39.9939,-1.2187],[39.9716,-1.1927],[39.9563,-1.1511],[39.917,-1.1347],[39.9375,-1.1005],[39.9232,-1.0862],[39.8877,-1.0152],[39.8624,-0.949],[39.8624,-0.9224],[39.834,-0.8405],[39.8134,-0.7508],[39.8115,-0.6896],[39.7811,-0.6446],[39.7739,-0.6125],[39.7525,-0.5928],[39.6985,-0.5791],[39.6591,-0.5154],[39.6332,-0.4895],[39.5944,-0.3463],[39.5471,-0.2849],[39.5123,-0.2781],[39.4955,-0.2418],[39.459,-0.2047],[39.4304,-0.1887],[39.3428,-0.1589],[39.3069,-0.1341],[39.247,-0.1394],[39.2287,-0.1307],[39.143,-0.1273],[39.09,-0.0621],[39.0571,-0.0379],[38.9945,-0.0436],[38.968,-0.0553],[38.9338,-0.0931],[38.7458,-0.0652],[38.7042,-0.0413],[38.6327,-0.0436],[38.5737,-0.0238],[38.5465,-0.0242],[38.4662,-0.0751],[38.4435,-0.0652],[38.4159,-0.0806],[38.8707,-0.8652],[38.9894,-1.1242],[38.9965,-1.1463],[39.0001,-1.6868],[38.9619,-1.7374],[38.9602,-1.7643],[38.9857,-1.9197],[38.9795,-1.9689],[38.7971,-2.3337],[38.7404,-2.3656],[38.7208,-2.3942],[38.6893,-2.4112],[38.63,-2.4114],[39.0421,-3.0181],[38.9962,-3.0148],[38.9793,-3.032],[38.8826,-3.0336],[38.8542,-3.0526],[38.8038,-3.0675],[38.7917,-3.0432],[38.7436,-3.0391],[38.6966,-3.0249],[38.6567,-3.029],[38.5391,-2.964],[38.4632,-2.9735],[38.4441,-2.9849],[38.407,-2.9482],[38.352,-2.9218],[38.3215,-2.857],[38.2781,-2.7908],[38.2604,-2.7748],[38.2033,-2.7505],[38.1349,-2.69],[38.0886,-2.7225],[37.9676,-2.78],[37.9179,-2.7799],[37.8504,-3.01],[37.8346,-3.1531],[37.8244,-3.1739],[37.7902,-3.1741],[37.68,-3.1921],[37.7001,-3.3144],[37.6719,-3.3243],[37.6699,-3.3561],[37.6272,-3.3703],[37.5903,-3.4041],[37.5794,-3.4464],[37.6082,-3.4636],[37.5991,-3.5134],[37.6894,-3.5181],[37.7223,-3.54],[37.7472,-3.617],[37.771,-3.6554],[38.1668,-3.9404],[38.5083,-4.1862],[38.8496,-4.4319],[39.1906,-4.6775],[39.2244,-4.6559],[39.2643,-4.6066],[39.3625,-4.634],[39.3962,-4.629],[39.3906,-4.5934],[39.431,-4.53],[39.4474,-4.5343],[39.5225,-4.4181],[39.5511,-4.4021],[39.5838,-4.2794],[39.6159,-4.1978],[39.6659,-4.1121],[39.6697,-4.088],[39.6151,-4.0593],[39.5613,-4.061],[39.5642,-4.0329],[39.6262,-4.0255],[39.6431,-3.9855],[39.6995,-4.0484],[39.7608,-3.9418],[39.7864,-3.9172],[39.867,-3.6949],[39.869,-3.6633],[39.849,-3.6252],[39.8001,-3.6347],[39.7731,-3.5849],[39.8177,-3.5908],[39.8573,-3.6183],[39.8901,-3.5817],[39.9006,-3.5242],[39.9273,-3.4814],[39.9652,-3.3992],[40.0266,-3.3344],[40.0881,-3.3036],[40.1291,-3.2519],[40.1192,-3.1835],[40.1532,-3.1352],[40.1638,-3.067],[40.1901,-3.027],[40.2251,-2.9937],[40.1786,-2.9765],[40.1838,-2.9503],[40.1626,-2.9343],[40.1649,-2.9015],[40.1875,-2.8071],[40.175,-2.7626],[40.2048,-2.7249],[40.2439,-2.6567],[40.2937,-2.6164],[40.3483,-2.5901],[40.3898,-2.5603],[40.4909,-2.5285],[40.5236,-2.5251],[40.6159,-2.5525],[40.6506,-2.5393],[40.7118,-2.4666],[40.7581,-2.4474],[40.8169,-2.3979],[40.8286,-2.3748],[40.787,-2.3273],[40.7947,-2.2905],[40.8381,-2.245],[40.8937,-2.2282],[40.9211,-2.2706],[40.9522,-2.2861],[40.9807,-2.253],[40.9569,-2.2189],[40.9248,-2.2172],[40.906,-2.1533],[40.9043,-2.0803],[40.8851,-2.0148],[40.8586,-2.0058],[40.861,-1.9635],[40.9082,-1.9977],[40.9268,-2.0593],[40.9453,-2.0732],[40.9666,-2.0466],[40.9707,-1.929],[40.9901,-1.9625],[40.9795,-2.005],[40.9902,-2.0289],[41.0287,-2.0432],[41.1091,-1.9776],[41.1858,-1.9902],[41.199,-1.9431],[41.2315,-1.9555],[41.3035,-1.9561],[41.3391,-1.9124],[41.396,-1.8606],[41.4583,-1.7748],[41.5351,-1.6963],[41.5359,-1.6763]]],[[[41.054,-2.0496],[41.0452,-2.0698],[40.9829,-2.0973],[40.9574,-2.1513],[40.9862,-2.1659],[41.0508,-2.1295],[41.1553,-2.1121],[41.1628,-2.0909],[41.1433,-2.0595],[41.0928,-2.038],[41.054,-2.0496]]]]},"properties":{"name":"Coast","adm0_a3":"KEN"}},
{"type":"Feature","geometry":{"type":"Polygon","coordinates":[[[34.7189,-1.4124],[34.6803,-1.2324],[34.6585,-1.1893],[34.6302,-1.1652],[34.5732,-1.01],[34.6441,-0.963],[34.708,-0.9713],[34.9756,-0.8947],[34.9943,-0.8856],[35.0159,-0.8283],[35.0724,-0.7808],[35.0486,-0.7002],[35.0542,-0.6316],[35.0424,-0.5237],[35.0279,-0.4797],[35.0319,-0.4461],[34.9987,-0.3607],[35.0381,-0.3058],[35.0491,-0.2115],[35.0845,-0.1852],[35.1208,-0.1276],[35.1644,-0.1721],[35.1976,-0.1693],[35.2261,-0.2013],[35.2529,-0.2084],[35.2676,-0.2351],[35.3004,-0.2495],[35.3214,-0.2369],[35.3256,-0.1886],[35.2724,-0.14],[35.2612,-0.1067],[35.2303,-0.0895],[35.2134,-0.0373],[35.1652,-0.0416],[35.113,-0.0194],[35.0769,-0.0503],[35.0471,-0.0589],[34.9911,-0.0256],[34.9332,-0.0424],[34.8162,-0.0369],[34.7586,-0.0075],[34.6997,-0.0084],[34.6458,-0.019],[34.5994,-0.001],[34.5374,-0.0204],[34.5058,0.0037],[34.5184,0.0369],[34.513,0.0983],[34.4685,0.1219],[34.4585,0.1605],[34.4041,0.2154],[34.3953,0.2679],[34.3543,0.3066],[34.3082,0.2946],[34.2276,0.3022],[34.1921,0.2554],[34.1434,0.2511],[34.0919,0.2067],[34.0759,0.1188],[34.0213,0.0841],[34.0179,0.0343],[33.9996,0.0022],[33.9525,-0.1157],[33.9535,-0.1544],[33.8948,-0.6627],[33.9042,-1.0026],[34,-1.0026],[34.002,-1.0287],[34.0525,-1.0404],[34.3421,-1.2021],[34.7189,-1.4124]]]},"properties":{"name":"Nyanza","adm0_a3":"KEN"}},
{"type":"Feature","geometry":{"type":"Polygon","coordinates":[[[34.5669,1.103],[34.5404,1.0894],[34.5075,1.1025],[34.487,1.0825],[34.4637,1.0229],[34.463,0.9781],[34.4312,0.8935],[34.4024,0.8561],[34.388,0.8158],[34.3067,0.7681],[34.2762,0.6808],[34.2521,0.655],[34.1791,0.6239],[34.1496,0.6036],[34.1324,0.5728],[34.1075,0.4707],[34.0757,0.4222],[34.088,0.3674],[34.0766,0.3338],[34.0406,0.3059],[33.8936,0.1098],[33.8905,0.0901],[33.9525,-0.1157],[33.9996,0.0022],[34.0179,0.0343],[34.0213,0.0841],[34.0759,0.1188],[34.0919,0.2067],[34.1434,0.2511],[34.1921,0.2554],[34.2276,0.3022],[34.3082,0.2946],[34.3543,0.3066],[34.3953,0.2679],[34.4041,0.2154],[34.4585,0.1605],[34.4685,0.1219],[34.513,0.0983],[34.5184,0.0369],[34.5058,0.0037],[34.5374,-0.0204],[34.5994,-0.001],[34.6458,-0.019],[34.6997,-0.0084],[34.7586,-0.0075],[34.8364,0.0831],[34.8508,0.1209],[34.9103,0.1787],[34.934,0.26],[34.9196,0.3071],[34.9282,0.3721],[34.9137,0.4327],[34.8904,0.4714],[34.836,0.5058],[34.845,0.5707],[34.8749,0.582],[34.9165,0.5715],[34.9678,0.6286],[35.0044,0.627],[35.0445,0.6385],[35.0871,0.6328],[35.1291,0.6854],[35.1642,0.708],[35.1701,0.737],[35.1566,0.7612],[35.1529,0.8073],[35.1141,0.8593],[35.0511,0.8837],[34.9624,0.8818],[34.9233,0.8454],[34.8942,0.8451],[34.7971,0.8267],[34.7602,0.8595],[34.7579,0.9022],[34.727,0.9132],[34.6244,1.0208],[34.6045,1.0673],[34.5669,1.103]]]},"properties":{"name":"Western","adm0_a3":"KEN"}},
{"type":"Feature","geometry":{"type":"Polygon","coordinates":[[[37.1315,-1.2371],[37.0937,-1.2036],[37.0518,-1.214],[36.9995,-1.2118],[36.9658,-1.1936],[36.9669,-1.1486],[36.9373,-1.1401],[36.9002,-1.1754],[36.8545,-1.1842],[36.8086,-1.1703],[36.7585,-1.2223],[36.7256,-1.239],[36.6762,-1.2982],[36.7096,-1.3202],[36.7371,-1.3584],[36.7877,-1.3862],[36.8427,-1.3907],[36.8696,-1.4132],[36.9065,-1.4129],[36.9248,-1.3873],[36.9107,-1.3566],[36.9565,-1.3258],[36.9743,-1.2896],[37.0535,-1.3029],[37.0702,-1.2988],[37.1315,-1.2371]]]},"properties":{"name":"Nairobi","adm0_a3":"KEN"}},
{"type":"Feature","geometry":{"type":"Polygon","coordinates":[[[37.0862,0.0192],[37.0388,-0.0586],[37.0038,-0.0995],[37.0313,-0.16],[37.0234,-0.2316],[36.9692,-0.2936],[36.9348,-0.2873],[36.9147,-0.3014],[36.8814,-0.2817],[36.8338,-0.2124],[36.8542,-0.1838],[36.8596,-0.1454],[36.8078,-0.1248],[36.6683,-0.1496],[36.5884,-0.1384],[36.5444,-0.1018],[36.5377,-0.0811],[36.556,-0.0482],[36.644,0.0054],[36.6312,0.0233],[36.5999,0.0083],[36.5658,0.0366],[36.5169,0.0611],[36.4832,0.111],[36.4017,0.0642],[36.3363,0.0564],[36.3251,0.035],[36.2615,0.0005],[36.2264,-0.0783],[36.2126,-0.1411],[36.2146,-0.1918],[36.2,-0.2446],[36.2064,-0.2796],[36.2559,-0.3882],[36.3249,-0.3904],[36.3701,-0.3998],[36.387,-0.4314],[36.3813,-0.4691],[36.3898,-0.5434],[36.4016,-0.585],[36.4519,-0.581],[36.5065,-0.6153],[36.5295,-0.7252],[36.5187,-0.7774],[36.5262,-0.8186],[36.561,-0.9137],[36.5614,-0.9535],[36.5849,-0.9974],[36.576,-1.1115],[36.5391,-1.1193],[36.5011,-1.2313],[36.5079,-1.2519],[36.6249,-1.2694],[36.6762,-1.2982],[36.7256,-1.239],[36.7585,-1.2223],[36.8086,-1.1703],[36.8545,-1.1842],[36.9002,-1.1754],[36.9373,-1.1401],[36.9669,-1.1486],[36.9658,-1.1936],[36.9995,-1.2118],[37.0518,-1.214],[37.0937,-1.2036],[37.1315,-1.2371],[37.1451,-1.223],[37.1775,-1.1475],[37.1734,-1.1127],[37.2158,-1.0771],[37.2896,-1.0674],[37.3212,-1.0895],[37.3643,-1.0388],[37.3736,-0.973],[37.3246,-0.9788],[37.2989,-0.9505],[37.28,-0.9004],[37.2428,-0.8696],[37.2555,-0.7653],[37.2884,-0.7602],[37.3295,-0.794],[37.3478,-0.7961],[37.4802,-0.7466],[37.4925,-0.7357],[37.4783,-0.6958],[37.4769,-0.5901],[37.4368,-0.5377],[37.4292,-0.4273],[37.3236,-0.1699],[37.3165,-0.1594],[37.1097,-0.0041],[37.0862,0.0192]]]},"properties":{"name":"Central","adm0_a3":"KEN"}}
]}