{"type":"FeatureCollection", "features": [
{"type":"Feature","geometry":{"type":"Polygon","coordinates":[[[178.1256,-17.5048],[177.6709,-17.3811],[177.3815,-18.1643],[178.5527,-18.1506],[178.1256,-17.5048]]]},"properties":{"iso-a3":"FJI","name":"Fiji"}},
{"type":"Feature","geometry":{"type":"Polygon","coordinates":[[[33.9037,-0.95],[30.4191,-1.1347],[30.4697,-2.4139],[30.7522,-3.3593],[29.34,-4.5],[29.62,-6.52],[30.74,-8.34],[32.7594,-9.2306],[33.7397,-9.4171],[34.28,-10.16],[34.56,-11.52],[36.5141,-11.7209],[39.521,-10.8969],[40.3166,-10.3171],[39.1865,-8.4855],[39.44,-6.84],[38.7405,-5.9089],[39.2022,-4.6768],[37.7669,-3.6771],[37.6987,-3.097],[33.9037,-0.95]]]},"properties":{"iso-a3":"TZA","name":"United Republic of Tanzania"}},
{"type":"Feature","geometry":{"type":"Polygon","coordinates":[[[-8.6656,27.6564],[-9.7353,26.8609],[-11.3926,26.8834],[-12.0308,26.0309],[-12.501,24.7701],[-13.8911,23.691],[-14.751,21.5006],[-17.0204,21.4223],[-17.0634,20.9998],[-16.8452,21.3333],[-12.9291,21.3271],[-13.1188,22.7712],[-11.9372,23.3746],[-11.9694,25.9334],[-8.6873,25.8811],[-8.6844,27.3957],[-8.6656,27.6564]]]},"properties":{"iso-a3":"ESH","name":"Western Sahara"}},
{"type":"Feature","geometry":{"type":"MultiPolygon","coordinates":[[[[-122.84,49],[-116.0482,49],[-113,49],[-107.05,49],[-100.65,49],[-95.1591,49],[-91.64,48.14],[-89.6,48.01],[-88.3781,48.3029],[-84.8761,46.9001],[-82.5509,45.3475],[-82.1376,43.5711],[-83.12,42.08],[-82.4393,41.6751],[-78.9394,42.8636],[-78.7203,43.6251],[-76.82,43.6288],[-74.867,45.0005],[-71.5051,45.0082],[-70.66,45.46],[-69.2372,47.4478],[-67.7905,47.0664],[-67.7913,45.7028],[-67.1374,45.1375],[-65.3641,43.5452],[-63.2547,44.6701],[-61.0399,45.2653],[-61.5207,45.8838],[-63.1733,45.739],[-64.4722,46.2385],[-65.1154,48.0709],[-65.0563,49.2328],[-67.2363,49.5116],[-66.399,50.229],[-61.7237,50.0805],[-60.0331,50.2428],[-58.7748,51.0643],[-57.1269,51.4197],[-55.6834,52.1466],[-55.7563,53.2704],[-56.9369,53.7803],[-57.3332,54.6265],[-59.5696,55.2041],[-61.7987,56.3395],[-61.3965,56.9675],[-64.5835,60.3356],[-66.2018,58.7673],[-67.6498,58.2121],[-69.2879,58.9574],[-69.5904,61.0614],[-71.3737,61.1372],[-73.8399,62.4438],[-74.6682,62.1811],[-78.1069,62.3196],[-77.3368,59.8526],[-78.5169,58.8046],[-77.3023,58.0521],[-76.5414,56.5342],[-79.1242,54.1415],[-78.6019,52.5621],[-79.9129,51.2084],[-81.4007,52.1579],[-82.4362,54.2823],[-82.2728,55.1483],[-85.0118,55.3026],[-87.3242,55.9991],[-90.8977,57.2847],[-92.297,57.0871],[-93.215,58.7821],[-94.6846,58.9488],[-94.6293,60.1102],[-93.157,62.0247],[-90.77,62.9602],[-89.9144,64.0327],[-88.483,64.099],[-86.0676,66.0563],[-83.3446,66.4115],[-81.3865,67.1108],[-81.9644,68.1325],[-81.2804,69.162],[-85.522,69.8821],[-85.5766,68.7846],[-88.0197,68.6151],[-91.5196,70.1913],[-92.8782,71.3187],[-95.2088,71.9205],[-96.4713,70.0898],[-94.2328,69.069],[-94.685,68.0638],[-97.6695,68.5786],[-98.4432,67.7817],[-101.4543,67.6469],[-104.3379,68.018],[-106.15,68.8],[-109.9462,67.981],[-113.4973,67.6881],[-113.8979,68.3989],[-119.9429,69.3779],[-121.4723,69.7978],[-125.7563,69.4806],[-127.4471,70.3772],[-136.5036,68.898],[-140.986,69.712],[-140.9925,66],[-140.9978,60.3064],[-139.039,60],[-137.4525,58.905],[-135.4758,59.7878],[-133.3556,58.4103],[-131.7078,56.5521],[-130.0078,55.9158],[-130.5361,54.8028],[-129.1298,52.7554],[-127.8503,52.3296],[-127.4356,50.8306],[-125.6246,50.4166],[-122.84,49]]],[[[-88.1503,74.3923],[-79.8339,74.9231],[-81.1285,75.714],[-86.3792,75.4824],[-92.8899,75.8827],[-92.4224,74.8378],[-88.1503,74.3923]]],[[[-55.6002,51.3171],[-56.7386,51.2874],[-58.3918,49.1256],[-59.2316,48.5232],[-59.266,47.6033],[-56.2508,47.6325],[-53.0692,46.6555],[-52.6481,47.5355],[-53.4765,49.2491],[-55.8224,49.5871],[-55.6002,51.3171]]],[[[-83.8826,65.1096],[-85.8838,65.7388],[-86.3528,64.0358],[-85.5234,63.0524],[-83.1088,64.1019],[-83.8826,65.1096]]],[[[-78.7706,72.3522],[-82.3156,73.751],[-86.5622,73.1574],[-88.4082,73.5379],[-90.2052,72.2351],[-89.5134,70.762],[-84.9447,69.9666],[-81.3055,69.7432],[-77.2874,69.7695],[-72.6512,67.2846],[-74.2939,65.8118],[-77.8973,65.3092],[-77.71,64.2295],[-74.8185,64.3891],[-71.8863,63.68],[-71.0234,62.9107],[-66.1656,61.9309],[-66.275,62.9451],[-64.6694,63.3929],[-65.3202,64.3827],[-68.1413,65.6898],[-66.7212,66.388],[-63.9184,64.9987],[-62.1632,66.1603],[-64.8623,67.8475],[-68.8051,68.7202],[-66.969,69.1861],[-68.7861,70.525],[-71.2,70.92],[-77.8246,72.7496],[-78.7706,72.3522]]],[[[-94.5037,74.1349],[-96.0337,72.9403],[-94.269,72.0246],[-90.5098,73.8567],[-94.5037,74.1349]]],[[[-122.8549,76.1165],[-119.8993,76.0532],[-116.3358,76.877],[-119.1039,77.5122],[-122.8549,76.1165]]],[[[-123.51,48.51],[-125.755,50.295],[-128.3584,50.7706],[-125.655,48.825],[-123.51,48.51]]],[[[-121.5379,74.4489],[-123.94,73.68],[-125.9289,71.8687],[-123.0922,70.9016],[-120.46,71.3836],[-119.22,72.52],[-115.5108,73.4752],[-117.5556,74.1858],[-121.5379,74.4489]]],[[[-107.8194,75.8455],[-115.4049,76.4789],[-117.7104,75.2222],[-112.2231,74.417],[-106.3135,75.0053],[-107.8194,75.8455]]],[[[-106.5226,73.076],[-112.441,72.9554],[-115.1891,73.3146],[-117.8664,72.7059],[-119.402,71.5586],[-116.1079,69.1682],[-113.3132,68.5355],[-109,68.78],[-105.96,69.18],[-102.4302,68.7528],[-100.9808,70.0243],[-104.4648,70.993],[-106.5226,73.076]]],[[[-100.4384,72.7059],[-98.3597,71.2729],[-96.72,71.66],[-97.12,73.47],[-100.3564,73.8439],[-100.4384,72.7059]]],[[[-98.5,76.72],[-101.4897,76.3054],[-100.8837,75.0574],[-98.16,75],[-98.5,76.72]]],[[[-96.0164,80.6023],[-96.0761,79.705],[-92.8767,78.3433],[-89.0353,78.2872],[-85.8143,79.3369],[-87.81,80.32],[-96.0164,80.6023]]],[[[-91.587,81.8943],[-85.0949,79.3454],[-89.4907,76.4724],[-80.5612,76.1781],[-79.7595,77.2097],[-71.18,79.8],[-61.8939,82.3617],[-63.68,82.9],[-79.3066,83.1306],[-91.587,81.8943]]]]},"properties":{"iso-a3":"CAN","name":"Canada"}},
{"type":"Feature","geometry":{"type":"MultiPolygon","coordinates":[[[[-122.84,49],[-122.5,48.18],[-124.6872,48.1844],[-123.8989,45.5234],[-124.5328,42.766],[-124.2137,41.9996],[-124.3981,40.3132],[-123.7272,38.9517],[-121.7146,36.1615],[-120.3678,34.4471],[-118.5199,34.0278],[-117.1278,32.5353],[-114.815,32.5253],[-111.0236,31.3347],[-108.2419,31.3422],[-106.5076,31.7545],[-105.0374,30.644],[-104.457,29.572],[-103.11,28.97],[-102.48,29.76],[-100.9576,29.3807],[-99.52,27.54],[-99.02,26.37],[-97.53,25.84],[-97.37,27.38],[-96.594,28.3075],[-94.69,29.48],[-93.2264,29.7838],[-91.6268,29.677],[-90.8802,29.1485],[-89.4082,29.1596],[-89.1805,30.316],[-86.4,30.4],[-85.1088,29.6362],[-83.7096,29.9366],[-82.65,28.55],[-82.8553,27.8862],[-81.1721,25.2013],[-80.381,25.2062],[-80.0565,26.88],[-81.4904,30.73],[-81.3363,31.4405],[-78.5543,33.8613],[-76.3632,34.8085],[-75.7275,35.5507],[-76.3016,37.9179],[-75.722,37.9371],[-74.1784,39.7093],[-73.982,40.628],[-71.945,40.93],[-70.64,41.475],[-70.8149,42.8653],[-70.1162,43.6841],[-68.0325,44.3252],[-67.1374,45.1375],[-67.7913,45.7028],[-67.7905,47.0664],[-69.2372,47.4478],[-70.66,45.46],[-71.5051,45.0082],[-74.867,45.0005],[-76.82,43.6288],[-78.7203,43.6251],[-78.9394,42.8636],[-82.4393,41.6751],[-83.12,42.08],[-82.1376,43.5711],[-82.5509,45.3475],[-84.8761,46.9001],[-88.3781,48.3029],[-89.6,48.01],[-91.64,48.14],[-95.1591,49],[-100.65,49],[-107.05,49],[-113,49],[-116.0482,49],[-122.84,49]]],[[[-140.986,69.712],[-144.92,69.99],[-152.27,70.6],[-156.5808,71.3578],[-161.9089,70.3333],[-165.3903,68.0428],[-164.4747,66.5767],[-168.1106,65.67],[-166.4253,64.6867],[-160.9583,64.2228],[-163.0672,63.0595],[-164.5625,63.1464],[-166.1214,61.5],[-165.3464,60.5075],[-163.8183,59.7981],[-161.8742,59.6336],[-157.7228,57.57],[-160.5636,56.0081],[-158.4333,55.9942],[-156.3083,57.4228],[-154.2325,58.1464],[-154.0192,59.3503],[-152.5783,60.0617],[-151.7164,59.1558],[-148.0181,59.9783],[-147.1144,60.8847],[-143.9589,59.9992],[-142.5744,60.0844],[-139.8678,59.5378],[-137.8,58.5],[-134.0781,58.1231],[-132.25,56.37],[-131.9672,55.4978],[-130.5361,54.8028],[-130.0078,55.9158],[-131.7078,56.5521],[-133.3556,58.4103],[-135.4758,59.7878],[-137.4525,58.905],[-139.039,60],[-140.9978,60.3064],[-140.9925,66],[-140.986,69.712]]]]},"properties":{"iso-a3":"USA","name":"United States of America"}},
{"type":"Feature","geometry":{"type":"Polygon","coordinates":[[[87.36,49.215],[85.5413,49.6929],[83.383,51.0692],[80.0356,50.8648],[77.8009,53.4044],[76.5252,54.177],[74.3848,53.5469],[70.8653,55.1697],[69.0682,55.3853],[65.1785,54.3542],[61.4366,54.0063],[61.7,52.98],[59.9675,51.9604],[61.3374,50.7991],[56.778,51.0436],[55.7169,50.6217],[52.3287,51.7187],[50.7666,51.6928],[48.7024,50.6051],[47.5495,50.4547],[46.4664,48.3942],[48.0573,47.7438],[49.1012,46.3993],[51.1919,47.0487],[53.0427,46.853],[53.0409,45.259],[51.3169,45.246],[50.8913,44.031],[51.3424,43.133],[52.5014,42.7923],[52.5025,41.7833],[54.0794,42.3241],[55.9682,41.3086],[55.9289,44.9959],[58.5031,45.5868],[61.0583,44.4058],[62.0133,43.5045],[64.9008,43.7281],[66.098,42.9977],[66.0234,41.9946],[66.714,41.1684],[69.07,41.3842],[70.9623,42.2662],[71.8446,42.8454],[73.4898,42.5009],[74.2129,43.2983],[76.0004,42.988],[79.1422,42.8561],[80.26,42.35],[80.8662,43.1804],[79.9661,44.9175],[82.4589,45.5397],[83.1805,47.33],[85.1643,47.001],[85.7682,48.4558],[87.36,49.215]]]},"properties":{"iso-a3":"KAZ","name":"Kazakhstan"}},
{"type":"Feature","geometry":{"type":"Polygon","coordinates":[[[55.9682,41.3086],[58.629,42.7516],[59.9764,42.2231],[60.0833,41.4251],[61.8827,41.0849],[62.3743,40.0539],[64.1702,38.8924],[66.5462,37.9747],[66.5186,37.3628],[67.83,37.145],[68.392,38.157],[68.176,38.9016],[69.3295,40.7278],[70.6666,40.9602],[71.0142,40.2444],[71.7749,40.1458],[73.0554,40.866],[70.9623,42.2662],[69.07,41.3842],[66.714,41.1684],[66.0234,41.9946],[66.098,42.9977],[64.9008,43.7281],[62.0133,43.5045],[61.0583,44.4058],[58.5031,45.5868],[55.9289,44.9959],[55.9682,41.3086]]]},"properties":{"iso-a3":"UZB","name":"Uzbekistan"}},
{"type":"Feature","geometry":{"type":"Polygon","coordinates":[[[141.0002,-2.6002],[141.0171,-5.859],[141.0339,-9.1179],[142.6284,-9.3268],[143.2864,-8.2455],[144.7442,-7.6301],[146.0485,-8.0674],[146.5679,-8.9426],[147.913,-10.1304],[149.7823,-10.3933],[146.9709,-6.7217],[147.6481,-6.0837],[145.9819,-5.4656],[145.8298,-4.8765],[144.584,-3.8614],[141.0002,-2.6002]]]},"properties":{"iso-a3":"PNG","name":"Papua New Guinea"}},
{"type":"Feature","geometry":{"type":"MultiPolygon","coordinates":[[[[141.0002,-2.6002],[139.9267,-2.4091],[138.3297,-1.7027],[137.4407,-1.7035],[136.2933,-2.307],[135.4576,-3.3678],[134.4226,-2.7692],[133.9855,-0.7802],[132.3801,-0.3695],[131.8362,-1.6172],[131.9898,-2.8206],[133.6629,-3.5389],[135.1646,-4.4629],[135.9893,-4.5465],[137.9278,-5.3934],[138.6686,-7.3202],[137.6145,-8.4117],[140.1434,-8.2972],[141.0339,-9.1179],[141.0171,-5.859],[141.0002,-2.6002]]],[[[117.882,4.1376],[115.8655,4.3066],[114.6214,1.4307],[112.8598,1.4978],[111.7975,0.9044],[110.5141,0.7731],[109.6633,2.0065],[109.0691,1.3419],[109.0919,-0.4595],[110.0709,-1.5929],[110.2238,-2.934],[111.7033,-2.9944],[112.0681,-3.4784],[113.257,-3.1188],[114.4687,-3.4957],[114.8648,-4.107],[116.0009,-3.657],[116.5338,-2.4835],[116.56,-1.4877],[117.5216,-0.8037],[118.0483,2.2877],[117.3132,3.2344],[117.882,4.1376]]],[[[127.9324,2.1746],[127.3995,1.0117],[128.636,0.2585],[128.5946,1.5408],[127.9324,2.1746]]],[[[122.9276,0.8752],[120.8858,1.3092],[120.0357,0.5665],[118.7678,-2.802],[119.4988,-3.4944],[119.3669,-5.3799],[120.4307,-5.5282],[120.3055,-2.9316],[121.6192,-4.1885],[121.7382,-4.8513],[122.6285,-5.6346],[123.171,-4.6837],[122.4546,-3.1861],[121.5083,-1.9045],[120.0409,-0.5197],[120.1831,0.2372],[122.7231,0.4311],[122.9276,0.8752]]],[[[108.4868,-6.422],[107.265,-5.955],[106.0516,-5.8959],[105.3655,-6.8514],[106.4541,-7.3549],[108.2778,-7.7667],[109.4277,-7.7407],[111.5221,-8.3021],[113.4647,-8.3489],[112.6148,-6.946],[110.7596,-6.4652],[110.5392,-6.8774],[108.6235,-6.7777],[108.4868,-6.422]]],[[[104.37,-1.0848],[103.4376,-0.7119],[103.8384,0.1045],[103.0768,0.5614],[101.658,2.0837],[100.6414,2.0994],[97.4849,5.2463],[95.293,5.4798],[95.3809,4.9708],[98.6014,1.8235],[99.2637,0.1831],[100.142,-0.6503],[101.3991,-2.7998],[102.5843,-4.2203],[104.7104,-5.8733],[105.8177,-5.8524],[106.1086,-3.0618],[104.8879,-2.3404],[104.37,-1.0848]]]]},"properties":{"iso-a3":"IDN","name":"Indonesia"}},
{"type":"Feature","geometry":{"type":"MultiPolygon","coordinates":[[[[-68.634,-52.6364],[-68.6333,-54.8695],[-66.9599,-54.8968],[-68.634,-52.6364]]],[[[-57.6251,-30.2163],[-55.1623,-27.8819],[-53.6487,-26.9235],[-53.6283,-26.1249],[-54.6253,-25.7393],[-54.7888,-26.6218],[-56.4867,-27.5485],[-58.6182,-27.1237],[-57.6337,-25.6037],[-57.7772,-25.1623],[-60.029,-24.0328],[-60.8466,-23.8807],[-62.6851,-22.249],[-66.2733,-21.8323],[-67.1067,-22.7359],[-67.3284,-24.0253],[-68.4177,-24.5186],[-68.2955,-26.8993],[-69.6561,-28.4591],[-69.919,-30.3363],[-70.5351,-31.365],[-69.8173,-34.1936],[-70.3648,-36.0051],[-71.1219,-36.6581],[-70.8147,-38.553],[-71.4135,-38.916],[-72.1489,-42.2549],[-71.552,-45.5607],[-72.6482,-48.8786],[-73.4154,-49.3184],[-73.3281,-50.3788],[-72.31,-50.677],[-71.9148,-52.009],[-68.5715,-52.2994],[-69.1385,-50.7325],[-67.8161,-49.8697],[-67.1662,-48.6973],[-65.9851,-48.1333],[-65.641,-47.2361],[-67.5805,-46.3018],[-66.51,-45.0396],[-65.5653,-45.0368],[-65.1818,-43.4954],[-64.3788,-42.8736],[-65.118,-41.0643],[-63.7705,-41.1668],[-62.146,-40.6769],[-62.336,-38.8277],[-59.2319,-38.7202],[-57.7492,-38.1839],[-56.7883,-36.9016],[-57.2258,-35.288],[-58.4954,-34.4315],[-58.4271,-33.9095],[-57.6251,-30.2163]]]]},"properties":{"iso-a3":"ARG","name":"Argentina"}},
{"type":"Feature","geometry":{"type":"MultiPolygon","coordinates":[[[[-68.634,-52.6364],[-70.2675,-52.9312],[-71.1077,-54.0743],[-71.0057,-55.0538],[-68.1486,-55.6118],[-66.9599,-54.8968],[-68.6333,-54.8695],[-68.634,-52.6364]]],[[[-69.5904,-17.58],[-70.3726,-18.348],[-70.0912,-21.3933],[-70.725,-25.7059],[-70.9051,-27.6404],[-71.4899,-28.8614],[-71.6687,-30.9206],[-71.4384,-32.4189],[-71.8617,-33.9091],[-73.1667,-37.1238],[-73.2176,-39.2587],[-73.6771,-39.9422],[-74.3319,-43.225],[-74.6922,-45.764],[-75.6444,-46.6476],[-75.1828,-47.7119],[-75.608,-48.6738],[-74.9468,-52.2628],[-72.5579,-53.5314],[-71.0063,-53.8333],[-70.8451,-52.8992],[-68.5715,-52.2994],[-71.9148,-52.009],[-72.31,-50.677],[-73.3281,-50.3788],[-73.4154,-49.3184],[-72.6482,-48.8786],[-71.552,-45.5607],[-72.1489,-42.2549],[-71.4135,-38.916],[-70.8147,-38.553],[-71.1219,-36.6581],[-70.3648,-36.0051],[-69.8173,-34.1936],[-70.5351,-31.365],[-69.919,-30.3363],[-69.6561,-28.4591],[-68.2955,-26.8993],[-68.4177,-24.5186],[-67.3284,-24.0253],[-67.1067,-22.7359],[-67.8282,-22.8729],[-68.7572,-20.3727],[-68.4422,-19.4051],[-69.5904,-17.58]]]]},"properties":{"iso-a3":"CHL","name":"Chile"}},
{"type":"Feature","geometry":{"type":"Polygon","coordinates":[[[29.34,-4.5],[29.0249,-2.8393],[29.5795,-1.3413],[29.8758,0.5974],[30.7733,2.3399],[30.8339,3.5092],[29.716,4.6008],[28.429,4.2872],[27.3742,5.2339],[24.4105,5.1088],[22.4051,4.0292],[20.9276,4.3228],[19.4678,5.0315],[18.543,4.2018],[18.4531,3.5044],[17.8988,1.7418],[17.5237,-0.7438],[16.4071,-1.7409],[16.0063,-3.5351],[14.5826,-4.9702],[14.145,-4.51],[12.9955,-4.7811],[12.1823,-5.7899],[12.3224,-6.1001],[13.3756,-5.8642],[16.3265,-5.8775],[17.473,-8.0686],[19.0168,-7.9882],[19.4175,-7.1554],[21.7281,-7.2909],[22.1553,-11.0848],[23.9122,-10.9268],[25.4181,-11.3309],[25.7523,-11.785],[28.1551,-12.2725],[28.3723,-11.7936],[28.7349,-8.5266],[30.74,-8.34],[29.62,-6.52],[29.34,-4.5]]]},"properties":{"iso-a3":"COD","name":"Democratic Republic of the Congo"}},
{"type":"Feature","geometry":{"type":"Polygon","coordinates":[[[41.5851,-1.6832],[43.136,0.2922],[46.5648,2.8553],[48.5946,5.3391],[49.4527,6.8047],[50.5524,9.1987],[51.0453,10.6409],[51.1112,12.0246],[48.9482,11.4106],[48.9381,9.4517],[47.7894,8.003],[44.9636,5.0016],[43.6609,4.9576],[41.8551,3.9189],[40.9811,2.7845],[40.993,-0.8583],[41.5851,-1.6832]]]},"properties":{"iso-a3":"SOM","name":"Somalia"}},
{"type":"Feature","geometry":{"type":"Polygon","coordinates":[[[39.2022,-4.6768],[39.6049,-4.3465],[40.263,-2.5731],[41.5851,-1.6832],[40.993,-0.8583],[40.9811,2.7845],[41.8551,3.9189],[40.7685,4.257],[39.5594,3.4221],[38.1209,3.5986],[36.8551,4.4479],[36.1591,4.4479],[35.298,5.506],[34.005,4.2499],[35.036,1.9058],[33.8936,0.1098],[33.9037,-0.95],[37.6987,-3.097],[37.7669,-3.6771],[39.2022,-4.6768]]]},"properties":{"iso-a3":"KEN","name":"Kenya"}},
{"type":"Feature","geometry":{"type":"Polygon","coordinates":[[[24.5674,8.2292],[25.0696,10.2738],[25.7906,10.4111],[26.4773,9.5527],[28.9666,9.3982],[29.9966,10.2909],[31.3529,9.8102],[33.2069,12.1793],[33.2069,10.7201],[33.722,10.3253],[33.975,8.6846],[34.2575,10.6301],[35.8636,12.5783],[36.4295,14.4221],[36.8525,16.9566],[38.4101,17.9983],[37.4818,18.6141],[37.1147,19.808],[36.8662,22],[32.9,22],[29.02,22],[25,22],[25,20.003],[23.8377,19.5805],[23.8869,15.6108],[23.0246,15.6807],[22.3035,14.3268],[22.0376,12.9555],[22.8642,11.1424],[23.5543,10.0893],[23.459,8.9543],[24.5674,8.2292]]]},"properties":{"iso-a3":"SDN","name":"Sudan"}},
{"type":"Feature","geometry":{"type":"Polygon","coordinates":[[[23.8377,19.5805],[19.8493,21.4951],[15.8609,23.4097],[14.8513,22.863],[15.0969,21.3085],[15.9032,20.3876],[15.3004,17.928],[15.2477,16.6273],[13.9722,15.6844],[13.5404,14.3671],[14.4958,12.8594],[14.8934,12.2191],[14.9236,10.8913],[13.9542,9.5495],[14.98,8.7961],[15.2795,7.4219],[17.9649,7.8909],[19.094,9.0748],[20.0597,9.0127],[21.0009,9.476],[21.7238,10.5671],[22.8642,11.1424],[22.0376,12.9555],[22.3035,14.3268],[23.0246,15.6807],[23.8869,15.6108],[23.8377,19.5805]]]},"properties":{"iso-a3":"TCD","name":"Chad"}},
{"type":"Feature","geometry":{"type":"Polygon","coordinates":[[[-71.7124,19.7145],[-72.7841,19.4836],[-72.6949,18.4458],[-71.7083,18.045],[-71.7124,19.7145]]]},"properties":{"iso-a3":"HTI","name":"Haiti"}},
{"type":"Feature","geometry":{"type":"Polygon","coordinates":[[[-71.7083,18.045],[-68.3179,18.6122],[-69.2221,19.3132],[-70.8067,19.8803],[-71.7124,19.7145],[-71.7083,18.045]]]},"properties":{"iso-a3":"DOM","name":"Dominican Republic"}},
{"type":"Feature","geometry":{"type":"MultiPolygon","coordinates":[[[[49.1012,46.3993],[48.0573,47.7438],[46.4664,48.3942],[47.5495,50.4547],[48.7024,50.6051],[50.7666,51.6928],[52.3287,51.7187],[55.7169,50.6217],[56.778,51.0436],[61.3374,50.7991],[59.9675,51.9604],[61.7,52.98],[61.4366,54.0063],[65.1785,54.3542],[69.0682,55.3853],[70.8653,55.1697],[74.3848,53.5469],[76.5252,54.177],[77.8009,53.4044],[80.0356,50.8648],[83.383,51.0692],[85.5413,49.6929],[87.36,49.215],[87.7513,49.2972],[88.8056,49.4705],[92.2347,50.8022],[94.8159,50.0134],[97.2598,49.7261],[98.8615,52.0474],[102.0652,51.2599],[102.2559,50.5106],[103.6765,50.09],[106.8888,50.2743],[108.4752,49.2825],[110.662,49.1301],[112.8977,49.5436],[114.3625,50.2483],[116.6788,49.8885],[117.8792,49.511],[120.7382,51.9641],[121.0031,53.2514],[123.5715,53.4588],[125.9463,52.7928],[127.6574,49.7603],[129.3978,49.4406],[130.5823,48.7297],[130.9873,47.7901],[132.5067,47.789],[135.0263,48.4782],[133.0971,45.1441],[131.0252,44.968],[131.1447,42.93],[130.64,42.395],[130.78,42.22],[132.2781,43.2846],[133.5369,42.8115],[134.8694,43.3982],[138.2197,46.308],[140.0619,48.4467],[140.5974,51.2397],[141.3453,53.0896],[139.9015,54.1897],[137.1934,53.9773],[135.1262,54.7296],[138.9585,57.0881],[142.1978,59.04],[145.4872,59.3364],[148.5448,59.1645],[149.7837,59.6557],[151.2657,58.7809],[155.0438,59.145],[154.2181,59.7582],[156.7207,61.4344],[159.3023,61.774],[160.1215,60.5442],[162.6579,61.6425],[163.6697,61.1409],[161.872,60.343],[158.3643,58.0558],[156.8104,57.832],[155.4337,55.381],[155.9918,53.159],[156.7898,51.0111],[158.2312,51.9427],[158.5309,52.9587],[160.0217,53.2026],[160.3688,54.3443],[162.1175,54.8551],[163.0579,56.1592],[163.1919,57.615],[162.0173,58.2433],[163.5393,59.8687],[166.295,59.7886],[168.9005,60.5736],[170.6985,60.3362],[173.6801,61.6526],[179.3703,62.9826],[178.313,64.0759],[180,64.9797],[180,68.9636],[175.724,69.8773],[170.4535,70.097],[167.8357,69.5827],[160.9405,69.4373],[159.8303,70.4532],[157.0069,71.0314],[152.9689,70.8422],[149.5,72.2],[140.4682,72.8494],[139.8698,71.4878],[133.8577,71.3864],[131.2886,70.787],[128.46,71.98],[128.5913,73.0387],[126.9764,73.5655],[113.9688,73.5949],[109.4,74.18],[113.8854,75.3278],[111.0773,76.71],[108.1538,76.7234],[104.3516,77.6979],[98.9225,76.4469],[87.1668,75.1164],[86.8223,73.9369],[80.5111,73.6482],[79.652,72.3201],[75.6835,72.3006],[69.94,73.04],[66.6947,71.029],[66.9301,69.4546],[69.1807,68.6156],[68.5122,68.0923],[63.504,69.5474],[61.0778,68.9407],[57.317,68.4663],[53.7174,68.8574],[48.1388,67.5224],[43.9498,66.0691],[42.0931,66.4762],[39.7626,65.4968],[34.9439,64.4144],[34.8148,65.9002],[38.383,65.9995],[41.126,66.7916],[40.2923,67.9324],[36.514,69.0634],[31.101,69.5581],[28.5919,69.0648],[29.9774,67.6983],[29.0546,66.9443],[30.2177,65.806],[29.5444,64.9487],[30.0359,63.5528],[31.14,62.3577],[28.07,60.5035],[27.9811,59.4754],[27.2882,57.4745],[28.1767,56.1691],[30.8739,55.551],[30.7575,54.8118],[31.7313,53.794],[31.786,52.1017],[33.7527,52.3351],[35.3561,50.5772],[40.069,49.6011],[39.7383,47.8989],[38.2235,47.1022],[38.233,46.2409],[37.4032,45.4045],[37.5391,44.6572],[39.955,43.435],[42.3944,43.2203],[45.4703,42.5028],[46.405,41.8607],[47.8157,41.1514],[48.5844,41.8089],[47.4925,42.9866],[47.5909,43.6602],[46.682,44.6092],[47.6759,45.6415],[49.1012,46.3993]]],[[[93.7777,81.0246],[91.1811,80.3415],[93.3129,79.4265],[97.7579,78.7562],[100.1867,79.7801],[93.7777,81.0246]]],[[[138.8311,76.1368],[136.9744,75.2617],[138.9554,74.6115],[144.3,74.82],[145.0863,75.5626],[138.8311,76.1368]]],[[[22.7311,54.3275],[21.2684,55.1905],[19.6606,54.4261],[22.7311,54.3275]]],[[[53.5083,73.7498],[51.4558,72.0149],[53.6774,70.7627],[56.945,70.6327],[55.4193,72.3713],[58.4771,74.3091],[61.5835,75.2609],[61.17,76.2519],[55.6319,75.0814],[53.5083,73.7498]]],[[[142.9146,53.7046],[141.6825,53.302],[141.5941,51.9354],[142.18,50.9523],[141.9069,46.8059],[143.1739,49.3066],[144.6541,48.9764],[143.2353,51.7567],[142.9146,53.7046]]],[[[-174.9282,67.2059],[-180,68.9636],[-180,64.9797],[-178.3599,65.3905],[-173.8918,64.2826],[-172.5302,65.4379],[-169.8996,65.9772],[-171.8573,66.9131],[-174.9282,67.2059]]],[[[33.436,45.9719],[33.8825,44.3615],[35.24,44.94],[35.0127,45.7377],[33.436,45.9719]]]]},"properties":{"iso-a3":"RUS","name":"Russia"}},
{"type":"Feature","geometry":{"type":"Polygon","coordinates":[[[-78.1909,25.2103],[-78.4085,24.5756],[-77.54,24.34],[-77.89,25.17],[-78.1909,25.2103]]]},"properties":{"iso-a3":"BHS","name":"The Bahamas"}},
{"type":"Feature","geometry":{"type":"Polygon","coordinates":[[[-61.2,-51.85],[-60.7,-52.3],[-58.05,-51.9],[-60,-51.25],[-61.2,-51.85]]]},"properties":{"iso-a3":"FLK","name":"Falkland Islands"}},
{"type":"Feature","geometry":{"type":"MultiPolygon","coordinates":[[[[15.1428,79.6743],[10.4445,79.6524],[13.7626,77.3804],[17.1182,76.8094],[19.0274,78.5626],[15.1428,79.6743]]],[[[31.101,69.5581],[31.2934,70.4538],[28.1655,71.1855],[24.5465,71.0305],[23.0237,70.2021],[19.184,69.8174],[14.7611,67.8106],[10.5277,64.486],[8.5534,63.454],[4.9921,61.971],[5.6658,58.5882],[7.0487,58.0789],[8.382,58.3133],[10.3566,59.4698],[11.0274,58.8561],[12.3004,60.1179],[12.6311,61.2936],[11.9306,63.1283],[15.1084,66.1939],[16.7689,68.0139],[20.6456,69.1062],[24.7357,68.6496],[26.1796,69.8253],[28.5919,69.0648],[31.101,69.5581]]],[[[27.4075,80.0564],[22.9193,80.6571],[17.368,80.3189],[20.0752,79.5668],[27.4075,80.0564]]]]},"properties":{"iso-a3":"-99","name":"Norway"}},
{"type":"Feature","geometry":{"type":"Polygon","coordinates":[[[-46.7638,82.628],[-62.6512,81.7704],[-68.023,80.1172],[-65.7107,79.3944],[-73.1594,78.4327],[-71.4026,77.0086],[-68.5044,76.0614],[-61.2686,76.1024],[-58.5852,75.5173],[-54.0042,71.5472],[-54.6834,69.61],[-52.9804,68.3576],[-53.9691,67.189],[-53.6617,66.0996],[-52.2766,65.1767],[-51.6332,63.6269],[-48.2629,60.8584],[-46.2636,60.8533],[-44.7875,60.0368],[-43.3784,60.0977],[-42.4167,61.9009],[-42.8194,62.6823],[-41.1887,63.4825],[-39.8122,65.4585],[-36.3528,65.9789],[-34.202,66.6797],[-32.811,67.7355],[-27.7474,68.4705],[-22.349,70.1295],[-21.7536,70.6637],[-23.443,72.0802],[-19.3728,74.2956],[-19.8341,76.0981],[-18.4728,76.9857],[-19.705,78.7513],[-17.7303,80.1291],[-12.2085,81.2915],[-27.1005,83.5197],[-38.6221,83.549],[-46.7638,82.628]]]},"properties":{"iso-a3":"GRL","name":"Greenland"}},
{"type":"Feature","geometry":{"type":"Polygon","coordinates":[[[68.935,-48.625],[68.745,-49.775],[70.28,-49.71],[70.525,-49.065],[68.935,-48.625]]]},"properties":{"iso-a3":"ATF","name":"French Southern and Antarctic Lands"}},
{"type":"Feature","geometry":{"type":"Polygon","coordinates":[[[124.9687,-8.8928],[125.0885,-9.3932],[126.968,-8.6683],[126.6447,-8.3982],[124.9687,-8.8928]]]},"properties":{"iso-a3":"TLS","name":"East Timor"}},
{"type":"Feature","geometry":{"type":"Polygon","coordinates":[[[16.345,-28.5767],[18.2218,-31.6616],[18.2445,-33.8678],[19.6164,-34.8192],[22.5742,-33.8641],[25.7806,-33.9446],[28.2198,-32.772],[30.0557,-31.1403],[31.3256,-29.402],[32.4621,-28.301],[32.8301,-26.7422],[32.0717,-26.7338],[30.686,-26.7438],[31.0441,-25.7315],[31.8378,-25.8433],[31.9306,-24.3694],[31.1914,-22.2515],[29.4322,-22.0913],[27.1194,-23.5743],[25.6647,-25.4868],[24.2113,-25.6702],[23.3121,-25.2687],[21.6059,-26.7265],[19.8958,-24.7678],[19.8947,-28.4611],[18.4649,-29.0455],[16.345,-28.5767]],[[28.9783,-28.9556],[28.8484,-30.0701],[27.7494,-30.6451],[26.9993,-29.876],[28.5417,-28.6475],[28.9783,-28.9556]]]},"properties":{"iso-a3":"ZAF","name":"South Africa"}},
{"type":"Feature","geometry":{"type":"Polygon","coordinates":[[[28.9783,-28.9556],[28.5417,-28.6475],[26.9993,-29.876],[27.7494,-30.6451],[28.8484,-30.0701],[28.9783,-28.9556]]]},"properties":{"iso-a3":"LSO","name":"Lesotho"}},
{"type":"Feature","geometry":{"type":"Polygon","coordinates":[[[-117.1278,32.5353],[-115.5187,29.5564],[-114.162,28.5661],[-114.4657,27.1421],[-112.3007,26.012],[-112.182,24.7384],[-110.2951,23.431],[-111.6165,26.6628],[-112.7616,27.7802],[-112.9623,28.4252],[-114.6739,30.1627],[-114.7765,31.7995],[-113.1487,31.171],[-112.2282,28.9544],[-110.3917,27.1621],[-109.2916,26.4429],[-109.4441,25.8249],[-108.4019,25.1723],[-106.0287,22.7738],[-105.2708,21.0763],[-105.7314,20.4341],[-104.992,19.3161],[-103.501,18.2923],[-101.9185,17.9161],[-100.8295,17.1711],[-96.5574,15.6535],[-94.6917,16.201],[-93.3595,15.6154],[-92.2277,14.5388],[-91.748,16.0666],[-90.4645,16.0696],[-91.0015,17.8176],[-89.1431,17.8083],[-88.3,18.5],[-87.8372,18.2598],[-87.0519,21.5435],[-88.5439,21.4937],[-90.2786,20.9999],[-90.7719,19.2841],[-91.4079,18.8761],[-94.4257,18.1444],[-95.9009,18.828],[-97.1893,20.6354],[-97.8724,22.4442],[-97.53,25.84],[-99.02,26.37],[-99.52,27.54],[-100.9576,29.3807],[-102.48,29.76],[-103.11,28.97],[-104.457,29.572],[-105.0374,30.644],[-106.5076,31.7545],[-108.2419,31.3422],[-111.0236,31.3347],[-114.815,32.5253],[-117.1278,32.5353]]]},"properties":{"iso-a3":"MEX","name":"Mexico"}},
{"type":"Feature","geometry":{"type":"Polygon","coordinates":[[[-57.6251,-30.2163],[-58.4271,-33.9095],[-57.8179,-34.4625],[-54.9359,-34.9526],[-53.3737,-33.7684],[-53.2096,-32.7277],[-53.788,-32.0472],[-56.976,-30.1097],[-57.6251,-30.2163]]]},"properties":{"iso-a3":"URY","name":"Uruguay"}},
{"type":"Feature","geometry":{"type":"Polygon","coordinates":[[[-53.3737,-33.7684],[-52.2561,-32.2454],[-50.6969,-30.9845],[-49.5873,-29.2245],[-48.8885,-28.6741],[-48.4747,-27.1759],[-48.4955,-25.877],[-47.649,-24.8852],[-46.4721,-24.089],[-44.6478,-23.352],[-41.9883,-22.9701],[-40.9448,-21.9373],[-40.7747,-20.9045],[-39.7608,-19.5991],[-38.8823,-15.6671],[-38.9533,-13.7934],[-37.0465,-11.0407],[-35.1282,-8.9964],[-34.73,-7.3432],[-35.2354,-5.4649],[-37.2233,-4.8209],[-38.5004,-3.7007],[-39.9787,-2.8731],[-41.4727,-2.912],[-44.4176,-2.1377],[-44.9057,-1.5517],[-48.6206,-0.2355],[-50.3882,-0.0784],[-49.9471,1.0462],[-50.5089,1.9016],[-51.3171,4.2035],[-51.6578,4.1562],[-52.9397,2.1249],[-54.5248,2.3118],[-55.9733,2.5104],[-56.5394,1.8995],[-59.0309,1.3177],[-59.9745,2.7552],[-59.538,3.9588],[-60.7336,5.2003],[-60.9669,4.5365],[-62.8045,4.007],[-64.3685,3.7972],[-64.1993,1.4929],[-66.3258,0.7245],[-66.8763,1.2534],[-67.8686,1.6925],[-69.817,1.7148],[-70.0207,-0.1852],[-69.4441,-1.5563],[-69.8936,-4.2982],[-70.7948,-4.2513],[-72.8919,-5.2746],[-73.12,-6.6299],[-73.9872,-7.5238],[-73.5711,-8.4244],[-72.1849,-10.0536],[-71.3024,-10.0794],[-70.5487,-11.0091],[-69.5297,-10.9517],[-68.2713,-11.0145],[-66.6469,-9.9313],[-65.3384,-9.762],[-65.4023,-11.5663],[-64.3164,-12.462],[-63.1965,-12.627],[-61.7132,-13.4892],[-60.5033,-13.776],[-60.1584,-16.2583],[-58.2412,-16.2996],[-58.2808,-17.2717],[-57.4984,-18.1742],[-58.1664,-20.1767],[-57.9372,-22.0902],[-56.4733,-22.0863],[-55.6107,-22.6556],[-55.4007,-23.9569],[-54.2935,-24.5708],[-54.6253,-25.7393],[-53.6283,-26.1249],[-53.6487,-26.9235],[-55.1623,-27.8819],[-57.6251,-30.2163],[-56.976,-30.1097],[-53.788,-32.0472],[-53.2096,-32.7277],[-53.3737,-33.7684]]]},"properties":{"iso-a3":"BRA","name":"Brazil"}},
{"type":"Feature","geometry":{"type":"Polygon","coordinates":[[[-69.5297,-10.9517],[-68.6651,-12.5613],[-68.9489,-14.4536],[-69.3898,-15.6601],[-68.9596,-16.5007],[-69.5904,-17.58],[-68.4422,-19.4051],[-68.7572,-20.3727],[-67.8282,-22.8729],[-67.1067,-22.7359],[-66.2733,-21.8323],[-62.6851,-22.249],[-62.266,-20.5137],[-61.7863,-19.6337],[-59.115,-19.3569],[-58.1664,-20.1767],[-57.4984,-18.1742],[-58.2808,-17.2717],[-58.2412,-16.2996],[-60.1584,-16.2583],[-60.5033,-13.776],[-61.7132,-13.4892],[-63.1965,-12.627],[-64.3164,-12.462],[-65.4023,-11.5663],[-65.3384,-9.762],[-66.6469,-9.9313],[-68.2713,-11.0145],[-69.5297,-10.9517]]]},"properties":{"iso-a3":"BOL","name":"Bolivia"}},
{"type":"Feature","geometry":{"type":"Polygon","coordinates":[[[-69.8936,-4.2982],[-70.394,-3.7666],[-70.0477,-2.7252],[-70.8135,-2.2569],[-73.0704,-2.309],[-73.6595,-1.2605],[-75.3732,-0.152],[-75.545,-1.5616],[-76.6354,-2.6087],[-77.8379,-3.003],[-78.6399,-4.5478],[-80.4422,-4.4257],[-80.3026,-3.4049],[-81.4109,-4.7368],[-81.25,-6.1368],[-79.7606,-7.1943],[-79.037,-8.3866],[-77.1062,-12.2227],[-76.2592,-13.535],[-76.0092,-14.6493],[-73.4445,-16.3594],[-71.462,-17.3635],[-70.3726,-18.348],[-69.5904,-17.58],[-68.9596,-16.5007],[-69.3898,-15.6601],[-68.9489,-14.4536],[-68.6651,-12.5613],[-69.5297,-10.9517],[-70.5487,-11.0091],[-71.3024,-10.0794],[-72.1849,-10.0536],[-73.5711,-8.4244],[-73.9872,-7.5238],[-73.12,-6.6299],[-72.8919,-5.2746],[-70.7948,-4.2513],[-69.8936,-4.2982]]]},"properties":{"iso-a3":"PER","name":"Peru"}},
{"type":"Feature","geometry":{"type":"Polygon","coordinates":[[[-66.8763,1.2534],[-67.3032,3.3185],[-67.823,4.5039],[-67.3414,6.0955],[-69.3895,6.0999],[-70.0933,6.9604],[-71.9602,6.9916],[-72.7887,9.085],[-72.9053,10.4503],[-71.9739,11.6087],[-71.3316,11.7763],[-71.7541,12.4373],[-73.4148,11.227],[-74.1972,11.3105],[-75.4804,10.619],[-75.6746,9.4432],[-77.3534,8.6705],[-77.2426,7.9353],[-77.8816,7.2238],[-77.1277,3.8496],[-77.9315,2.6966],[-78.4276,2.6296],[-78.8553,1.3809],[-77.425,0.3957],[-76.2923,0.416],[-75.3732,-0.152],[-73.6595,-1.2605],[-73.0704,-2.309],[-70.8135,-2.2569],[-70.0477,-2.7252],[-70.394,-3.7666],[-69.8936,-4.2982],[-69.4441,-1.5563],[-70.0207,-0.1852],[-69.817,1.7148],[-67.8686,1.6925],[-66.8763,1.2534]]]},"properties":{"iso-a3":"COL","name":"Colombia"}},
{"type":"Feature","geometry":{"type":"Polygon","coordinates":[[[-77.3534,8.6705],[-78.0559,9.2477],[-79.5733,9.6116],[-81.4393,8.7862],[-82.5462,9.5661],[-82.9658,8.225],[-81.7213,8.109],[-80.8864,7.2205],[-80.4807,8.0903],[-79.1203,8.9961],[-78.6221,8.7181],[-77.8816,7.2238],[-77.2426,7.9353],[-77.3534,8.6705]]]},"properties":{"iso-a3":"PAN","name":"Panama"}},
{"type":"Feature","geometry":{"type":"Polygon","coordinates":[[[-82.5462,9.5661],[-83.6556,10.9388],[-85.7125,11.0884],[-85.7974,10.1349],[-83.6326,9.0514],[-82.9658,8.225],[-82.5462,9.5661]]]},"properties":{"iso-a3":"CRI","name":"Costa Rica"}},
{"type":"Feature","geometry":{"type":"Polygon","coordinates":[[[-83.6556,10.9388],[-83.5522,13.1271],[-83.1472,14.9958],[-84.9245,14.7905],[-85.8013,13.8361],[-86.7551,13.7548],[-87.3167,12.9847],[-85.7125,11.0884],[-83.6556,10.9388]]]},"properties":{"iso-a3":"NIC","name":"Nicaragua"}},
{"type":"Feature","geometry":{"type":"Polygon","coordinates":[[[-83.1472,14.9958],[-84.3683,15.8352],[-86.002,16.0054],[-88.225,15.7277],[-89.3533,14.4241],[-87.7235,13.7851],[-87.7931,13.3845],[-87.3167,12.9847],[-86.7551,13.7548],[-85.8013,13.8361],[-84.9245,14.7905],[-83.1472,14.9958]]]},"properties":{"iso-a3":"HND","name":"Honduras"}},
{"type":"Feature","geometry":{"type":"Polygon","coordinates":[[[-89.3533,14.4241],[-90.0956,13.7353],[-88.4833,13.164],[-87.7931,13.3845],[-87.7235,13.7851],[-89.3533,14.4241]]]},"properties":{"iso-a3":"SLV","name":"El Salvador"}},
{"type":"Feature","geometry":{"type":"Polygon","coordinates":[[[-92.2277,14.5388],[-91.2324,13.9278],[-90.0956,13.7353],[-89.3533,14.4241],[-88.225,15.7277],[-88.9306,15.8873],[-89.1431,17.8083],[-91.0015,17.8176],[-90.4645,16.0696],[-91.748,16.0666],[-92.2277,14.5388]]]},"properties":{"iso-a3":"GTM","name":"Guatemala"}},
{"type":"Feature","geometry":{"type":"Polygon","coordinates":[[[-89.1431,17.8083],[-88.9306,15.8873],[-88.3554,16.5308],[-88.3,18.5],[-89.1431,17.8083]]]},"properties":{"iso-a3":"BLZ","name":"Belize"}},
{"type":"Feature","geometry":{"type":"Polygon","coordinates":[[[-60.7336,5.2003],[-61.4103,5.9591],[-61.1593,6.6961],[-60.2957,7.0439],[-60.5506,7.7796],[-59.7583,8.367],[-60.6713,8.5802],[-60.8306,9.3813],[-62.7301,10.4203],[-64.318,10.6414],[-64.8905,10.0772],[-66.2279,10.6486],[-68.1941,10.5547],[-68.883,11.4434],[-70.1553,11.3755],[-71.3316,11.7763],[-71.9739,11.6087],[-72.9053,10.4503],[-72.7887,9.085],[-71.9602,6.9916],[-70.0933,6.9604],[-69.3895,6.0999],[-67.3414,6.0955],[-67.823,4.5039],[-67.3032,3.3185],[-66.8763,1.2534],[-66.3258,0.7245],[-64.1993,1.4929],[-64.3685,3.7972],[-62.8045,4.007],[-60.9669,4.5365],[-60.7336,5.2003]]]},"properties":{"iso-a3":"VEN","name":"Venezuela"}},
{"type":"Feature","geometry":{"type":"Polygon","coordinates":[[[-56.5394,1.8995],[-58.0447,4.0609],[-57.3072,5.0736],[-57.1474,5.9732],[-59.1017,7.9992],[-59.7583,8.367],[-60.5506,7.7796],[-60.2957,7.0439],[-61.1593,6.6961],[-61.4103,5.9591],[-60.7336,5.2003],[-59.538,3.9588],[-59.9745,2.7552],[-59.0309,1.3177],[-56.5394,1.8995]]]},"properties":{"iso-a3":"GUY","name":"Guyana"}},
{"type":"Feature","geometry":{"type":"Polygon","coordinates":[[[-54.5248,2.3118],[-54.0069,3.62],[-54.4786,4.8968],[-53.958,5.7565],[-55.0332,6.0253],[-55.9493,5.7729],[-57.1474,5.9732],[-57.3072,5.0736],[-58.0447,4.0609],[-56.5394,1.8995],[-55.9733,2.5104],[-54.5248,2.3118]]]},"properties":{"iso-a3":"SUR","name":"Suriname"}},
{"type":"Feature","geometry":{"type":"MultiPolygon","coordinates":[[[[-51.6578,4.1562],[-52.8821,5.4099],[-53.958,5.7565],[-54.4786,4.8968],[-54.0069,3.62],[-54.5248,2.3118],[-52.9397,2.1249],[-51.6578,4.1562]]],[[[6.1863,49.4638],[5.6741,49.5295],[4.286,49.9075],[2.5136,51.1485],[1.3388,50.1272],[-0.9895,49.3474],[-1.6165,48.6444],[-3.2958,48.9017],[-4.4916,47.955],[-2.9633,47.5703],[-1.1938,46.0149],[-1.3842,44.0226],[-1.9014,43.4228],[-1.5028,43.034],[1.8268,42.3434],[2.986,42.473],[3.1004,43.0752],[4.557,43.3997],[6.5292,43.1289],[7.4352,43.6938],[6.75,45.0285],[6.8436,45.9911],[6.0374,46.7258],[7.4668,47.6206],[8.0993,49.0178],[6.1863,49.4638]]]]},"properties":{"iso-a3":"-99","name":"France"}},
{"type":"Feature","geometry":{"type":"Polygon","coordinates":[[[-75.3732,-0.152],[-76.2923,0.416],[-77.425,0.3957],[-78.8553,1.3809],[-80.0906,0.7684],[-80.9337,-1.0575],[-80.3026,-3.4049],[-80.4422,-4.4257],[-78.6399,-4.5478],[-77.8379,-3.003],[-76.6354,-2.6087],[-75.545,-1.5616],[-75.3732,-0.152]]]},"properties":{"iso-a3":"ECU","name":"Ecuador"}},
{"type":"Feature","geometry":{"type":"Polygon","coordinates":[[[-66.2824,18.5148],[-67.1007,18.5206],[-67.1842,17.9466],[-65.8472,17.9759],[-66.2824,18.5148]]]},"properties":{"iso-a3":"PRI","name":"Puerto Rico"}},
{"type":"Feature","geometry":{"type":"Polygon","coordinates":[[[-77.5696,18.4905],[-77.2063,17.7011],[-76.3654,18.1607],[-77.5696,18.4905]]]},"properties":{"iso-a3":"JAM","name":"Jamaica"}},
{"type":"Feature","geometry":{"type":"Polygon","coordinates":[[[-82.2682,23.1886],[-81.8209,22.1921],[-78.7199,21.5981],[-77.7555,19.8555],[-75.6347,19.8738],[-74.178,20.2846],[-76.5238,21.2068],[-78.3474,22.5122],[-79.2815,22.3992],[-80.6188,23.106],[-82.2682,23.1886]]]},"properties":{"iso-a3":"CUB","name":"Cuba"}},
{"type":"Feature","geometry":{"type":"Polygon","coordinates":[[[31.1914,-22.2515],[32.245,-21.1165],[32.7727,-19.7156],[32.8476,-16.7134],[30.2743,-15.5078],[29.5168,-15.6447],[27.0444,-17.938],[25.2642,-17.7365],[26.1648,-19.2931],[28.0214,-21.486],[29.4322,-22.0913],[31.1914,-22.2515]]]},"properties":{"iso-a3":"ZWE","name":"Zimbabwe"}},
{"type":"Feature","geometry":{"type":"Polygon","coordinates":[[[29.4322,-22.0913],[28.0214,-21.486],[26.1648,-19.2931],[25.2642,-17.7365],[25.0844,-17.6618],[23.579,-18.2813],[23.1969,-17.869],[20.9106,-18.2522],[20.8811,-21.8143],[19.8955,-21.8492],[19.8958,-24.7678],[21.6059,-26.7265],[23.3121,-25.2687],[24.2113,-25.6702],[25.6647,-25.4868],[27.1194,-23.5743],[29.4322,-22.0913]]]},"properties":{"iso-a3":"BWA","name":"Botswana"}},
{"type":"Feature","geometry":{"type":"Polygon","coordinates":[[[19.8958,-24.7678],[19.8955,-21.8492],[20.8811,-21.8143],[20.9106,-18.2522],[23.1969,-17.869],[23.579,-18.2813],[25.0844,-17.6618],[24.0339,-17.2958],[23.215,-17.5231],[21.3772,-17.9306],[18.9562,-17.7891],[18.2633,-17.31],[14.2097,-17.3531],[12.8141,-16.9413],[11.7342,-17.3019],[11.7949,-18.0691],[12.6086,-19.0453],[13.3525,-20.8728],[14.2577,-22.1112],[14.4081,-23.853],[15.2105,-27.091],[16.345,-28.5767],[18.4649,-29.0455],[19.8947,-28.4611],[19.8958,-24.7678]]]},"properties":{"iso-a3":"NAM","name":"Namibia"}},
{"type":"Feature","geometry":{"type":"Polygon","coordinates":[[[-16.7137,13.595],[-15.6246,13.6236],[-15.9313,13.1303],[-16.8415,13.1514],[-16.6775,12.3849],[-15.5485,12.6282],[-13.7005,12.5862],[-11.5139,12.443],[-12.1707,14.6168],[-13.4357,16.0394],[-14.5773,16.5983],[-16.4631,16.135],[-17.1852,14.9195],[-16.7137,13.595]]]},"properties":{"iso-a3":"SEN","name":"Senegal"}},
{"type":"Feature","geometry":{"type":"Polygon","coordinates":[[[-11.5139,12.443],[-10.1652,11.8441],[-9.1275,12.3081],[-8.3763,11.3936],[-8.0299,10.2065],[-6.0505,10.0964],[-5.4043,10.3707],[-5.2209,11.7139],[-2.001,14.559],[-0.5159,15.1162],[0.3749,14.9289],[1.3855,15.3236],[3.6383,15.5681],[4.2702,16.8522],[4.2674,19.1553],[3.1467,19.6936],[-1.5501,22.7927],[-4.9233,24.9746],[-6.4538,24.9566],[-5.9711,20.6408],[-5.4885,16.3251],[-5.5377,15.5017],[-9.5502,15.4865],[-10.6508,15.1327],[-11.6661,15.3882],[-12.1707,14.6168],[-11.5139,12.443]]]},"properties":{"iso-a3":"MLI","name":"Mali"}},
{"type":"Feature","geometry":{"type":"Polygon","coordinates":[[[-17.0634,20.9998],[-16.2778,20.0925],[-16.1463,18.1085],[-16.4631,16.135],[-14.5773,16.5983],[-13.4357,16.0394],[-12.1707,14.6168],[-11.6661,15.3882],[-10.6508,15.1327],[-9.5502,15.4865],[-5.5377,15.5017],[-5.4885,16.3251],[-5.9711,20.6408],[-6.4538,24.9566],[-4.9233,24.9746],[-8.6844,27.3957],[-8.6873,25.8811],[-11.9694,25.9334],[-11.9372,23.3746],[-13.1188,22.7712],[-12.9291,21.3271],[-16.8452,21.3333],[-17.0634,20.9998]]]},"properties":{"iso-a3":"MRT","name":"Mauritania"}},
{"type":"Feature","geometry":{"type":"Polygon","coordinates":[[[2.6917,6.2588],[2.7238,8.5068],[3.7054,10.0632],[3.6112,11.6602],[2.8486,12.2356],[2.1545,11.9401],[0.8996,10.9973],[0.7723,10.4708],[1.6645,9.1286],[1.619,6.832],[1.8652,6.1422],[2.6917,6.2588]]]},"properties":{"iso-a3":"BEN","name":"Benin"}},
{"type":"Feature","geometry":{"type":"Polygon","coordinates":[[[14.8513,22.863],[11.9995,23.4717],[8.5729,21.5657],[5.6776,19.6012],[4.2674,19.1553],[4.2702,16.8522],[3.6383,15.5681],[1.3855,15.3236],[0.3749,14.9289],[0.4299,13.9887],[1.0241,12.8518],[2.1771,12.625],[2.1545,11.9401],[2.8486,12.2356],[3.6112,11.6602],[3.6806,12.5529],[4.3683,13.7475],[5.4431,13.8659],[6.8204,13.1151],[7.8047,13.3435],[9.0149,12.8267],[10.1148,13.2773],[12.3021,13.0372],[13.3187,13.5564],[14.1813,12.4837],[14.4958,12.8594],[13.5404,14.3671],[13.9722,15.6844],[15.2477,16.6273],[15.3004,17.928],[15.9032,20.3876],[15.0969,21.3085],[14.8513,22.863]]]},"properties":{"iso-a3":"NER","name":"Niger"}},
{"type":"Feature","geometry":{"type":"Polygon","coordinates":[[[2.6917,6.2588],[4.3256,6.2707],[5.8982,4.2625],[6.6981,4.2406],[8.5003,4.772],[9.2332,6.4445],[10.1183,7.0388],[11.0588,6.6444],[11.7458,6.9814],[12.2189,8.3058],[12.7537,8.7178],[13.573,10.7986],[14.4154,11.5724],[14.1813,12.4837],[13.3187,13.5564],[12.3021,13.0372],[10.1148,13.2773],[9.0149,12.8267],[7.8047,13.3435],[6.8204,13.1151],[5.4431,13.8659],[4.3683,13.7475],[3.6806,12.5529],[3.6112,11.6602],[3.7054,10.0632],[2.7238,8.5068],[2.6917,6.2588]]]},"properties":{"iso-a3":"NGA","name":"Nigeria"}},
{"type":"Feature","geometry":{"type":"Polygon","coordinates":[[[14.4958,12.8594],[14.1813,12.4837],[14.4154,11.5724],[13.573,10.7986],[12.7537,8.7178],[12.2189,8.3058],[11.7458,6.9814],[11.0588,6.6444],[10.1183,7.0388],[9.2332,6.4445],[8.5003,4.772],[9.7952,3.0734],[9.6492,2.2839],[11.2764,2.2611],[13.0758,2.2671],[14.3378,2.2279],[15.9409,1.7277],[16.0129,2.2676],[14.4784,4.7326],[14.5366,6.227],[15.2795,7.4219],[14.98,8.7961],[13.9542,9.5495],[14.9236,10.8913],[14.8934,12.2191],[14.4958,12.8594]]]},"properties":{"iso-a3":"CMR","name":"Cameroon"}},
{"type":"Feature","geometry":{"type":"Polygon","coordinates":[[[0.8996,10.9973],[0.0238,11.0187],[0.3676,10.1912],[0.491,7.4117],[1.0601,5.9288],[1.8652,6.1422],[1.619,6.832],[1.6645,9.1286],[0.7723,10.4708],[0.8996,10.9973]]]},"properties":{"iso-a3":"TGO","name":"Togo"}},
{"type":"Feature","geometry":{"type":"Polygon","coordinates":[[[0.0238,11.0187],[-2.9404,10.9627],[-2.8275,9.6425],[-2.5622,8.2196],[-3.2444,6.2505],[-2.8561,4.9945],[-1.9647,4.7105],[1.0601,5.9288],[0.491,7.4117],[0.3676,10.1912],[0.0238,11.0187]]]},"properties":{"iso-a3":"GHA","name":"Ghana"}},
{"type":"Feature","geometry":{"type":"Polygon","coordinates":[[[-8.0299,10.2065],[-8.3096,9.7895],[-7.8321,8.5757],[-8.4393,7.686],[-8.6029,6.4676],[-7.5702,5.7074],[-7.7122,4.3646],[-5.8345,4.9937],[-4.0088,5.1798],[-2.8561,4.9945],[-3.2444,6.2505],[-2.5622,8.2196],[-2.8275,9.6425],[-4.3302,9.6108],[-5.4043,10.3707],[-6.0505,10.0964],[-8.0299,10.2065]]]},"properties":{"iso-a3":"CIV","name":"Ivory Coast"}},
{"type":"Feature","geometry":{"type":"Polygon","coordinates":[[[-13.7005,12.5862],[-13.7432,11.8113],[-15.1303,11.0404],[-13.2465,8.903],[-12.4259,9.8358],[-11.1175,10.0459],[-10.2301,8.4062],[-9.7553,8.5411],[-8.9261,7.309],[-8.4393,7.686],[-7.8321,8.5757],[-8.3096,9.7895],[-8.0299,10.2065],[-8.3763,11.3936],[-9.1275,12.3081],[-10.1652,11.8441],[-11.5139,12.443],[-13.7005,12.5862]]]},"properties":{"iso-a3":"GIN","name":"Guinea"}},
{"type":"Feature","geometry":{"type":"Polygon","coordinates":[[[-16.6775,12.3849],[-16.0852,11.5246],[-15.1303,11.0404],[-13.7432,11.8113],[-13.7005,12.5862],[-15.5485,12.6282],[-16.6775,12.3849]]]},"properties":{"iso-a3":"GNB","name":"Guinea-Bissau"}},
{"type":"Feature","geometry":{"type":"Polygon","coordinates":[[[-8.4393,7.686],[-8.9261,7.309],[-9.7553,8.5411],[-10.2301,8.4062],[-11.4388,6.7859],[-9.0048,4.8324],[-7.7122,4.3646],[-7.5702,5.7074],[-8.6029,6.4676],[-8.4393,7.686]]]},"properties":{"iso-a3":"LBR","name":"Liberia"}},
{"type":"Feature","geometry":{"type":"Polygon","coordinates":[[[-13.2465,8.903],[-12.949,7.7986],[-11.4388,6.7859],[-10.2301,8.4062],[-11.1175,10.0459],[-12.4259,9.8358],[-13.2465,8.903]]]},"properties":{"iso-a3":"SLE","name":"Sierra Leone"}},
{"type":"Feature","geometry":{"type":"Polygon","coordinates":[[[-5.4043,10.3707],[-4.3302,9.6108],[-2.8275,9.6425],[-2.9404,10.9627],[0.0238,11.0187],[0.8996,10.9973],[2.1545,11.9401],[2.1771,12.625],[1.0241,12.8518],[0.4299,13.9887],[0.3749,14.9289],[-0.5159,15.1162],[-2.001,14.559],[-5.2209,11.7139],[-5.4043,10.3707]]]},"properties":{"iso-a3":"BFA","name":"Burkina Faso"}},
{"type":"Feature","geometry":{"type":"Polygon","coordinates":[[[27.3742,5.2339],[24.5674,8.2292],[23.459,8.9543],[23.5543,10.0893],[22.8642,11.1424],[21.7238,10.5671],[21.0009,9.476],[20.0597,9.0127],[19.094,9.0748],[17.9649,7.8909],[15.2795,7.4219],[14.5366,6.227],[14.4784,4.7326],[16.0129,2.2676],[17.133,3.7282],[18.4531,3.5044],[18.543,4.2018],[19.4678,5.0315],[20.9276,4.3228],[22.4051,4.0292],[24.4105,5.1088],[27.3742,5.2339]]]},"properties":{"iso-a3":"CAF","name":"Central African Republic"}},
{"type":"Feature","geometry":{"type":"Polygon","coordinates":[[[18.4531,3.5044],[17.133,3.7282],[16.0129,2.2676],[15.9409,1.7277],[14.3378,2.2279],[13.0758,2.2671],[13.2826,1.3142],[14.2763,1.1969],[13.8433,0.0388],[14.4255,-1.3334],[13.9924,-2.4708],[12.4957,-2.3917],[11.0938,-3.9788],[11.915,-5.038],[12.9955,-4.7811],[14.145,-4.51],[14.5826,-4.9702],[16.0063,-3.5351],[16.4071,-1.7409],[17.5237,-0.7438],[17.8988,1.7418],[18.4531,3.5044]]]},"properties":{"iso-a3":"COG","name":"Republic of the Congo"}},
{"type":"Feature","geometry":{"type":"Polygon","coordinates":[[[11.2764,2.2611],[11.2851,1.0577],[9.4929,1.0101],[8.798,-1.1113],[9.4052,-2.1443],[11.0938,-3.9788],[12.4957,-2.3917],[13.9924,-2.4708],[14.4255,-1.3334],[13.8433,0.0388],[14.2763,1.1969],[13.2826,1.3142],[13.0758,2.2671],[11.2764,2.2611]]]},"properties":{"iso-a3":"GAB","name":"Gabon"}},
{"type":"Feature","geometry":{"type":"Polygon","coordinates":[[[9.6492,2.2839],[9.4929,1.0101],[11.2851,1.0577],[11.2764,2.2611],[9.6492,2.2839]]]},"properties":{"iso-a3":"GNQ","name":"Equatorial Guinea"}},
{"type":"Feature","geometry":{"type":"Polygon","coordinates":[[[30.74,-8.34],[28.7349,-8.5266],[28.3723,-11.7936],[28.1551,-12.2725],[25.7523,-11.785],[25.4181,-11.3309],[23.9122,-10.9268],[24.0161,-12.911],[21.9339,-12.8984],[21.8878,-16.0803],[23.215,-17.5231],[24.0339,-17.2958],[25.0844,-17.6618],[25.2642,-17.7365],[27.0444,-17.938],[29.5168,-15.6447],[30.2743,-15.5078],[30.1795,-14.7961],[33.214,-13.9719],[32.6882,-13.7129],[33.3064,-12.4358],[33.1143,-11.6072],[33.4857,-10.5256],[32.7594,-9.2306],[30.74,-8.34]]]},"properties":{"iso-a3":"ZMB","name":"Zambia"}},
{"type":"Feature","geometry":{"type":"Polygon","coordinates":[[[32.7594,-9.2306],[33.4857,-10.5256],[33.1143,-11.6072],[33.3064,-12.4358],[32.6882,-13.7129],[33.214,-13.9719],[34.4596,-14.613],[34.3813,-16.1836],[35.0338,-16.8013],[35.7719,-15.8969],[35.6868,-14.611],[34.56,-13.58],[34.28,-12.28],[34.56,-11.52],[34.28,-10.16],[33.7397,-9.4171],[32.7594,-9.2306]]]},"properties":{"iso-a3":"MWI","name":"Malawi"}},
{"type":"Feature","geometry":{"type":"Polygon","coordinates":[[[34.56,-11.52],[34.28,-12.28],[34.56,-13.58],[35.6868,-14.611],[35.7719,-15.8969],[35.0338,-16.8013],[34.3813,-16.1836],[34.4596,-14.613],[33.214,-13.9719],[30.1795,-14.7961],[30.2743,-15.5078],[32.8476,-16.7134],[32.7727,-19.7156],[32.245,-21.1165],[31.1914,-22.2515],[31.9306,-24.3694],[31.8378,-25.8433],[32.0717,-26.7338],[32.8301,-26.7422],[32.5746,-25.7273],[35.4587,-24.1226],[35.5625,-22.09],[34.7019,-20.497],[34.7864,-19.784],[37.4111,-17.5864],[39.4526,-16.7209],[40.7755,-14.6918],[40.5996,-14.202],[40.4784,-10.7654],[40.3166,-10.3171],[39.521,-10.8969],[36.5141,-11.7209],[34.56,-11.52]]]},"properties":{"iso-a3":"MOZ","name":"Mozambique"}},
{"type":"Feature","geometry":{"type":"Polygon","coordinates":[[[32.0717,-26.7338],[31.8378,-25.8433],[31.0441,-25.7315],[30.686,-26.7438],[32.0717,-26.7338]]]},"properties":{"iso-a3":"SWZ","name":"eSwatini"}},
{"type":"Feature","geometry":{"type":"MultiPolygon","coordinates":[[[[12.9955,-4.7811],[11.915,-5.038],[12.1823,-5.7899],[12.9955,-4.7811]]],[[[12.3224,-6.1001],[13.2364,-8.5626],[12.8754,-9.1669],[13.6864,-10.7311],[13.6337,-12.0386],[12.7385,-13.1379],[11.7785,-15.7938],[11.7342,-17.3019],[12.8141,-16.9413],[14.2097,-17.3531],[18.2633,-17.31],[18.9562,-17.7891],[21.3772,-17.9306],[23.215,-17.5231],[21.8878,-16.0803],[21.9339,-12.8984],[24.0161,-12.911],[23.9122,-10.9268],[22.1553,-11.0848],[21.7281,-7.2909],[19.4175,-7.1554],[19.0168,-7.9882],[17.473,-8.0686],[16.3265,-5.8775],[13.3756,-5.8642],[12.3224,-6.1001]]]]},"properties":{"iso-a3":"AGO","name":"Angola"}},
{"type":"Feature","geometry":{"type":"Polygon","coordinates":[[[30.4697,-2.4139],[29.0249,-2.8393],[29.34,-4.5],[30.7522,-3.3593],[30.4697,-2.4139]]]},"properties":{"iso-a3":"BDI","name":"Burundi"}},
{"type":"Feature","geometry":{"type":"Polygon","coordinates":[[[35.7199,32.7092],[35.8211,33.2774],[35.1261,33.0909],[34.2654,31.2194],[34.8232,29.7611],[34.9226,29.5013],[35.3976,31.4891],[34.9274,31.3534],[35.1839,32.5325],[35.5457,32.394],[35.7199,32.7092]]]},"properties":{"iso-a3":"ISR","name":"Israel"}},
{"type":"Feature","geometry":{"type":"Polygon","coordinates":[[[35.8211,33.2774],[36.6118,34.2018],[35.9984,34.6449],[35.1261,33.0909],[35.8211,33.2774]]]},"properties":{"iso-a3":"LBN","name":"Lebanon"}},
{"type":"Feature","geometry":{"type":"Polygon","coordinates":[[[49.5435,-12.4698],[47.7051,-14.5943],[46.3122,-15.78],[44.4465,-16.2162],[43.9631,-17.4099],[44.4644,-19.4355],[44.3743,-20.0724],[43.2542,-22.0574],[44.0397,-24.9883],[45.4095,-25.6014],[47.0958,-24.9416],[48.5485,-20.4969],[49.4356,-17.9531],[49.4986,-17.106],[50.4765,-15.2265],[49.5435,-12.4698]]]},"properties":{"iso-a3":"MDG","name":"Madagascar"}},
{"type":"Feature","geometry":{"type":"Polygon","coordinates":[[[35.3976,31.4891],[35.5457,32.394],[35.1839,32.5325],[34.9274,31.3534],[35.3976,31.4891]]]},"properties":{"iso-a3":"PSE","name":"Palestine"}},
{"type":"Feature","geometry":{"type":"Polygon","coordinates":[[[-16.7137,13.595],[-16.8415,13.1514],[-15.9313,13.1303],[-15.6246,13.6236],[-16.7137,13.595]]]},"properties":{"iso-a3":"GMB","name":"Gambia"}},
{"type":"Feature","geometry":{"type":"Polygon","coordinates":[[[9.4821,30.3076],[9.9502,31.3761],[11.4323,32.3689],[11.4888,33.137],[10.1496,34.3308],[10.9395,35.699],[9.51,37.35],[8.421,36.9464],[8.141,34.6551],[7.6126,33.3441],[9.0556,32.1027],[9.4821,30.3076]]]},"properties":{"iso-a3":"TUN","name":"Tunisia"}},
{"type":"Feature","geometry":{"type":"Polygon","coordinates":[[[-8.6844,27.3957],[-4.9233,24.9746],[-1.5501,22.7927],[3.1467,19.6936],[4.2674,19.1553],[5.6776,19.6012],[8.5729,21.5657],[11.9995,23.4717],[10.7714,24.5625],[10.3038,24.3793],[9.3194,26.0943],[9.7163,26.5122],[9.86,28.96],[9.4821,30.3076],[9.0556,32.1027],[7.6126,33.3441],[8.141,34.6551],[8.421,36.9464],[6.2618,37.1107],[4.8158,36.865],[1.4669,36.6056],[-2.1699,35.1684],[-1.3079,32.2629],[-3.6475,31.6373],[-3.6904,30.897],[-5.2421,30.0004],[-7.0592,29.5792],[-8.6741,28.8413],[-8.6656,27.6564],[-8.6844,27.3957]]]},"properties":{"iso-a3":"DZA","name":"Algeria"}},
{"type":"Feature","geometry":{"type":"Polygon","coordinates":[[[35.5457,32.394],[35.3976,31.4891],[34.9226,29.5013],[34.956,29.3566],[36.0689,29.1975],[37.9988,30.5085],[37.0022,31.5084],[39.1955,32.161],[38.7923,33.3787],[36.8341,32.3129],[35.7199,32.7092],[35.5457,32.394]]]},"properties":{"iso-a3":"JOR","name":"Jordan"}},
{"type":"Feature","geometry":{"type":"Polygon","coordinates":[[[51.5795,24.2455],[52.0007,23.0012],[55.0068,22.4969],[55.2083,22.7083],[55.8041,24.2696],[56.3968,24.9247],[56.261,25.7146],[56.0708,26.0555],[54.008,24.1218],[51.5795,24.2455]]]},"properties":{"iso-a3":"ARE","name":"United Arab Emirates"}},
{"type":"Feature","geometry":{"type":"Polygon","coordinates":[[[50.8101,24.7547],[51.3896,24.6274],[51.5891,25.8011],[51.0134,26.007],[50.8101,24.7547]]]},"properties":{"iso-a3":"QAT","name":"Qatar"}},
{"type":"Feature","geometry":{"type":"Polygon","coordinates":[[[47.9745,29.9758],[47.3026,30.0591],[46.5687,29.099],[48.4161,28.552],[47.9745,29.9758]]]},"properties":{"iso-a3":"KWT","name":"Kuwait"}},
{"type":"Feature","geometry":{"type":"Polygon","coordinates":[[[39.1955,32.161],[41.89,31.19],[44.7095,29.1789],[46.5687,29.099],[47.3026,30.0591],[47.9745,29.9758],[48.568,29.9268],[47.6853,30.9849],[47.3347,32.4692],[46.1094,33.0173],[45.4167,33.9678],[46.0763,35.6774],[45.4206,35.9775],[44.7727,37.1704],[42.3496,37.2299],[41.2897,36.3588],[41.0062,34.4194],[38.7923,33.3787],[39.1955,32.161]]]},"properties":{"iso-a3":"IRQ","name":"Iraq"}},
{"type":"Feature","geometry":{"type":"Polygon","coordinates":[[[55.2083,22.7083],[55.6667,22],[55,20],[52,19],[53.1086,16.6511],[55.2749,17.2284],[56.2835,17.8761],[56.6097,18.5743],[57.7887,19.0676],[57.6658,19.736],[58.488,20.429],[59.8061,22.3105],[58.7292,23.5657],[57.4035,23.8786],[56.3968,24.9247],[55.8041,24.2696],[55.2083,22.7083]]]},"properties":{"iso-a3":"OMN","name":"Oman"}},
{"type":"Feature","geometry":{"type":"Polygon","coordinates":[[[166.7932,-15.6688],[167.27,-15.74],[167.1077,-14.9339],[166.6291,-14.6265],[166.7932,-15.6688]]]},"properties":{"iso-a3":"VUT","name":"Vanuatu"}},
{"type":"Feature","geometry":{"type":"Polygon","coordinates":[[[102.5849,12.1866],[103.4973,10.6326],[104.3343,10.4865],[105.8105,11.5676],[107.4914,12.3372],[107.3827,14.2024],[106.4964,14.5706],[106.0439,13.8811],[105.2188,14.2732],[102.9884,14.2257],[102.3481,13.3942],[102.5849,12.1866]]]},"properties":{"iso-a3":"KHM","name":"Cambodia"}},
{"type":"Feature","geometry":{"type":"Polygon","coordinates":[[[105.2188,14.2732],[105.589,15.5703],[104.7793,16.4419],[104.7169,17.4289],[103.9565,18.241],[102.1136,18.1091],[101.0595,17.5125],[101.282,19.4626],[100.6063,19.5083],[100.116,20.4179],[98.2537,19.7082],[97.7978,18.6271],[97.8591,17.5679],[98.9033,16.1778],[98.4308,14.622],[99.0978,13.8275],[99.5873,11.8928],[98.5536,9.933],[98.5038,8.3823],[100.0858,6.4645],[101.8143,5.8108],[102.1412,6.2216],[100.4593,7.4296],[99.8738,9.2079],[99.1538,9.9631],[100.0187,12.307],[100.0978,13.4069],[100.9785,13.4127],[102.5849,12.1866],[102.3481,13.3942],[102.9884,14.2257],[105.2188,14.2732]]]},"properties":{"iso-a3":"THA","name":"Thailand"}},
{"type":"Feature","geometry":{"type":"Polygon","coordinates":[[[107.3827,14.2024],[107.5645,15.2022],[105.0946,18.667],[103.8965,19.2652],[104.8226,19.8866],[104.435,20.7587],[103.2039,20.7666],[102.1704,22.4648],[101.18,21.4366],[100.116,20.4179],[100.6063,19.5083],[101.282,19.4626],[101.0595,17.5125],[102.1136,18.1091],[103.9565,18.241],[104.7169,17.4289],[104.7793,16.4419],[105.589,15.5703],[105.2188,14.2732],[106.0439,13.8811],[106.4964,14.5706],[107.3827,14.2024]]]},"properties":{"iso-a3":"LAO","name":"Laos"}},
{"type":"Feature","geometry":{"type":"Polygon","coordinates":[[[100.116,20.4179],[101.18,21.4366],[99.2409,22.1183],[98.6603,24.0633],[97.6047,23.8974],[97.7246,25.0836],[98.6718,25.9187],[98.6827,27.5088],[97.3271,28.2616],[97.052,27.6991],[95.1248,26.5736],[95.1552,26.0013],[94.1067,23.8507],[93.3252,24.0786],[93.1661,22.2785],[92.6727,22.0412],[92.3686,20.6709],[94.3248,18.2135],[94.5335,17.2772],[94.1888,16.0379],[95.3694,15.7144],[97.1645,16.9287],[97.5971,16.1006],[98.1036,13.6405],[98.5096,13.1224],[98.7645,11.4413],[98.5536,9.933],[99.5873,11.8928],[99.0978,13.8275],[98.4308,14.622],[98.9033,16.1778],[97.8591,17.5679],[97.7978,18.6271],[98.2537,19.7082],[100.116,20.4179]]]},"properties":{"iso-a3":"MMR","name":"Myanmar"}},
{"type":"Feature","geometry":{"type":"Polygon","coordinates":[[[104.3343,10.4865],[105.0762,9.9185],[105.1583,8.5998],[107.2209,10.3645],[109.2001,11.6669],[109.3353,13.426],[108.8771,15.2767],[107.362,16.6975],[105.662,19.0582],[106.7151,20.6969],[108.0502,21.5524],[107.0434,21.8119],[106.7254,22.7943],[105.3292,23.3521],[104.4769,22.8192],[102.1704,22.4648],[103.2039,20.7666],[104.435,20.7587],[104.8226,19.8866],[103.8965,19.2652],[105.0946,18.667],[107.5645,15.2022],[107.3827,14.2024],[107.4914,12.3372],[105.8105,11.5676],[104.3343,10.4865]]]},"properties":{"iso-a3":"VNM","name":"Vietnam"}},
{"type":"Feature","geometry":{"type":"Polygon","coordinates":[[[130.64,42.395],[129.5967,42.425],[126.8691,41.8166],[126.182,41.1073],[124.2656,39.9285],[125.3866,39.388],[124.7122,38.1083],[126.1748,37.7497],[128.3497,38.6122],[127.5334,39.7569],[129.7052,40.8828],[129.6674,41.6011],[130.78,42.22],[130.64,42.395]]]},"properties":{"iso-a3":"PRK","name":"North Korea"}},
{"type":"Feature","geometry":{"type":"Polygon","coordinates":[[[126.1748,37.7497],[126.5592,35.6845],[126.4857,34.39],[129.0914,35.0825],[129.4605,36.7842],[128.3497,38.6122],[126.1748,37.7497]]]},"properties":{"iso-a3":"KOR","name":"South Korea"}},
{"type":"Feature","geometry":{"type":"Polygon","coordinates":[[[87.7513,49.2972],[88.8543,48.0691],[90.2808,47.6935],[90.9708,46.8881],[90.9455,45.2861],[93.4807,44.9755],[95.3069,44.2413],[96.3494,42.7256],[99.5158,42.5247],[101.833,42.5149],[104.965,41.5974],[106.1293,42.1343],[109.2436,42.5194],[111.8296,43.7431],[111.8733,45.1021],[113.4639,44.8089],[115.9851,45.7272],[117.4217,46.6727],[119.7728,47.0481],[118.0641,48.0667],[117.2955,47.6977],[115.4853,48.1354],[116.6788,49.8885],[114.3625,50.2483],[112.8977,49.5436],[110.662,49.1301],[108.4752,49.2825],[106.8888,50.2743],[103.6765,50.09],[102.2559,50.5106],[102.0652,51.2599],[98.8615,52.0474],[97.2598,49.7261],[94.8159,50.0134],[92.2347,50.8022],[88.8056,49.4705],[87.7513,49.2972]]]},"properties":{"iso-a3":"MNG","name":"Mongolia"}},
{"type":"Feature","geometry":{"type":"Polygon","coordinates":[[[97.3271,28.2616],[96.1177,29.4528],[94.566,29.2774],[92.5031,27.8969],[91.6967,27.7717],[92.0335,26.8383],[89.7445,26.7194],[88.8142,27.2993],[88.1204,27.8765],[88.0602,26.4146],[85.2518,26.7262],[84.675,27.2349],[83.3042,27.3645],[80.0884,28.7945],[81.1113,30.1835],[78.7389,31.5159],[78.4584,32.6182],[78.9123,34.3219],[77.8375,35.494],[76.8717,34.6535],[74.2402,34.7489],[73.7499,34.3177],[74.4516,32.7649],[74.4214,30.9798],[72.8238,28.9616],[71.7777,27.9132],[70.6165,27.9892],[69.5144,26.941],[70.1689,26.4919],[71.0432,24.3565],[68.8426,24.3591],[68.1766,23.692],[69.3496,22.8432],[69.1641,22.0893],[70.4705,20.8773],[71.1753,20.7574],[72.6305,21.356],[72.8209,19.2082],[73.5342,15.9907],[74.4439,14.6172],[74.8648,12.7419],[75.7465,11.3083],[76.593,8.8993],[77.5399,7.9655],[79.858,10.3573],[79.8625,12.0562],[80.2863,13.0063],[80.0251,15.1364],[80.3249,15.8992],[82.1912,16.5567],[82.1928,17.0166],[83.941,18.302],[85.0603,19.4786],[86.4994,20.1516],[86.9757,21.4956],[88.8888,21.6906],[89.032,22.0557],[88.0844,24.5017],[89.9207,25.2697],[92.3762,24.9767],[91.9151,24.1304],[92.6727,22.0412],[93.1661,22.2785],[93.3252,24.0786],[94.1067,23.8507],[95.1552,26.0013],[95.1248,26.5736],[97.052,27.6991],[97.3271,28.2616]]]},"properties":{"iso-a3":"IND","name":"India"}},
{"type":"Feature","geometry":{"type":"Polygon","coordinates":[[[92.6727,22.0412],[91.9151,24.1304],[92.3762,24.9767],[89.9207,25.2697],[88.0844,24.5017],[89.032,22.0557],[90.273,21.8364],[90.496,22.805],[91.4171,22.765],[92.3686,20.6709],[92.6727,22.0412]]]},"properties":{"iso-a3":"BGD","name":"Bangladesh"}},
{"type":"Feature","geometry":{"type":"Polygon","coordinates":[[[91.6967,27.7717],[90.0158,28.2964],[88.8142,27.2993],[89.7445,26.7194],[92.0335,26.8383],[91.6967,27.7717]]]},"properties":{"iso-a3":"BTN","name":"Bhutan"}},
{"type":"Feature","geometry":{"type":"Polygon","coordinates":[[[88.1204,27.8765],[85.8233,28.2036],[84.2346,28.8399],[82.3275,30.1153],[81.1113,30.1835],[80.0884,28.7945],[83.3042,27.3645],[84.675,27.2349],[85.2518,26.7262],[88.0602,26.4146],[88.1204,27.8765]]]},"properties":{"iso-a3":"NPL","name":"Nepal"}},
{"type":"Feature","geometry":{"type":"Polygon","coordinates":[[[77.8375,35.494],[76.1928,35.8984],[75.158,37.133],[71.8463,36.5099],[71.6131,35.1532],[70.8818,33.9889],[69.6871,33.1055],[68.9267,31.6202],[66.9389,31.3049],[66.3465,29.8879],[65.0469,29.4722],[62.5499,29.3186],[60.8742,29.8292],[61.7719,28.6993],[62.7278,28.2596],[63.3166,26.7565],[61.8742,26.24],[61.4974,25.0782],[66.3728,25.4251],[67.4437,23.9448],[68.1766,23.692],[68.8426,24.3591],[71.0432,24.3565],[70.1689,26.4919],[69.5144,26.941],[70.6165,27.9892],[71.7777,27.9132],[72.8238,28.9616],[74.4214,30.9798],[74.4516,32.7649],[73.7499,34.3177],[74.2402,34.7489],[76.8717,34.6535],[77.8375,35.494]]]},"properties":{"iso-a3":"PAK","name":"Pakistan"}},
{"type":"Feature","geometry":{"type":"Polygon","coordinates":[[[66.5186,37.3628],[64.7461,37.1118],[64.5465,36.3121],[62.2307,35.2707],[61.2108,35.6501],[60.5284,33.6764],[60.9419,31.5481],[61.7812,30.7359],[60.8742,29.8292],[62.5499,29.3186],[65.0469,29.4722],[66.3465,29.8879],[66.9389,31.3049],[68.9267,31.6202],[69.6871,33.1055],[70.8818,33.9889],[71.6131,35.1532],[71.8463,36.5099],[75.158,37.133],[74.98,37.42],[73.2601,37.4953],[71.8446,36.7382],[71.5419,37.9058],[67.83,37.145],[66.5186,37.3628]]]},"properties":{"iso-a3":"AFG","name":"Afghanistan"}},
{"type":"Feature","geometry":{"type":"Polygon","coordinates":[[[67.83,37.145],[71.5419,37.9058],[71.8446,36.7382],[73.2601,37.4953],[74.98,37.42],[74.8648,38.3788],[73.9289,38.5058],[73.6754,39.4312],[71.7847,39.2795],[71.0142,40.2444],[70.6666,40.9602],[69.3295,40.7278],[68.176,38.9016],[68.392,38.157],[67.83,37.145]]]},"properties":{"iso-a3":"TJK","name":"Tajikistan"}},
{"type":"Feature","geometry":{"type":"Polygon","coordinates":[[[70.9623,42.2662],[73.0554,40.866],[71.7749,40.1458],[71.0142,40.2444],[71.7847,39.2795],[73.6754,39.4312],[73.8222,39.894],[76.9045,41.0665],[78.1872,41.1853],[80.26,42.35],[79.1422,42.8561],[76.0004,42.988],[74.2129,43.2983],[73.4898,42.5009],[71.8446,42.8454],[70.9623,42.2662]]]},"properties":{"iso-a3":"KGZ","name":"Kyrgyzstan"}},
{"type":"Feature","geometry":{"type":"Polygon","coordinates":[[[52.5025,41.7833],[53.7217,42.1232],[54.7368,40.951],[52.694,40.0336],[53.8809,38.9521],[53.9216,37.1989],[55.5116,37.9641],[57.3304,38.0292],[59.2348,37.413],[61.2108,35.6501],[62.2307,35.2707],[64.5465,36.3121],[64.7461,37.1118],[66.5186,37.3628],[66.5462,37.9747],[64.1702,38.8924],[62.3743,40.0539],[61.8827,41.0849],[60.0833,41.4251],[59.9764,42.2231],[58.629,42.7516],[55.9682,41.3086],[54.0794,42.3241],[52.5025,41.7833]]]},"properties":{"iso-a3":"TKM","name":"Turkmenistan"}},
{"type":"Feature","geometry":{"type":"Polygon","coordinates":[[[48.568,29.9268],[50.115,30.1478],[51.5208,27.8657],[53.4931,26.8124],[54.7151,26.4807],[56.4921,27.1433],[57.3973,25.7399],[61.4974,25.0782],[61.8742,26.24],[63.3166,26.7565],[62.7278,28.2596],[61.7719,28.6993],[60.8742,29.8292],[61.7812,30.7359],[60.9419,31.5481],[60.5284,33.6764],[61.2108,35.6501],[59.2348,37.413],[57.3304,38.0292],[55.5116,37.9641],[53.9216,37.1989],[52.264,36.7004],[50.8424,36.8728],[49.1996,37.5829],[48.8832,38.3202],[47.6851,39.5084],[46.5057,38.7706],[46.1436,38.7412],[44.794,39.713],[44.1092,39.4281],[44.7727,37.1704],[45.4206,35.9775],[46.0763,35.6774],[45.4167,33.9678],[46.1094,33.0173],[47.3347,32.4692],[47.6853,30.9849],[48.568,29.9268]]]},"properties":{"iso-a3":"IRN","name":"Iran"}},
{"type":"Feature","geometry":{"type":"Polygon","coordinates":[[[35.7199,32.7092],[36.8341,32.3129],[38.7923,33.3787],[41.0062,34.4194],[41.2897,36.3588],[42.3496,37.2299],[39.5226,36.7161],[37.0668,36.623],[36.1498,35.8215],[35.9984,34.6449],[36.6118,34.2018],[35.8211,33.2774],[35.7199,32.7092]]]},"properties":{"iso-a3":"SYR","name":"Syria"}},
{"type":"Feature","geometry":{"type":"Polygon","coordinates":[[[46.5057,38.7706],[46.4835,39.4642],[44.9725,41.2481],[43.5827,41.0921],[43.6564,40.2536],[44.794,39.713],[46.1436,38.7412],[46.5057,38.7706]]]},"properties":{"iso-a3":"ARM","name":"Armenia"}},
{"type":"Feature","geometry":{"type":"Polygon","coordinates":[[[11.0274,58.8561],[12.9429,55.3617],[14.6667,56.2009],[15.8798,56.1043],[16.8292,58.7198],[17.8692,58.9538],[18.7877,60.0819],[17.1196,61.3412],[17.8478,62.7494],[21.3696,64.4136],[22.1832,65.7237],[23.9034,66.0069],[23.5395,67.936],[20.6456,69.1062],[16.7689,68.0139],[15.1084,66.1939],[11.9306,63.1283],[12.6311,61.2936],[12.3004,60.1179],[11.0274,58.8561]]]},"properties":{"iso-a3":"SWE","name":"Sweden"}},
{"type":"Feature","geometry":{"type":"Polygon","coordinates":[[[28.1767,56.1691],[26.4943,55.6151],[25.5364,54.2824],[23.4841,53.9125],[23.5271,51.5785],[24.5531,51.8885],[29.2549,51.3682],[31.786,52.1017],[31.7313,53.794],[30.7575,54.8118],[30.8739,55.551],[28.1767,56.1691]]]},"properties":{"iso-a3":"BLR","name":"Belarus"}},
{"type":"Feature","geometry":{"type":"Polygon","coordinates":[[[31.786,52.1017],[29.2549,51.3682],[24.5531,51.8885],[23.5271,51.5785],[24.03,50.7054],[22.5581,49.0857],[22.0856,48.4223],[22.7105,47.8822],[24.8663,47.7375],[26.6193,48.2207],[27.5225,48.4671],[29.1227,47.8491],[29.76,46.35],[28.2336,45.4883],[29.6033,45.2933],[30.7487,46.5831],[33.436,45.9719],[35.0127,45.7377],[34.9623,46.2732],[38.2235,47.1022],[39.7383,47.8989],[40.069,49.6011],[35.3561,50.5772],[33.7527,52.3351],[31.786,52.1017]]]},"properties":{"iso-a3":"UKR","name":"Ukraine"}},
{"type":"Feature","geometry":{"type":"Polygon","coordinates":[[[23.4841,53.9125],[22.7311,54.3275],[19.6606,54.4261],[17.6228,54.8515],[14.1197,53.757],[14.0745,52.9813],[15.017,51.1067],[17.5546,50.3621],[18.8531,49.4962],[19.825,49.2171],[21.6078,49.4701],[22.5581,49.0857],[24.03,50.7054],[23.5271,51.5785],[23.4841,53.9125]]]},"properties":{"iso-a3":"POL","name":"Poland"}},
{"type":"Feature","geometry":{"type":"Polygon","coordinates":[[[16.9797,48.1235],[16.9603,48.597],[15.2534,49.0391],[13.5959,48.8772],[13.0259,47.6376],[9.5942,47.5251],[10.4427,46.8935],[12.1531,47.1154],[13.8065,46.5093],[16.2023,46.8524],[16.9797,48.1235]]]},"properties":{"iso-a3":"AUT","name":"Austria"}},
{"type":"Feature","geometry":{"type":"Polygon","coordinates":[[[22.0856,48.4223],[20.8013,48.6239],[17.8571,47.7584],[16.9797,48.1235],[16.2023,46.8524],[16.5648,46.5038],[18.8298,45.9089],[20.2202,46.1275],[21.022,46.3161],[22.7105,47.8822],[22.0856,48.4223]]]},"properties":{"iso-a3":"HUN","name":"Hungary"}},
{"type":"Feature","geometry":{"type":"Polygon","coordinates":[[[26.6193,48.2207],[28.128,46.8105],[28.2336,45.4883],[29.76,46.35],[29.1227,47.8491],[27.5225,48.4671],[26.6193,48.2207]]]},"properties":{"iso-a3":"MDA","name":"Moldova"}},
{"type":"Feature","geometry":{"type":"Polygon","coordinates":[[[28.2336,45.4883],[28.128,46.8105],[26.6193,48.2207],[24.8663,47.7375],[22.7105,47.8822],[21.022,46.3161],[20.2202,46.1275],[21.562,44.7689],[22.6572,44.2349],[22.9448,43.8238],[25.5693,43.6884],[27.2424,44.176],[28.5581,43.7075],[28.8379,44.9139],[29.6033,45.2933],[28.2336,45.4883]]]},"properties":{"iso-a3":"ROU","name":"Romania"}},
{"type":"Feature","geometry":{"type":"Polygon","coordinates":[[[26.4943,55.6151],[24.8607,56.3725],[21.0558,56.0311],[21.2684,55.1905],[22.7311,54.3275],[23.4841,53.9125],[25.5364,54.2824],[26.4943,55.6151]]]},"properties":{"iso-a3":"LTU","name":"Lithuania"}},
{"type":"Feature","geometry":{"type":"Polygon","coordinates":[[[27.2882,57.4745],[24.3129,57.7934],[23.3185,57.0062],[21.5819,57.4119],[21.0558,56.0311],[24.8607,56.3725],[26.4943,55.6151],[28.1767,56.1691],[27.2882,57.4745]]]},"properties":{"iso-a3":"LVA","name":"Latvia"}},
{"type":"Feature","geometry":{"type":"Polygon","coordinates":[[[27.9811,59.4754],[25.8642,59.6111],[23.3398,59.1872],[24.3129,57.7934],[27.2882,57.4745],[27.9811,59.4754]]]},"properties":{"iso-a3":"EST","name":"Estonia"}},
{"type":"Feature","geometry":{"type":"Polygon","coordinates":[[[14.1197,53.757],[11.9563,54.1965],[9.9219,54.9831],[8.5262,54.9627],[8.8007,54.0208],[6.9051,53.4822],[6.1567,50.8037],[6.0431,50.1281],[6.1863,49.4638],[8.0993,49.0178],[7.4668,47.6206],[9.5942,47.5251],[13.0259,47.6376],[13.5959,48.8772],[12.2401,50.2663],[15.017,51.1067],[14.0745,52.9813],[14.1197,53.757]]]},"properties":{"iso-a3":"DEU","name":"Germany"}},
{"type":"Feature","geometry":{"type":"Polygon","coordinates":[[[22.6572,44.2349],[22.986,43.2112],[22.3805,42.3203],[22.9524,41.338],[26.117,41.8269],[27.9967,42.0074],[27.6739,42.5779],[28.5581,43.7075],[27.2424,44.176],[25.5693,43.6884],[22.9448,43.8238],[22.6572,44.2349]]]},"properties":{"iso-a3":"BGR","name":"Bulgaria"}},
{"type":"Feature","geometry":{"type":"Polygon","coordinates":[[[22.9524,41.338],[21.02,40.8427],[20.15,39.625],[21.12,38.3103],[21.67,36.845],[24.04,37.655],[22.9731,38.9709],[22.8497,39.6593],[24.408,40.125],[24.9258,40.9471],[26.0569,40.8241],[26.117,41.8269],[22.9524,41.338]]]},"properties":{"iso-a3":"GRC","name":"Greece"}},
{"type":"Feature","geometry":{"type":"MultiPolygon","coordinates":[[[[44.7727,37.1704],[44.1092,39.4281],[44.794,39.713],[43.6564,40.2536],[43.5827,41.0921],[41.5541,41.5357],[40.3734,41.0137],[38.3477,40.9486],[35.1677,42.0402],[33.5133,42.019],[31.1459,41.0876],[29.24,41.22],[28.82,40.46],[27.28,40.42],[26.1708,39.4636],[26.3182,38.2081],[27.6412,36.6588],[28.7329,36.6768],[29.7,36.1444],[30.6216,36.6779],[32.5092,36.1076],[34.0269,36.22],[34.7146,36.7955],[36.1498,35.8215],[37.0668,36.623],[39.5226,36.7161],[42.3496,37.2299],[44.7727,37.1704]]],[[[26.117,41.8269],[26.0569,40.8241],[27.619,40.9998],[27.9967,42.0074],[26.117,41.8269]]]]},"properties":{"iso-a3":"TUR","name":"Turkey"}},
{"type":"Feature","geometry":{"type":"Polygon","coordinates":[[[21.02,40.8427],[20.5902,41.8554],[20.0707,42.5886],[19.3718,41.8776],[19.4061,40.2508],[20.15,39.625],[21.02,40.8427]]]},"properties":{"iso-a3":"ALB","name":"Albania"}},
{"type":"Feature","geometry":{"type":"Polygon","coordinates":[[[16.5648,46.5038],[15.3277,45.4523],[13.7151,45.5003],[14.9016,45.0761],[16.0154,43.5072],[18.45,42.48],[18.56,42.65],[17.6749,43.0286],[15.75,44.8187],[15.9594,45.2338],[19.0055,44.8602],[18.8298,45.9089],[16.5648,46.5038]]]},"properties":{"iso-a3":"HRV","name":"Croatia"}},
{"type":"Feature","geometry":{"type":"Polygon","coordinates":[[[9.5942,47.5251],[7.4668,47.6206],[6.0374,46.7258],[6.8436,45.9911],[7.756,45.8245],[10.4427,46.8935],[9.5942,47.5251]]]},"properties":{"iso-a3":"CHE","name":"Switzerland"}},
{"type":"Feature","geometry":{"type":"Polygon","coordinates":[[[6.0431,50.1281],[5.6741,49.5295],[6.1863,49.4638],[6.0431,50.1281]]]},"properties":{"iso-a3":"LUX","name":"Luxembourg"}},
{"type":"Feature","geometry":{"type":"Polygon","coordinates":[[[6.1567,50.8037],[4.974,51.475],[3.315,51.3458],[2.5136,51.1485],[4.286,49.9075],[5.6741,49.5295],[6.0431,50.1281],[6.1567,50.8037]]]},"properties":{"iso-a3":"BEL","name":"Belgium"}},
{"type":"Feature","geometry":{"type":"Polygon","coordinates":[[[6.9051,53.4822],[4.706,53.0918],[3.315,51.3458],[4.974,51.475],[6.1567,50.8037],[6.9051,53.4822]]]},"properties":{"iso-a3":"NLD","name":"Netherlands"}},
{"type":"Feature","geometry":{"type":"Polygon","coordinates":[[[-9.0348,41.8806],[-8.7687,40.7606],[-9.5266,38.7374],[-8.84,38.2662],[-8.8989,36.8688],[-7.4537,37.0978],[-6.6686,41.8834],[-9.0348,41.8806]]]},"properties":{"iso-a3":"PRT","name":"Portugal"}},
{"type":"Feature","geometry":{"type":"Polygon","coordinates":[[[-7.4537,37.0978],[-6.5202,36.9429],[-5.3772,35.9469],[-4.3689,36.6778],[-2.1465,36.6741],[-0.6834,37.6424],[0.1113,38.7385],[-0.2787,39.31],[0.8105,41.0147],[2.0918,41.2261],[2.986,42.473],[1.8268,42.3434],[-1.5028,43.034],[-1.9014,43.4228],[-4.3478,43.4034],[-7.9782,43.7483],[-9.3929,43.0266],[-9.0348,41.8806],[-6.6686,41.8834],[-7.4537,37.0978]]]},"properties":{"iso-a3":"ESP","name":"Spain"}},
{"type":"Feature","geometry":{"type":"Polygon","coordinates":[[[-6.1979,53.8676],[-7.5722,54.06],[-7.5722,55.1316],[-9.6885,53.8814],[-9.1663,52.8646],[-9.9771,51.8205],[-8.5616,51.6693],[-6.7889,52.2601],[-6.1979,53.8676]]]},"properties":{"iso-a3":"IRL","name":"Ireland"}},
{"type":"Feature","geometry":{"type":"Polygon","coordinates":[[[165.78,-21.08],[164.46,-20.12],[164.168,-20.4447],[165.4744,-21.6796],[165.78,-21.08]]]},"properties":{"iso-a3":"NCL","name":"New Caledonia"}},
{"type":"Feature","geometry":{"type":"Polygon","coordinates":[[[159.64,-8.02],[158.36,-7.32],[158.5861,-7.7548],[159.9174,-8.5383],[159.64,-8.02]]]},"properties":{"iso-a3":"SLB","name":"Solomon Islands"}},
{"type":"Feature","geometry":{"type":"MultiPolygon","coordinates":[[[[176.8858,-40.066],[177.9705,-39.1663],[178.5171,-37.6954],[176.7632,-37.8813],[175.3366,-37.2091],[174.3294,-35.2655],[173.0542,-35.2371],[174.697,-37.3811],[174.5748,-38.7977],[173.824,-39.5089],[176.0124,-41.2896],[176.8858,-40.066]]],[[[169.6678,-43.5553],[168.3038,-44.124],[167.0464,-45.1109],[166.6769,-46.2199],[169.3323,-46.6412],[170.6167,-45.9089],[171.4529,-44.2425],[172.3086,-43.8657],[174.2485,-41.77],[172.0972,-40.9561],[171.1251,-42.5128],[169.6678,-43.5553]]]]},"properties":{"iso-a3":"NZL","name":"New Zealand"}},
{"type":"Feature","geometry":{"type":"MultiPolygon","coordinates":[[[[147.6893,-40.8083],[144.7181,-41.1626],[146.0484,-43.5497],[146.8703,-43.6346],[148.3599,-42.0624],[147.6893,-40.8083]]],[[[126.1487,-32.216],[127.1029,-32.2823],[129.5358,-31.5904],[131.3263,-31.4958],[134.2739,-32.6172],[135.989,-34.8901],[136.3721,-34.0948],[138.1207,-35.6123],[139.5741,-36.1384],[140.6386,-38.0193],[143.61,-38.8095],[144.4857,-38.0853],[146.3179,-39.0358],[148.3046,-37.8091],[149.9973,-37.4253],[150.0752,-36.4202],[151.7091,-33.0413],[152.8916,-31.6404],[153.5695,-28.1101],[153.0929,-27.2603],[152.8552,-25.2675],[150.8996,-23.4622],[150.7273,-22.4024],[149.6783,-22.3425],[148.8484,-20.3912],[146.3875,-18.9583],[145.637,-16.7849],[145.3747,-14.985],[144.5637,-14.1712],[143.9221,-14.5483],[143.5221,-12.8344],[142.5153,-10.6682],[141.687,-12.4076],[141.5199,-13.6981],[141.7022,-15.0449],[140.8755,-17.3691],[140.2152,-17.7108],[139.2606,-17.3716],[135.4287,-14.7154],[136.9516,-12.352],[136.4925,-11.8572],[135.2985,-12.2486],[133.5508,-11.7865],[131.2235,-12.1836],[130.6178,-12.5364],[129.4096,-14.4207],[128.3597,-14.8692],[127.0659,-13.818],[125.6858,-14.2307],[123.8171,-16.1113],[122.3128,-17.255],[122.2417,-18.1976],[120.8562,-19.6837],[119.2525,-19.9529],[117.4415,-20.7469],[116.7116,-20.7017],[114.6478,-21.8295],[113.8434,-23.06],[113.3935,-24.3848],[113.441,-25.6213],[114.1736,-28.1181],[115.04,-29.4611],[115.1609,-30.6016],[115.8016,-32.2051],[115.0268,-34.1965],[116.6251,-35.0251],[118.025,-35.0647],[119.8937,-33.9761],[123.6597,-33.8902],[124.2216,-32.9595],[126.1487,-32.216]]]]},"properties":{"iso-a3":"AUS","name":"Australia"}},
{"type":"Feature","geometry":{"type":"Polygon","coordinates":[[[81.788,7.5231],[80.8388,9.2684],[80.1478,9.8241],[79.6952,8.2008],[79.8725,6.7635],[80.3484,5.9684],[81.6373,6.4818],[81.788,7.5231]]]},"properties":{"iso-a3":"LKA","name":"Sri Lanka"}},
{"type":"Feature","geometry":{"type":"MultiPolygon","coordinates":[[[[109.4752,18.1977],[110.3392,18.6784],[111.0101,19.6959],[110.2116,20.1013],[108.6262,19.3679],[108.6552,18.5077],[109.4752,18.1977]]],[[[80.26,42.35],[78.1872,41.1853],[76.9045,41.0665],[73.8222,39.894],[73.6754,39.4312],[73.9289,38.5058],[74.8648,38.3788],[74.98,37.42],[75.158,37.133],[76.1928,35.8984],[77.8375,35.494],[78.9123,34.3219],[78.4584,32.6182],[78.7389,31.5159],[81.1113,30.1835],[82.3275,30.1153],[84.2346,28.8399],[85.8233,28.2036],[88.1204,27.8765],[88.8142,27.2993],[90.0158,28.2964],[91.6967,27.7717],[92.5031,27.8969],[94.566,29.2774],[96.1177,29.4528],[97.3271,28.2616],[98.6827,27.5088],[98.6718,25.9187],[97.7246,25.0836],[97.6047,23.8974],[98.6603,24.0633],[99.2409,22.1183],[101.18,21.4366],[102.1704,22.4648],[104.4769,22.8192],[105.3292,23.3521],[106.7254,22.7943],[107.0434,21.8119],[108.0502,21.5524],[109.8645,21.3951],[111.8436,21.5505],[115.8907,22.7829],[118.6569,24.5474],[119.5855,25.7408],[121.1257,28.1357],[121.6844,28.2255],[122.0921,29.8325],[121.2643,30.6763],[121.9081,31.6922],[120.6204,33.3767],[120.2275,34.3603],[119.1512,34.9099],[122.3579,37.4545],[120.8235,37.8704],[119.7028,37.1564],[118.0597,38.0615],[117.5327,38.7376],[119.0235,39.2523],[119.6396,39.8981],[121.6404,40.9464],[121.3768,39.7503],[122.1314,39.1705],[124.2656,39.9285],[126.182,41.1073],[126.8691,41.8166],[129.5967,42.425],[130.64,42.395],[131.1447,42.93],[131.0252,44.968],[133.0971,45.1441],[135.0263,48.4782],[132.5067,47.789],[130.9873,47.7901],[130.5823,48.7297],[129.3978,49.4406],[127.6574,49.7603],[125.9463,52.7928],[123.5715,53.4588],[121.0031,53.2514],[120.7382,51.9641],[117.8792,49.511],[116.6788,49.8885],[115.4853,48.1354],[117.2955,47.6977],[118.0641,48.0667],[119.7728,47.0481],[117.4217,46.6727],[115.9851,45.7272],[113.4639,44.8089],[111.8733,45.1021],[111.8296,43.7431],[109.2436,42.5194],[106.1293,42.1343],[104.965,41.5974],[101.833,42.5149],[99.5158,42.5247],[96.3494,42.7256],[95.3069,44.2413],[93.4807,44.9755],[90.9455,45.2861],[90.9708,46.8881],[90.2808,47.6935],[88.8543,48.0691],[87.7513,49.2972],[87.36,49.215],[85.7682,48.4558],[85.1643,47.001],[83.1805,47.33],[82.4589,45.5397],[79.9661,44.9175],[80.8662,43.1804],[80.26,42.35]]]]},"properties":{"iso-a3":"CHN","name":"China"}},
{"type":"Feature","geometry":{"type":"Polygon","coordinates":[[[121.7778,24.3943],[121.495,25.2955],[120.1062,23.5563],[120.7471,21.9706],[121.7778,24.3943]]]},"properties":{"iso-a3":"TWN","name":"Taiwan"}},
{"type":"Feature","geometry":{"type":"MultiPolygon","coordinates":[[[[10.4427,46.8935],[7.756,45.8245],[6.8436,45.9911],[6.75,45.0285],[7.4352,43.6938],[8.8889,44.3663],[10.2,43.92],[10.5119,42.9315],[12.1067,41.7045],[13.628,41.1883],[15.4136,40.0484],[16.4487,39.7954],[17.5192,40.8771],[15.8893,41.5411],[14.0298,42.761],[12.5892,44.0914],[12.3286,45.3818],[13.9376,45.591],[13.8065,46.5093],[12.1531,47.1154],[10.4427,46.8935]]],[[[14.7612,38.1439],[12.5709,38.1264],[12.431,37.613],[15.1,36.62],[14.7612,38.1439]]],[[[8.71,40.9],[8.4283,39.1718],[9.6695,39.1774],[9.81,40.5],[8.71,40.9]]]]},"properties":{"iso-a3":"ITA","name":"Italy"}},
{"type":"Feature","geometry":{"type":"Polygon","coordinates":[[[9.9219,54.9831],[10.25,56.89],[8.09,56.54],[8.5262,54.9627],[9.9219,54.9831]]]},"properties":{"iso-a3":"DNK","name":"Denmark"}},
{"type":"Feature","geometry":{"type":"MultiPolygon","coordinates":[[[[-6.1979,53.8676],[-5.6619,54.5546],[-7.5722,55.1316],[-7.5722,54.06],[-6.1979,53.8676]]],[[[-3.0938,53.4045],[-4.58,53.495],[-5.2673,51.9914],[-3.6174,50.2284],[0.5503,50.7657],[1.6815,52.7395],[0.47,52.93],[-0.4305,54.4644],[-2.085,55.91],[-1.9593,57.6848],[-3.005,58.635],[-5.01,58.63],[-6.15,56.785],[-5.5864,55.3111],[-3.63,54.615],[-3.0938,53.4045]]]]},"properties":{"iso-a3":"GBR","name":"United Kingdom"}},
{"type":"Feature","geometry":{"type":"Polygon","coordinates":[[[-14.5087,66.4559],[-20.5763,65.7321],[-23.6505,66.2625],[-23.955,64.8911],[-22.763,63.9602],[-18.6562,63.4964],[-14.9098,64.3641],[-13.6097,65.1267],[-14.5087,66.4559]]]},"properties":{"iso-a3":"ISL","name":"Iceland"}},
{"type":"Feature","geometry":{"type":"Polygon","coordinates":[[[46.405,41.8607],[44.9725,41.2481],[46.4835,39.4642],[46.5057,38.7706],[47.6851,39.5084],[48.8832,38.3202],[49.6189,40.5729],[48.5844,41.8089],[47.8157,41.1514],[46.405,41.8607]]]},"properties":{"iso-a3":"AZE","name":"Azerbaijan"}},
{"type":"Feature","geometry":{"type":"Polygon","coordinates":[[[39.955,43.435],[41.4535,42.6451],[41.5541,41.5357],[43.5827,41.0921],[44.9725,41.2481],[46.405,41.8607],[45.4703,42.5028],[42.3944,43.2203],[39.955,43.435]]]},"properties":{"iso-a3":"GEO","name":"Georgia"}},
{"type":"Feature","geometry":{"type":"MultiPolygon","coordinates":[[[[122.5861,9.981],[122.9959,9.0222],[123.9824,10.2788],[124.0779,11.2327],[122.9474,10.8819],[122.5861,9.981]]],[[[126.3768,8.4147],[126.2227,9.2861],[123.4877,8.693],[122.3124,8.035],[123.2961,7.4189],[124.2198,6.1614],[125.3965,5.581],[125.3639,6.7865],[126.5374,7.1894],[126.3768,8.4147]]],[[[122.337,18.2249],[120.7159,18.5052],[120.39,17.5991],[120.0704,14.9709],[121.1264,13.6367],[122.0347,13.7845],[122.6714,13.1858],[123.9503,13.7821],[122.7013,14.3365],[121.7288,14.3284],[121.6628,15.931],[122.5157,17.0935],[122.337,18.2249]]]]},"properties":{"iso-a3":"PHL","name":"Philippines"}},
{"type":"Feature","geometry":{"type":"MultiPolygon","coordinates":[[[[100.0858,6.4645],[100.1967,5.3125],[101.3906,2.7608],[103.5197,1.2263],[104.2288,1.293],[103.5024,2.791],[103.3812,4.855],[102.1412,6.2216],[101.8143,5.8108],[100.0858,6.4645]]],[[[117.882,4.1376],[118.6183,4.4782],[119.1819,5.4078],[117.6891,5.9875],[116.7251,6.9248],[115.4507,5.4477],[115.3475,4.3166],[114.204,4.5259],[112.9956,3.1024],[111.3701,2.6973],[111.1689,1.8506],[109.6633,2.0065],[110.5141,0.7731],[111.7975,0.9044],[112.8598,1.4978],[114.6214,1.4307],[115.8655,4.3066],[117.882,4.1376]]]]},"properties":{"iso-a3":"MYS","name":"Malaysia"}},
{"type":"Feature","geometry":{"type":"Polygon","coordinates":[[[115.4507,5.4477],[114.204,4.5259],[115.3475,4.3166],[115.4507,5.4477]]]},"properties":{"iso-a3":"BRN","name":"Brunei"}},
{"type":"Feature","geometry":{"type":"Polygon","coordinates":[[[13.8065,46.5093],[13.9376,45.591],[13.7151,45.5003],[15.3277,45.4523],[16.5648,46.5038],[16.2023,46.8524],[13.8065,46.5093]]]},"properties":{"iso-a3":"SVN","name":"Slovenia"}},
{"type":"Feature","geometry":{"type":"Polygon","coordinates":[[[28.5919,69.0648],[26.1796,69.8253],[24.7357,68.6496],[20.6456,69.1062],[23.5395,67.936],[23.9034,66.0069],[25.3981,65.1114],[22.4427,63.8178],[21.0592,62.6074],[21.3222,60.7202],[22.8697,59.8464],[28.07,60.5035],[31.14,62.3577],[30.0359,63.5528],[29.5444,64.9487],[30.2177,65.806],[29.0546,66.9443],[29.9774,67.6983],[28.5919,69.0648]]]},"properties":{"iso-a3":"FIN","name":"Finland"}},
{"type":"Feature","geometry":{"type":"Polygon","coordinates":[[[22.5581,49.0857],[21.6078,49.4701],[19.825,49.2171],[18.8531,49.4962],[16.9603,48.597],[16.9797,48.1235],[17.8571,47.7584],[20.8013,48.6239],[22.0856,48.4223],[22.5581,49.0857]]]},"properties":{"iso-a3":"SVK","name":"Slovakia"}},
{"type":"Feature","geometry":{"type":"Polygon","coordinates":[[[15.017,51.1067],[12.2401,50.2663],[13.5959,48.8772],[15.2534,49.0391],[16.9603,48.597],[18.8531,49.4962],[17.5546,50.3621],[15.017,51.1067]]]},"properties":{"iso-a3":"CZE","name":"Czechia"}},
{"type":"Feature","geometry":{"type":"Polygon","coordinates":[[[36.4295,14.4221],[37.5938,14.2131],[39.0994,14.7406],[40.8966,14.1186],[42.3516,12.5422],[43.0812,12.6996],[41.1793,14.4911],[39.2661,15.9227],[38.4101,17.9983],[36.8525,16.9566],[36.4295,14.4221]]]},"properties":{"iso-a3":"ERI","name":"Eritrea"}},
{"type":"Feature","geometry":{"type":"MultiPolygon","coordinates":[[[[141.8846,39.1809],[141.369,41.3786],[139.8834,40.5633],[140.0548,39.4388],[139.4264,38.216],[137.3906,36.8274],[136.7238,37.305],[135.6775,35.5271],[134.6083,35.7316],[132.6177,35.4334],[129.4085,33.2961],[131.3328,31.4504],[132.1568,33.9049],[133.3403,34.3759],[135.0794,34.5965],[135.793,33.4648],[137.2176,34.6063],[138.9755,34.6676],[140.2533,35.1381],[140.7741,35.8429],[140.9595,38.174],[141.8846,39.1809]]],[[[144.6134,43.9609],[143.1429,44.5104],[141.9676,45.5515],[141.3805,43.3888],[140.3121,43.3333],[139.9551,41.5696],[141.0673,41.5846],[141.6115,42.6788],[143.1839,41.9952],[144.6134,43.9609]]],[[[132.3712,33.4636],[134.2034,33.2012],[133.9041,34.3649],[132.3712,33.4636]]]]},"properties":{"iso-a3":"JPN","name":"Japan"}},
{"type":"Feature","geometry":{"type":"Polygon","coordinates":[[[-58.1664,-20.1767],[-59.115,-19.3569],[-61.7863,-19.6337],[-62.266,-20.5137],[-62.6851,-22.249],[-60.8466,-23.8807],[-60.029,-24.0328],[-57.7772,-25.1623],[-57.6337,-25.6037],[-58.6182,-27.1237],[-56.4867,-27.5485],[-54.7888,-26.6218],[-54.6253,-25.7393],[-54.2935,-24.5708],[-55.4007,-23.9569],[-55.6107,-22.6556],[-56.4733,-22.0863],[-57.9372,-22.0902],[-58.1664,-20.1767]]]},"properties":{"iso-a3":"PRY","name":"Paraguay"}},
{"type":"Feature","geometry":{"type":"Polygon","coordinates":[[[52,19],[49.1167,18.6167],[48.1833,18.1667],[47,16.95],[45.2167,17.4333],[43.3808,17.58],[42.7793,16.3479],[42.7024,15.7189],[43.483,12.6368],[44.9895,12.6996],[45.6251,13.2909],[48.6792,14.0032],[49.5746,14.7088],[52.1682,15.5974],[53.1086,16.6511],[52,19]]]},"properties":{"iso-a3":"YEM","name":"Yemen"}},
{"type":"Feature","geometry":{"type":"Polygon","coordinates":[[[34.956,29.3566],[35.1302,28.0634],[36.9316,25.603],[37.4836,24.2855],[38.4928,23.6885],[39.0663,22.5797],[39.1394,21.2919],[39.8017,20.3389],[40.9393,19.4865],[41.7544,17.833],[42.7793,16.3479],[43.3808,17.58],[45.2167,17.4333],[47,16.95],[48.1833,18.1667],[49.1167,18.6167],[52,19],[55,20],[55.6667,22],[55.2083,22.7083],[55.0068,22.4969],[52.0007,23.0012],[51.5795,24.2455],[51.3896,24.6274],[50.8101,24.7547],[50.1133,25.944],[50.1524,26.6897],[48.8076,27.6896],[48.4161,28.552],[46.5687,29.099],[44.7095,29.1789],[41.89,31.19],[39.1955,32.161],[37.0022,31.5084],[37.9988,30.5085],[36.0689,29.1975],[34.956,29.3566]]]},"properties":{"iso-a3":"SAU","name":"Saudi Arabia"}},
{"type":"Feature","geometry":{"type":"MultiPolygon","coordinates":[[[[-48.6606,-78.047],[-51.8531,-79.9477],[-50.4821,-81.0254],[-43.3333,-80.0261],[-43.9208,-78.4781],[-48.6606,-78.047]]],[[[-73.9158,-71.2693],[-74.19,-72.3667],[-68.7843,-72.1707],[-68.4513,-70.9558],[-69.7244,-69.251],[-71.7418,-69.5058],[-72.0747,-71.191],[-73.9158,-71.2693]]],[[[180,-84.7134],[162.491,-82.0623],[159.7882,-80.9454],[161.7664,-79.1622],[166.9958,-78.7507],[163.4899,-77.0656],[164.2342,-75.4588],[166.0948,-74.381],[169.2873,-73.656],[171.2068,-71.6965],[168.4256,-70.9715],[162.6869,-70.7364],[159.181,-69.5998],[154.2846,-68.5613],[152.5022,-68.8748],[146.6461,-67.8951],[145.4904,-66.9153],[143.0618,-66.7978],[137.4603,-66.9546],[135.8738,-66.0336],[130.7815,-66.4255],[128.8033,-66.7586],[122.3204,-66.5627],[120.871,-67.1897],[115.6024,-66.6998],[113.6047,-65.8768],[110.2358,-66.6998],[106.1816,-66.9349],[102.8324,-65.5633],[99.7182,-67.2485],[95.0176,-67.1701],[90.6304,-67.2289],[87.477,-66.8762],[82.7764,-67.2093],[79.1139,-68.3262],[77.6449,-69.4627],[73.8649,-69.8742],[71.0249,-72.0884],[67.9499,-71.8533],[68.9292,-71.0695],[67.8127,-70.3053],[69.5559,-69.6782],[68.89,-67.9343],[64.0523,-67.4052],[62.3875,-68.0127],[58.7445,-67.2877],[56.355,-65.9748],[52.6141,-66.0532],[46.5033,-67.6012],[40.0204,-69.1099],[38.6494,-69.7762],[33.8704,-68.5026],[32.7541,-69.3843],[27.0937,-70.4621],[23.6662,-70.5208],[19.2594,-69.8938],[13.4228,-69.9722],[10.8178,-70.8343],[9.5251,-70.0113],[7.1357,-70.2465],[0.8682,-71.3046],[-1.7955,-71.1674],[-7.4166,-71.6965],[-10.2958,-71.2654],[-13.312,-72.7155],[-15.4469,-73.1465],[-15.7015,-74.4986],[-21.2247,-75.9095],[-28.8828,-76.6737],[-35.777,-78.3392],[-35.6399,-79.4561],[-29.6858,-79.2602],[-28.5498,-80.3379],[-40.7714,-81.3569],[-42.8084,-82.0819],[-49.7613,-81.7292],[-57.0081,-82.8657],[-63.256,-81.7488],[-75.3601,-80.2595],[-77.9259,-78.3784],[-73.6561,-77.9081],[-77.2404,-76.7129],[-70.6007,-76.6345],[-61.9634,-74.4398],[-60.6903,-73.1662],[-61.5129,-71.089],[-63.1973,-69.2276],[-65.5084,-67.5816],[-63.7457,-66.5038],[-62.1201,-66.1903],[-63.0014,-64.6423],[-66.0568,-66.21],[-67.7412,-67.3268],[-67.4278,-68.1498],[-68.4855,-70.1093],[-67.2515,-71.6377],[-68.9359,-73.0094],[-76.2219,-73.9695],[-77.9259,-73.4209],[-81.4709,-73.852],[-88.424,-73.0094],[-96.3366,-73.6168],[-100.3125,-72.7547],[-103.6813,-72.6175],[-103.1133,-73.7344],[-101.2527,-74.1851],[-100.6455,-75.302],[-104.8761,-74.9493],[-107.5593,-75.1845],[-113.9443,-73.7148],[-116.2163,-74.2439],[-125.4021,-74.5182],[-128.242,-74.3223],[-135.2146,-74.3027],[-144.322,-75.5372],[-146.1044,-76.4778],[-151.3338,-77.3987],[-156.9746,-77.3008],[-158.0518,-78.0257],[-155.3294,-79.0643],[-149.5319,-79.3582],[-147.2207,-80.671],[-152.8615,-82.0427],[-153.5862,-83.6887],[-142.8923,-84.5705],[-148.5331,-85.609],[-167.0221,-84.5705],[-180,-84.7134],[-180,-90],[180,-90],[180,-84.7134]]]]},"properties":{"iso-a3":"ATA","name":"Antarctica"}},
{"type":"Feature","geometry":{"type":"Polygon","coordinates":[[[32.7318,35.14],[33.9736,35.0585],[33.6672,35.3732],[32.7318,35.14]]]},"properties":{"iso-a3":"-99","name":"Northern Cyprus"}},
{"type":"Feature","geometry":{"type":"Polygon","coordinates":[[[32.7318,35.14],[32.9798,34.5719],[33.9736,35.0585],[32.7318,35.14]]]},"properties":{"iso-a3":"CYP","name":"Cyprus"}},
{"type":"Feature","geometry":{"type":"Polygon","coordinates":[[[-2.1699,35.1684],[-4.591,35.3307],[-5.93,35.76],[-6.9125,34.1105],[-8.6575,33.2402],[-9.8147,31.1777],[-9.5648,29.9336],[-11.6889,28.1486],[-12.6188,28.0382],[-13.7738,26.6189],[-14.4399,26.2544],[-15.0893,24.5203],[-15.9826,23.7234],[-17.0204,21.4223],[-14.751,21.5006],[-13.8911,23.691],[-12.501,24.7701],[-12.0308,26.0309],[-11.3926,26.8834],[-9.7353,26.8609],[-8.6656,27.6564],[-8.6741,28.8413],[-7.0592,29.5792],[-5.2421,30.0004],[-3.6904,30.897],[-3.6475,31.6373],[-1.3079,32.2629],[-2.1699,35.1684]]]},"properties":{"iso-a3":"MAR","name":"Morocco"}},
{"type":"Feature","geometry":{"type":"Polygon","coordinates":[[[36.8662,22],[35.526,23.1024],[35.6924,23.9267],[34.1046,26.1423],[33.3488,27.6999],[34.4266,28.344],[34.8232,29.7611],[34.2654,31.2194],[32.9939,31.0241],[30.9769,31.5559],[28.9135,30.8701],[26.4953,31.5857],[25.1648,31.5692],[24.7001,30.0442],[25,29.2387],[25,25.6825],[25,22],[29.02,22],[32.9,22],[36.8662,22]]]},"properties":{"iso-a3":"EGY","name":"Egypt"}},
{"type":"Feature","geometry":{"type":"Polygon","coordinates":[[[25,22],[25,25.6825],[25,29.2387],[24.7001,30.0442],[25.1648,31.5692],[23.2368,32.1915],[22.8958,32.6386],[20.8545,32.7068],[19.8203,31.7518],[20.0533,30.9858],[19.0864,30.2664],[15.7139,31.3763],[15.2456,32.2651],[11.4888,33.137],[11.4323,32.3689],[9.9502,31.3761],[9.4821,30.3076],[9.86,28.96],[9.7163,26.5122],[9.3194,26.0943],[10.3038,24.3793],[10.7714,24.5625],[11.9995,23.4717],[14.8513,22.863],[15.8609,23.4097],[19.8493,21.4951],[23.8377,19.5805],[25,20.003],[25,22]]]},"properties":{"iso-a3":"LBY","name":"Libya"}},
{"type":"Feature","geometry":{"type":"Polygon","coordinates":[[[47.7894,8.003],[46.9483,7.9969],[43.6788,9.1836],[42.5588,10.5726],[42.7769,10.9269],[41.6618,11.6312],[42.3516,12.5422],[40.8966,14.1186],[39.0994,14.7406],[37.5938,14.2131],[36.4295,14.4221],[35.8636,12.5783],[34.2575,10.6301],[33.975,8.6846],[33.2948,8.3546],[35.298,5.506],[36.1591,4.4479],[36.8551,4.4479],[38.1209,3.5986],[39.5594,3.4221],[40.7685,4.257],[41.8551,3.9189],[43.6609,4.9576],[44.9636,5.0016],[47.7894,8.003]]]},"properties":{"iso-a3":"ETH","name":"Ethiopia"}},
{"type":"Feature","geometry":{"type":"Polygon","coordinates":[[[42.3516,12.5422],[41.6618,11.6312],[42.7769,10.9269],[43.1453,11.462],[43.0812,12.6996],[42.3516,12.5422]]]},"properties":{"iso-a3":"DJI","name":"Djibouti"}},
{"type":"Feature","geometry":{"type":"Polygon","coordinates":[[[48.9482,11.4106],[46.6454,10.8165],[44.1178,10.4455],[43.1453,11.462],[42.7769,10.9269],[42.5588,10.5726],[43.6788,9.1836],[46.9483,7.9969],[47.7894,8.003],[48.9381,9.4517],[48.9482,11.4106]]]},"properties":{"iso-a3":"-99","name":"Somaliland"}},
{"type":"Feature","geometry":{"type":"Polygon","coordinates":[[[33.9037,-0.95],[33.8936,0.1098],[35.036,1.9058],[34.005,4.2499],[33.39,3.79],[30.8339,3.5092],[30.7733,2.3399],[29.8758,0.5974],[29.5795,-1.3413],[30.4191,-1.1347],[33.9037,-0.95]]]},"properties":{"iso-a3":"UGA","name":"Uganda"}},
{"type":"Feature","geometry":{"type":"Polygon","coordinates":[[[30.4191,-1.1347],[29.5795,-1.3413],[29.0249,-2.8393],[30.4697,-2.4139],[30.4191,-1.1347]]]},"properties":{"iso-a3":"RWA","name":"Rwanda"}},
{"type":"Feature","geometry":{"type":"Polygon","coordinates":[[[18.56,42.65],[19.2185,43.5238],[19.0055,44.8602],[15.9594,45.2338],[15.75,44.8187],[17.6749,43.0286],[18.56,42.65]]]},"properties":{"iso-a3":"BIH","name":"Bosnia and Herzegovina"}},
{"type":"Feature","geometry":{"type":"Polygon","coordinates":[[[22.3805,42.3203],[21.5766,42.2452],[20.5902,41.8554],[21.02,40.8427],[22.9524,41.338],[22.3805,42.3203]]]},"properties":{"iso-a3":"MKD","name":"North Macedonia"}},
{"type":"Feature","geometry":{"type":"Polygon","coordinates":[[[18.8298,45.9089],[19.0055,44.8602],[19.2185,43.5238],[20.2576,42.8128],[21.5766,42.2452],[22.3805,42.3203],[22.986,43.2112],[22.6572,44.2349],[21.562,44.7689],[20.2202,46.1275],[18.8298,45.9089]]]},"properties":{"iso-a3":"SRB","name":"Republic of Serbia"}},
{"type":"Feature","geometry":{"type":"Polygon","coordinates":[[[20.0707,42.5886],[20.2576,42.8128],[19.2185,43.5238],[18.56,42.65],[18.45,42.48],[19.3718,41.8776],[20.0707,42.5886]]]},"properties":{"iso-a3":"MNE","name":"Montenegro"}},
{"type":"Feature","geometry":{"type":"Polygon","coordinates":[[[20.5902,41.8554],[21.5766,42.2452],[20.2576,42.8128],[20.0707,42.5886],[20.5902,41.8554]]]},"properties":{"iso-a3":"-99","name":"Kosovo"}},
{"type":"Feature","geometry":{"type":"Polygon","coordinates":[[[-61.68,10.76],[-61.77,10],[-60.935,10.11],[-60.895,10.855],[-61.68,10.76]]]},"properties":{"iso-a3":"TTO","name":"Trinidad and Tobago"}},
{"type":"Feature","geometry":{"type":"Polygon","coordinates":[[[30.8339,3.5092],[33.39,3.79],[34.005,4.2499],[35.298,5.506],[33.2948,8.3546],[33.975,8.6846],[33.722,10.3253],[33.2069,10.7201],[33.2069,12.1793],[31.3529,9.8102],[29.9966,10.2909],[28.9666,9.3982],[26.4773,9.5527],[25.7906,10.4111],[25.0696,10.2738],[24.5674,8.2292],[27.3742,5.2339],[28.429,4.2872],[29.716,4.6008],[30.8339,3.5092]]]},"properties":{"iso-a3":"SSD","name":"South Sudan"}}
]}