{"type":"FeatureCollection","features":[{"type":"Feature","geometry":{"type":"MultiPolygon","coordinates":[[[[92.5158,10.8976],[92.4925,10.8892],[92.4794,10.8714],[92.4586,10.8631],[92.4574,10.84],[92.4311,10.8218],[92.4131,10.7889],[92.3761,10.7817],[92.3825,10.7197],[92.381,10.6665],[92.395,10.6664],[92.4083,10.6486],[92.4206,10.6147],[92.4097,10.5833],[92.3842,10.5439],[92.4017,10.5314],[92.4186,10.5472],[92.4347,10.5483],[92.4622,10.5361],[92.499,10.5112],[92.5314,10.5184],[92.5337,10.5281],[92.5683,10.5761],[92.5444,10.5933],[92.5403,10.6136],[92.5527,10.6378],[92.5789,10.6582],[92.5759,10.6708],[92.5976,10.6831],[92.5974,10.7063],[92.5828,10.7425],[92.5877,10.7869],[92.5614,10.8119],[92.5583,10.8633],[92.5158,10.8976]]],[[[92.6415,11.5101],[92.632,11.5145],[92.6163,11.4851],[92.6111,11.4586],[92.6236,11.4408],[92.6225,11.4045],[92.5879,11.4013],[92.5925,11.3806],[92.5812,11.3667],[92.5994,11.3468],[92.6384,11.3465],[92.6906,11.3699],[92.6924,11.3879],[92.6641,11.395],[92.6851,11.4333],[92.6682,11.4904],[92.6415,11.5101]]],[[[92.2189,11.5923],[92.2081,11.5478],[92.2169,11.5288],[92.2503,11.5258],[92.2746,11.5349],[92.2699,11.5849],[92.2189,11.5923]]],[[[92.5398,11.6033],[92.532,11.5951],[92.5375,11.5612],[92.5534,11.5617],[92.5667,11.5921],[92.5398,11.6033]]],[[[93.0208,11.8433],[93.0173,11.8307],[93.05,11.8122],[93.0722,11.8356],[93.0633,11.8448],[93.0325,11.8367],[93.0208,11.8433]]],[[[92.9695,12.0337],[92.9507,12.0131],[92.9308,12.0056],[92.9339,11.985],[92.9608,11.9797],[92.9734,11.9492],[92.9884,11.95],[93.0225,11.9009],[93.046,11.884],[93.0538,11.8962],[93.0374,11.9475],[93.0083,11.9981],[93.0033,12.0292],[92.9828,12.0434],[92.9695,12.0337]]],[[[92.9914,12.1089],[92.9597,12.1072],[92.9618,12.0722],[92.9904,12.0443],[92.9986,12.0464],[93.0033,12.105],[92.9914,12.1089]]],[[[93.0278,12.1569],[92.9933,12.1408],[92.9633,12.1508],[92.9623,12.1228],[93.0061,12.1081],[93.007,12.0758],[93.025,12.07],[93.0416,12.0457],[93.0536,12.0756],[93.0356,12.0978],[93.0278,12.1569]]],[[[93.0686,12.2113],[93.0564,12.1914],[93.0374,12.1345],[93.07,12.0872],[93.0922,12.1069],[93.094,12.1484],[93.0855,12.1952],[93.0686,12.2113]]],[[[92.7009,12.2356],[92.6894,12.2353],[92.6457,12.1792],[92.6236,12.1028],[92.6195,12.0708],[92.6256,12.0619],[92.6131,12.0066],[92.6115,11.9404],[92.606,11.9234],[92.611,11.8713],[92.5861,11.8885],[92.5784,11.9272],[92.5654,11.9432],[92.5426,11.9232],[92.5264,11.895],[92.5249,11.8717],[92.5135,11.848],[92.5247,11.8261],[92.5456,11.828],[92.5561,11.7727],[92.5523,11.7213],[92.5874,11.7173],[92.5992,11.6899],[92.5952,11.6652],[92.6081,11.6345],[92.6074,11.5948],[92.6506,11.5518],[92.6462,11.5236],[92.6639,11.5066],[92.6983,11.507],[92.7091,11.4883],[92.7279,11.5176],[92.7301,11.5578],[92.7529,11.6096],[92.7562,11.6657],[92.7449,11.6755],[92.7161,11.6659],[92.6905,11.6318],[92.6687,11.6332],[92.6987,11.6657],[92.702,11.692],[92.7182,11.706],[92.7549,11.7174],[92.7869,11.8717],[92.7789,11.8921],[92.7877,11.9256],[92.7771,11.9384],[92.7466,11.9321],[92.7317,11.8991],[92.716,11.9508],[92.7259,11.9742],[92.7572,11.9884],[92.7617,12.0206],[92.7757,12.0309],[92.7516,12.071],[92.7353,12.0888],[92.7375,12.1113],[92.7555,12.1543],[92.7572,12.1756],[92.7367,12.1822],[92.7155,12.1683],[92.7063,12.2284],[92.7009,12.2356]]],[[[92.7306,12.2425],[92.7223,12.2283],[92.7234,12.1888],[92.7637,12.1822],[92.7681,12.2014],[92.7623,12.2294],[92.7306,12.2425]]],[[[92.9017,12.2558],[92.8697,12.2381],[92.9144,12.2304],[92.9017,12.2558]]],[[[92.7114,12.2961],[92.7015,12.2674],[92.7125,12.2467],[92.7234,12.2951],[92.7114,12.2961]]],[[[92.9414,12.2808],[92.9138,12.2926],[92.9016,12.2808],[92.9227,12.2595],[92.9414,12.2808]]],[[[92.7766,12.3103],[92.7817,12.2851],[92.7423,12.2455],[92.7684,12.2277],[92.7691,12.2022],[92.7654,12.1765],[92.7395,12.099],[92.7393,12.0846],[92.765,12.0633],[92.793,12.0828],[92.7986,12.1086],[92.8365,12.1672],[92.8487,12.1624],[92.8534,12.2038],[92.8751,12.1931],[92.8719,12.2267],[92.8594,12.2469],[92.8876,12.2588],[92.8697,12.3008],[92.83,12.3004],[92.8095,12.3128],[92.7926,12.3045],[92.7766,12.3103]]],[[[93.8397,12.3208],[93.8242,12.3075],[93.8148,12.2853],[93.8267,12.2449],[93.8405,12.2369],[93.8807,12.2366],[93.8724,12.2678],[93.8781,12.2817],[93.8577,12.2931],[93.8397,12.3208]]],[[[92.8529,12.4088],[92.8484,12.3943],[92.8669,12.3778],[92.8899,12.3913],[92.873,12.4055],[92.8529,12.4088]]],[[[92.9554,12.4147],[92.9329,12.419],[92.9189,12.365],[92.9323,12.3594],[92.9429,12.4005],[92.9554,12.4147]]],[[[92.711,12.829],[92.6945,12.7975],[92.7134,12.7735],[92.711,12.829]]],[[[92.8989,12.9158],[92.8918,12.8954],[92.8747,12.8819],[92.8448,12.8751],[92.8417,12.8756],[92.8402,12.8783],[92.8431,12.886],[92.8397,12.8913],[92.8341,12.8855],[92.8279,12.886],[92.8243,12.8953],[92.7922,12.8901],[92.7932,12.863],[92.7714,12.8635],[92.7381,12.8295],[92.7244,12.828],[92.7211,12.7881],[92.7312,12.7432],[92.7415,12.7245],[92.7445,12.6712],[92.7152,12.6364],[92.7069,12.5931],[92.7089,12.5567],[92.6943,12.5148],[92.7083,12.4916],[92.701,12.4703],[92.7065,12.452],[92.6981,12.421],[92.7008,12.3368],[92.7191,12.3009],[92.7479,12.3],[92.7719,12.3181],[92.7954,12.3062],[92.8091,12.3149],[92.8324,12.3026],[92.8865,12.3233],[92.874,12.3533],[92.8381,12.3981],[92.8294,12.4286],[92.878,12.4177],[92.8967,12.4298],[92.9153,12.4121],[92.9236,12.436],[92.9497,12.4644],[92.9755,12.5419],[92.9616,12.5778],[92.9561,12.6081],[92.9652,12.681],[92.9631,12.6985],[92.9769,12.7182],[92.9644,12.7291],[92.9601,12.755],[92.939,12.7678],[92.9345,12.7816],[92.9541,12.8075],[92.9442,12.8267],[92.9283,12.8833],[92.909,12.8831],[92.9104,12.9086],[92.8989,12.9158]]],[[[92.6957,12.992],[92.6851,12.9877],[92.6701,12.9517],[92.6798,12.9411],[92.6682,12.9186],[92.6645,12.8806],[92.6493,12.8606],[92.6537,12.8378],[92.6718,12.7942],[92.689,12.8167],[92.6898,12.8345],[92.7145,12.8628],[92.7215,12.8883],[92.7193,12.9794],[92.6957,12.992]]],[[[93.0067,12.9969],[92.9792,12.9797],[92.9611,12.9897],[92.9598,12.9553],[92.9728,12.9548],[92.9928,12.9858],[93.0067,12.9969]]],[[[93.0294,13.5733],[93.0155,13.5499],[92.9931,13.5661],[92.9647,13.5444],[92.9186,13.5369],[92.9294,13.5017],[92.9037,13.4972],[92.9006,13.4778],[92.8767,13.475],[92.8736,13.4464],[92.8842,13.4297],[92.8722,13.4156],[92.8453,13.4086],[92.8528,13.3869],[92.8364,13.3669],[92.8267,13.3067],[92.8419,13.3011],[92.8225,13.2772],[92.8497,13.2392],[92.8278,13.2367],[92.8317,13.2139],[92.8097,13.1531],[92.8419,13.1461],[92.8111,13.1272],[92.82,13.1011],[92.7967,13.0894],[92.7908,13.0122],[92.8189,13.0006],[92.814,12.9834],[92.7929,12.98],[92.7927,12.9523],[92.8011,12.9359],[92.7942,12.9144],[92.8015,12.9008],[92.8435,12.891],[92.8439,12.8856],[92.8413,12.8772],[92.843,12.8763],[92.8511,12.8786],[92.8576,12.8787],[92.8721,12.8825],[92.8592,12.9031],[92.8572,12.9343],[92.8772,12.9461],[92.8827,12.983],[92.9075,12.9839],[92.9097,12.962],[92.9269,12.9576],[92.9386,12.976],[92.9086,13.0005],[92.9036,13.0219],[92.9163,13.0541],[92.9606,13.0148],[92.9711,13.0295],[93.0063,13.0308],[93.0306,13.0689],[93.036,13.0912],[93.0314,13.1297],[93.0374,13.1389],[93.0322,13.1781],[93.0561,13.2328],[93.0461,13.2592],[93.0133,13.3069],[92.9772,13.3243],[92.9794,13.3356],[93.0033,13.3533],[93.0275,13.3451],[93.0403,13.3222],[93.072,13.3228],[93.0792,13.3414],[93.0628,13.3608],[93.0508,13.4056],[93.0367,13.4194],[93.0332,13.4576],[93.0436,13.5053],[93.0397,13.5472],[93.0294,13.5733]]],[[[93.0158,13.6761],[92.9817,13.6653],[92.9864,13.6428],[93.0147,13.6439],[93.0256,13.6608],[93.0158,13.6761]]],[[[93.3662,14.1564],[93.3537,14.1495],[93.3639,14.0975],[93.3781,14.1208],[93.3662,14.1564]]]]},"properties":{"NAME_1":"Andaman and Nicobar","NAME_2":"Andaman Islands"}},{"type":"Feature","geometry":{"type":"MultiPolygon","coordinates":[[[[93.8481,7.2403],[93.8083,7.2289],[93.8077,7.2149],[93.755,7.2114],[93.7336,7.1872],[93.6861,7.19],[93.6749,7.1765],[93.6758,7.1399],[93.6558,7.1264],[93.6603,7.0864],[93.6703,7.0811],[93.6653,7.0419],[93.6703,7.0131],[93.6993,7.0115],[93.7075,6.9898],[93.723,6.9919],[93.7312,6.9696],[93.7453,6.9619],[93.7522,6.9389],[93.7419,6.925],[93.7628,6.9078],[93.7797,6.8815],[93.7738,6.8641],[93.7944,6.8489],[93.7857,6.8358],[93.8133,6.8078],[93.8067,6.7625],[93.8283,6.7543],[93.8473,6.7798],[93.8532,6.8154],[93.8683,6.815],[93.8851,6.795],[93.8962,6.8049],[93.9088,6.8382],[93.8936,6.8469],[93.9016,6.8811],[93.8972,6.9022],[93.9172,6.9445],[93.9366,6.9624],[93.9221,7.0099],[93.9167,7.0484],[93.9017,7.0775],[93.8878,7.0864],[93.8914,7.1211],[93.88,7.1747],[93.8836,7.1885],[93.8703,7.2158],[93.8514,7.2139],[93.8481,7.2403]]],[[[93.7131,7.4436],[93.7069,7.4378],[93.7075,7.3939],[93.6619,7.3808],[93.6311,7.3617],[93.6361,7.3214],[93.6264,7.3058],[93.6333,7.29],[93.6288,7.2686],[93.6486,7.2425],[93.6697,7.2597],[93.6794,7.2847],[93.725,7.31],[93.7565,7.3744],[93.7247,7.3972],[93.7131,7.4436]]],[[[93.38,8.0247],[93.3547,8.0078],[93.3364,8.0122],[93.3225,7.9931],[93.3242,7.9769],[93.3106,7.9619],[93.3181,7.9431],[93.3478,7.9256],[93.3444,7.9017],[93.3772,7.8817],[93.3975,7.9019],[93.4164,7.9067],[93.4414,7.8989],[93.4617,7.8722],[93.4742,7.8958],[93.4614,7.9358],[93.43,7.9678],[93.4028,7.9745],[93.4097,8.0071],[93.38,8.0247]]],[[[93.5473,8.0281],[93.5425,8.015],[93.5072,7.9853],[93.5739,7.9289],[93.5794,7.9336],[93.5828,7.9917],[93.5636,8.0247],[93.5473,8.0281]]],[[[93.5786,8.1253],[93.5614,8.1186],[93.5717,8.0672],[93.5925,8.0378],[93.5887,8.1094],[93.5786,8.1253]]],[[[93.5265,8.2313],[93.4947,8.2228],[93.4906,8.1989],[93.455,8.1756],[93.4589,8.1244],[93.4833,8.0775],[93.4847,8.0525],[93.5158,8.0839],[93.5272,8.0764],[93.5258,8.0553],[93.4864,8.0367],[93.4919,8],[93.5067,8.0017],[93.5089,8.034],[93.5417,8.0375],[93.5531,8.0664],[93.5483,8.0883],[93.5317,8.0997],[93.5258,8.1194],[93.5044,8.1443],[93.5097,8.1658],[93.5253,8.1714],[93.5447,8.1961],[93.5442,8.225],[93.5265,8.2313]]],[[[93.2353,8.2656],[93.2201,8.2451],[93.2389,8.2208],[93.2519,8.2289],[93.2353,8.2656]]],[[[93.1263,8.3559],[93.0953,8.3403],[93.0853,8.3079],[93.0853,8.2739],[93.1011,8.2461],[93.1233,8.2208],[93.1664,8.1997],[93.1956,8.1931],[93.2056,8.2131],[93.1943,8.225],[93.1543,8.243],[93.1261,8.2772],[93.1311,8.3098],[93.1434,8.3465],[93.1263,8.3559]]],[[[93.616,8.5736],[93.6101,8.5443],[93.6249,8.5151],[93.6267,8.4672],[93.6424,8.4674],[93.6347,8.5244],[93.623,8.5294],[93.616,8.5736]]],[[[92.7878,9.2442],[92.7653,9.2147],[92.7208,9.2136],[92.7197,9.1461],[92.7317,9.1244],[92.7689,9.1276],[92.7887,9.119],[92.8111,9.1239],[92.8241,9.1384],[92.8319,9.1634],[92.8139,9.2203],[92.7878,9.2442]]]]},"properties":{"NAME_1":"Andaman and Nicobar","NAME_2":"Nicobar Islands"}}]}