{"type":"FeatureCollection","features":[{"type":"Feature","geometry":{"type":"Polygon","coordinates":[[[78.8443,19.759],[78.8076,19.758],[78.7849,19.7787],[78.7383,19.7794],[78.7164,19.7668],[78.7018,19.7856],[78.6193,19.8087],[78.6037,19.8175],[78.585,19.8117],[78.5263,19.8217],[78.4939,19.7931],[78.4762,19.8164],[78.4287,19.8231],[78.3977,19.8364],[78.3859,19.8527],[78.3841,19.8792],[78.3363,19.8832],[78.3102,19.9127],[78.2941,19.8496],[78.339,19.8392],[78.3392,19.8135],[78.3605,19.8057],[78.3677,19.7811],[78.3608,19.754],[78.3454,19.7344],[78.3453,19.7136],[78.3161,19.6906],[78.2858,19.6897],[78.2697,19.6631],[78.2876,19.6545],[78.311,19.6042],[78.3111,19.5718],[78.2965,19.5584],[78.2994,19.5041],[78.312,19.4659],[78.2973,19.4488],[78.2732,19.4538],[78.252,19.43],[78.2243,19.434],[78.1876,19.3956],[78.1796,19.353],[78.1972,19.3317],[78.1832,19.279],[78.1833,19.2415],[78.1497,19.2301],[78.1267,19.2464],[78.0994,19.2455],[78.0823,19.2548],[78.0576,19.2397],[78.0457,19.2709],[78.0273,19.2787],[78.0116,19.3011],[77.9855,19.309],[77.9489,19.3413],[77.9123,19.318],[77.8609,19.3021],[77.8619,19.2841],[77.9007,19.2771],[77.8681,19.2461],[77.8445,19.1882],[77.8492,19.1553],[77.8339,19.1327],[77.8452,19.1142],[77.8422,19.0868],[77.8286,19.0849],[77.8152,19.1037],[77.8002,19.0989],[77.7935,19.0712],[77.7972,19.0513],[77.7617,19.062],[77.7574,19.0286],[77.7643,19.0196],[77.7674,18.9814],[77.8171,18.9824],[77.8127,18.9495],[77.8537,18.9523],[77.8405,18.9113],[77.8816,18.9085],[77.8992,18.8679],[77.9253,18.8592],[77.9441,18.8423],[77.9684,18.8753],[77.9958,18.8816],[78.0293,18.8799],[78.048,18.919],[78.0691,18.9354],[78.1296,18.9585],[78.1573,18.9802],[78.202,18.9984],[78.2329,19.0026],[78.2604,18.9903],[78.2733,18.9687],[78.2768,18.9435],[78.299,18.9445],[78.3259,18.9575],[78.3647,18.9849],[78.4004,18.9879],[78.4383,18.9586],[78.4938,18.9637],[78.5286,18.9416],[78.5574,18.9725],[78.5862,18.9859],[78.6181,18.9758],[78.6311,18.9789],[78.6571,19.0122],[78.6818,19.0254],[78.7004,19.0237],[78.7367,19.0089],[78.7539,19.0121],[78.8205,19.0535],[78.8451,19.0511],[78.8716,19.0363],[78.9052,19.0312],[78.9282,19.0568],[78.9705,19.0711],[79.0389,19.0491],[79.0722,19.022],[79.0863,18.9893],[79.1007,18.9748],[79.1057,18.9512],[79.1492,18.9144],[79.1852,18.8733],[79.2385,18.87],[79.2747,18.8343],[79.3133,18.8199],[79.349,18.8268],[79.3652,18.8378],[79.3828,18.8681],[79.4062,18.8667],[79.4435,18.8495],[79.489,18.8148],[79.5127,18.7896],[79.5291,18.7927],[79.563,18.7785],[79.6191,18.7392],[79.6488,18.7271],[79.6762,18.6844],[79.7083,18.69],[79.7432,18.6885],[79.771,18.6993],[79.8034,18.7222],[79.8076,18.7394],[79.8294,18.7758],[79.844,18.7861],[79.8439,18.8062],[79.826,18.8271],[79.8295,18.8652],[79.8549,18.8684],[79.8629,18.8326],[79.894,18.8308],[79.9255,18.8375],[79.939,18.8589],[79.9409,18.9377],[79.9313,18.9748],[79.9345,19.0217],[79.926,19.0425],[79.8908,19.0455],[79.871,19.0355],[79.8611,19.0599],[79.858,19.1041],[79.8712,19.1227],[79.906,19.1418],[79.9424,19.1759],[79.9225,19.2034],[79.9202,19.2264],[79.9452,19.2841],[79.9618,19.2975],[79.9572,19.3346],[79.9645,19.3507],[79.9731,19.401],[79.9458,19.4408],[79.945,19.4588],[79.911,19.4923],[79.8782,19.5007],[79.8282,19.537],[79.8166,19.569],[79.7933,19.5801],[79.7854,19.5936],[79.7403,19.6031],[79.7129,19.5833],[79.6397,19.575],[79.6214,19.5651],[79.6072,19.5395],[79.6009,19.508],[79.5656,19.5109],[79.5477,19.5261],[79.5427,19.5485],[79.515,19.542],[79.5134,19.5181],[79.4704,19.4975],[79.4413,19.5335],[79.4136,19.5335],[79.3712,19.5615],[79.3409,19.5738],[79.3143,19.5655],[79.3048,19.5902],[79.2552,19.6112],[79.2371,19.6095],[79.2501,19.5777],[79.2398,19.5595],[79.2366,19.5268],[79.2157,19.5106],[79.2088,19.4848],[79.2187,19.4645],[79.189,19.4587],[79.1691,19.4678],[79.1403,19.5011],[79.1047,19.5127],[79.1029,19.528],[79.0634,19.5313],[79.0515,19.5453],[79.0184,19.54],[78.9929,19.562],[78.9785,19.5509],[78.9545,19.5627],[78.9779,19.5799],[78.9629,19.6173],[78.969,19.6492],[78.9436,19.6651],[78.9159,19.6677],[78.891,19.6553],[78.8588,19.6563],[78.8635,19.6968],[78.8569,19.7313],[78.8443,19.759]]]},"properties":{"NAME_1":"Andhra Pradesh","NAME_2":"Adilabad"}},{"type":"Feature","geometry":{"type":"Polygon","coordinates":[[[78.1368,14.938],[78.1181,14.959],[78.0962,14.9622],[78.0835,14.974],[78.0384,14.9931],[78.0124,15.0183],[78.0104,15.0429],[77.9931,15.0377],[77.9868,15.062],[78.008,15.0698],[78.0183,15.1074],[77.9912,15.1286],[77.962,15.132],[77.9622,15.1492],[77.9194,15.144],[77.9144,15.1635],[77.8817,15.1686],[77.8695,15.1274],[77.8358,15.1238],[77.8122,15.1338],[77.7871,15.0973],[77.7681,15.1159],[77.7447,15.1215],[77.7269,15.1425],[77.7256,15.1627],[77.6563,15.2256],[77.6347,15.2149],[77.6299,15.1999],[77.6108,15.1978],[77.6065,15.1755],[77.5762,15.1819],[77.521,15.217],[77.4993,15.2145],[77.4786,15.2022],[77.4472,15.2142],[77.404,15.2169],[77.3811,15.2105],[77.3606,15.2156],[77.3467,15.1701],[77.3156,15.1698],[77.2886,15.1247],[77.2602,15.1358],[77.2168,15.1416],[77.1926,15.153],[77.1772,15.1369],[77.1528,15.1316],[77.1477,15.1073],[77.1276,15.0936],[77.1255,15.0682],[77.1096,15.0286],[77.0821,15.0223],[77.0788,15],[77.041,15.0055],[77.0469,15.0292],[77.0007,15.0296],[76.9668,15.0132],[76.9507,15.0244],[76.9135,15.031],[76.8767,15.0287],[76.8606,15.0567],[76.7969,15.0908],[76.7726,15.0651],[76.7846,15.0167],[76.757,14.983],[76.7638,14.9699],[76.8412,14.9612],[76.8645,14.964],[76.8603,14.8912],[76.8461,14.8903],[76.8517,14.8625],[76.8401,14.83],[76.8338,14.7849],[76.7803,14.7793],[76.7981,14.7346],[76.7713,14.6738],[76.7609,14.5963],[76.7782,14.5793],[76.7997,14.5277],[76.8439,14.5091],[76.8638,14.4747],[76.8803,14.4705],[76.9065,14.4842],[76.9734,14.4783],[76.9586,14.4454],[76.9438,14.4451],[76.9416,14.3995],[76.9131,14.4136],[76.8831,14.3903],[76.8786,14.3514],[76.899,14.3192],[76.9429,14.3054],[76.9438,14.2817],[76.9249,14.2722],[76.9378,14.2401],[76.9514,14.2342],[76.9825,14.2382],[77.0041,14.2316],[77.0496,14.2395],[77.0753,14.2093],[77.0952,14.2095],[77.1099,14.2215],[77.1155,14.2568],[77.1119,14.2875],[77.1258,14.3015],[77.1319,14.3306],[77.1522,14.3377],[77.1964,14.3143],[77.2451,14.3145],[77.2811,14.3311],[77.2796,14.2761],[77.3593,14.2693],[77.3554,14.23],[77.3766,14.2167],[77.3838,14.1918],[77.4149,14.2032],[77.401,14.2604],[77.3899,14.2614],[77.375,14.2952],[77.3788,14.3171],[77.3949,14.3292],[77.4423,14.3098],[77.4436,14.2776],[77.4547,14.2722],[77.4791,14.2837],[77.4994,14.2605],[77.4901,14.2276],[77.5104,14.172],[77.5004,14.151],[77.4633,14.1642],[77.3897,14.1653],[77.3767,14.1296],[77.3477,14.1243],[77.3525,14.1054],[77.3897,14.1186],[77.3954,14.1034],[77.3724,14.0719],[77.3501,14.0534],[77.338,14.0538],[77.3262,14.0229],[77.3834,14.0074],[77.3732,13.9817],[77.3865,13.974],[77.4205,13.9769],[77.4306,13.9688],[77.4287,13.9433],[77.4077,13.9361],[77.419,13.8949],[77.3971,13.8805],[77.3904,13.8977],[77.3483,13.8965],[77.3426,13.9122],[77.3626,13.9423],[77.3437,13.9509],[77.3538,13.9823],[77.3335,13.9881],[77.3135,14.0248],[77.3036,14.0267],[77.2785,14.0069],[77.2715,14.0281],[77.2426,14.0063],[77.1946,14.0029],[77.1714,14.0086],[77.1544,13.9906],[77.1343,13.9981],[77.1211,14.0422],[77.0908,14.0383],[77.069,14.0472],[77.0237,14.0533],[77.024,14.0834],[77.0104,14.092],[77.0198,14.1727],[76.9585,14.1755],[76.9172,14.1577],[76.8914,14.159],[76.8837,14.131],[76.9125,14.1221],[76.9224,14.129],[76.9429,14.1119],[76.9463,14.0853],[76.9681,14.0797],[76.9715,14.0524],[76.938,14.0476],[76.9311,14.0227],[76.9486,14.0068],[76.9944,13.9815],[76.989,13.9567],[77.0358,13.9256],[77.0413,13.8974],[77.0173,13.8934],[77.006,13.8501],[76.9688,13.8102],[76.9812,13.7858],[76.9926,13.7426],[77.0114,13.7327],[77.0199,13.7699],[77.0352,13.7693],[77.06,13.7389],[77.0953,13.7609],[77.1235,13.7509],[77.1666,13.7547],[77.1713,13.772],[77.1541,13.8006],[77.1619,13.8155],[77.1458,13.8349],[77.1253,13.843],[77.1394,13.859],[77.1649,13.8662],[77.1559,13.8998],[77.1822,13.9013],[77.1751,13.8614],[77.1927,13.8562],[77.2255,13.8955],[77.2401,13.8941],[77.2504,13.8395],[77.2855,13.846],[77.3069,13.8572],[77.32,13.8258],[77.3522,13.8444],[77.3729,13.8313],[77.4247,13.8267],[77.4087,13.7993],[77.4508,13.7855],[77.4626,13.7436],[77.4568,13.7126],[77.4448,13.6958],[77.4498,13.6758],[77.4765,13.6776],[77.4797,13.7032],[77.5278,13.707],[77.5197,13.7438],[77.5395,13.7437],[77.5481,13.7204],[77.5815,13.7306],[77.6143,13.7603],[77.6491,13.7758],[77.6702,13.7775],[77.6685,13.7523],[77.6955,13.7614],[77.711,13.7377],[77.7129,13.7905],[77.7284,13.8017],[77.7692,13.8085],[77.7741,13.8317],[77.8028,13.8407],[77.8277,13.8606],[77.821,13.8892],[77.8064,13.9176],[77.8142,13.931],[77.8624,13.9268],[77.887,13.9312],[77.8897,13.9114],[77.9116,13.8972],[77.9508,13.9279],[77.9613,13.95],[77.9786,13.9477],[77.9735,13.9242],[77.978,13.8933],[77.9495,13.8845],[77.9418,13.8711],[77.9481,13.8248],[77.9658,13.8202],[77.9852,13.8617],[78.0378,13.8528],[78.0412,13.8867],[78.0709,13.872],[78.0749,13.8549],[78.106,13.8535],[78.1173,13.8218],[78.1077,13.8036],[78.1182,13.7769],[78.1355,13.7731],[78.18,13.7786],[78.2204,13.7713],[78.2532,13.7882],[78.2366,13.8419],[78.2561,13.8498],[78.268,13.8828],[78.2844,13.8826],[78.3041,13.9062],[78.3235,13.9106],[78.3627,13.9455],[78.3782,13.9317],[78.4183,13.9687],[78.4562,13.9848],[78.4616,14.0017],[78.4337,14.0138],[78.4432,14.0586],[78.4379,14.0724],[78.4559,14.104],[78.4438,14.1272],[78.4237,14.1387],[78.4163,14.1576],[78.4247,14.1896],[78.401,14.199],[78.4168,14.2707],[78.3234,14.2808],[78.2375,14.307],[78.209,14.3345],[78.1431,14.3657],[77.9888,14.4935],[77.9694,14.5173],[77.972,14.528],[77.9398,14.5593],[77.9562,14.5713],[77.9772,14.5526],[77.9798,14.533],[78.0394,14.531],[78.0474,14.5562],[78.0707,14.5713],[78.0898,14.6178],[78.1199,14.6172],[78.1298,14.6382],[78.1363,14.6767],[78.1095,14.6868],[78.096,14.7089],[78.0667,14.7134],[78.0768,14.7338],[78.0488,14.7695],[78.0793,14.8191],[78.1038,14.8186],[78.1094,14.8486],[78.0922,14.8655],[78.1114,14.92],[78.1368,14.938]]]},"properties":{"NAME_1":"Andhra Pradesh","NAME_2":"Anantapur"}},{"type":"Feature","geometry":{"type":"Polygon","coordinates":[[[79.4332,13.8777],[79.427,13.8485],[79.4491,13.7896],[79.4389,13.7672],[79.4157,13.7715],[79.4079,13.7495],[79.3705,13.7449],[79.3,13.7122],[79.2839,13.7462],[79.216,13.7457],[79.1809,13.7821],[79.2017,13.8034],[79.1397,13.8493],[79.1114,13.8374],[79.0902,13.8376],[79.0765,13.8642],[79.0176,13.8779],[78.9958,13.8969],[78.9807,13.8982],[78.9741,13.879],[78.9404,13.8742],[78.9261,13.8859],[78.8723,13.8869],[78.8492,13.8767],[78.7894,13.8689],[78.7739,13.8569],[78.7737,13.8202],[78.7565,13.8193],[78.7356,13.8579],[78.7141,13.8764],[78.6772,13.8605],[78.6351,13.8584],[78.6345,13.8782],[78.6463,13.8893],[78.5983,13.9013],[78.5786,13.9012],[78.5888,13.9486],[78.5624,13.9532],[78.5739,13.9736],[78.5364,13.9809],[78.4989,13.9504],[78.4821,13.9301],[78.4641,13.9433],[78.4646,13.9726],[78.4562,13.9848],[78.4183,13.9687],[78.3782,13.9317],[78.3627,13.9455],[78.3235,13.9106],[78.3041,13.9062],[78.2844,13.8826],[78.268,13.8828],[78.2561,13.8498],[78.2366,13.8419],[78.2532,13.7882],[78.2204,13.7713],[78.18,13.7786],[78.1355,13.7731],[78.1182,13.7769],[78.0849,13.7335],[78.1094,13.7102],[78.1054,13.6844],[78.0852,13.6806],[78.0641,13.6882],[78.0659,13.6645],[78.08,13.6504],[78.1462,13.6497],[78.159,13.6452],[78.1605,13.6234],[78.1939,13.6162],[78.1937,13.5949],[78.1795,13.5789],[78.189,13.5564],[78.2085,13.5819],[78.2277,13.5872],[78.2497,13.5743],[78.3125,13.5835],[78.3437,13.5778],[78.3803,13.5813],[78.3978,13.5662],[78.3673,13.4952],[78.3626,13.4521],[78.3713,13.391],[78.3552,13.3551],[78.3974,13.3323],[78.3913,13.3037],[78.4291,13.3171],[78.436,13.2984],[78.4664,13.3101],[78.4702,13.2939],[78.5012,13.2772],[78.5208,13.2556],[78.5288,13.2759],[78.5672,13.2718],[78.5775,13.262],[78.5599,13.2334],[78.5533,13.1892],[78.5691,13.1565],[78.5388,13.1516],[78.5354,13.1307],[78.5088,13.1196],[78.5138,13.0847],[78.4986,13.0698],[78.5046,13.0528],[78.4516,13.0315],[78.4504,13.0149],[78.4614,12.9791],[78.4579,12.9632],[78.4227,12.9686],[78.4214,12.9235],[78.4358,12.9007],[78.4173,12.889],[78.3884,12.9055],[78.3783,12.8952],[78.3454,12.9281],[78.3272,12.8892],[78.3165,12.8926],[78.3031,12.8472],[78.2626,12.8566],[78.2411,12.8474],[78.2419,12.8123],[78.2295,12.762],[78.2206,12.7526],[78.2289,12.7202],[78.2203,12.7033],[78.1947,12.6953],[78.2001,12.6756],[78.2281,12.6739],[78.2274,12.6893],[78.2644,12.6918],[78.2905,12.6529],[78.3088,12.65],[78.3683,12.6118],[78.3975,12.6136],[78.4596,12.6174],[78.4577,12.6622],[78.4741,12.6592],[78.4934,12.6696],[78.4943,12.7304],[78.516,12.7035],[78.5244,12.6797],[78.5522,12.6971],[78.5456,12.7286],[78.5581,12.7516],[78.5801,12.7672],[78.5882,12.8048],[78.5977,12.8111],[78.5916,12.8385],[78.6248,12.9142],[78.6467,12.919],[78.6202,12.9739],[78.6511,13.0179],[78.6938,13.0044],[78.7024,13.0562],[78.7395,13.0455],[78.7775,13.0532],[78.8009,13.0755],[78.8323,13.0696],[78.8804,13.0696],[78.8819,13.0198],[78.9144,13.0678],[78.9458,13.0635],[78.9817,13.0762],[79.0004,13.0579],[79.0533,13.038],[79.0691,13.0142],[79.1044,13.0242],[79.1527,13.0073],[79.1706,13.0157],[79.1765,13.0383],[79.1694,13.053],[79.1933,13.0897],[79.2143,13.0968],[79.2264,13.1346],[79.2713,13.1381],[79.2738,13.1209],[79.2988,13.1148],[79.3501,13.1255],[79.3478,13.163],[79.3844,13.1847],[79.4206,13.1845],[79.4073,13.2377],[79.4218,13.2867],[79.4054,13.2854],[79.3746,13.303],[79.4173,13.322],[79.4546,13.3243],[79.5358,13.3111],[79.5414,13.2789],[79.5654,13.2494],[79.5854,13.2471],[79.6011,13.2677],[79.6208,13.259],[79.6325,13.2735],[79.6685,13.2819],[79.6843,13.2567],[79.6711,13.2358],[79.7157,13.2144],[79.7325,13.215],[79.7444,13.1949],[79.7833,13.2282],[79.7218,13.2657],[79.7461,13.28],[79.7541,13.3028],[79.7798,13.2821],[79.8003,13.3043],[79.8512,13.3034],[79.9039,13.3333],[79.9255,13.3359],[79.9536,13.3741],[79.9356,13.3848],[79.9325,13.4044],[79.9632,13.4179],[79.9619,13.4513],[79.9954,13.4595],[80.0059,13.4878],[80.036,13.4845],[79.9897,13.5268],[80.0077,13.5324],[80.0295,13.5236],[80.0342,13.5625],[80.0119,13.5647],[80.0125,13.5833],[79.9922,13.6113],[79.9896,13.6304],[79.961,13.6336],[79.9491,13.6538],[79.9624,13.6753],[79.9371,13.6951],[79.8741,13.6894],[79.8595,13.6952],[79.841,13.7549],[79.8647,13.7714],[79.8732,13.8355],[79.8661,13.8532],[79.8501,13.8575],[79.8349,13.8415],[79.8002,13.9122],[79.7787,13.8985],[79.7722,13.8511],[79.7602,13.8375],[79.7217,13.8473],[79.7199,13.8896],[79.6704,13.9112],[79.6602,13.8777],[79.6641,13.8649],[79.6589,13.8227],[79.6233,13.8313],[79.6111,13.8731],[79.5849,13.8779],[79.5777,13.9071],[79.5429,13.9005],[79.47,13.8985],[79.4629,13.8849],[79.4332,13.8777]]]},"properties":{"NAME_1":"Andhra Pradesh","NAME_2":"Chittoor"}},{"type":"Feature","geometry":{"type":"Polygon","coordinates":[[[79.0673,15.0459],[79.0488,15.1333],[79.0592,15.1677],[78.9984,15.1735],[78.9841,15.1596],[78.9536,15.1714],[78.9437,15.2168],[78.9214,15.1936],[78.8971,15.1893],[78.8145,15.2],[78.7884,15.1969],[78.7612,15.1777],[78.7514,15.097],[78.7609,15.0566],[78.7542,15.03],[78.7113,15.0131],[78.7101,14.9572],[78.6832,14.955],[78.6767,14.9285],[78.6277,14.9153],[78.6217,14.9339],[78.5953,14.9405],[78.5628,14.9206],[78.5433,14.9252],[78.5446,14.9487],[78.5266,14.9479],[78.4932,14.9101],[78.4874,14.9304],[78.5069,14.9605],[78.5179,14.9925],[78.5206,15.0246],[78.5142,15.0581],[78.4908,15.0602],[78.4871,15.0295],[78.4222,15.0263],[78.4096,14.9867],[78.4052,14.9561],[78.3856,14.9597],[78.3469,14.9816],[78.3415,14.9928],[78.3518,15.0203],[78.3692,15.0206],[78.3873,15.0466],[78.329,15.0603],[78.2887,15.0654],[78.2768,15.0543],[78.2796,15.0253],[78.2594,15.0163],[78.2406,14.9929],[78.2331,14.9535],[78.2191,14.9409],[78.1812,14.9518],[78.1581,14.9498],[78.1368,14.938],[78.1114,14.92],[78.0922,14.8655],[78.1094,14.8486],[78.1038,14.8186],[78.0793,14.8191],[78.0488,14.7695],[78.0768,14.7338],[78.0667,14.7134],[78.096,14.7089],[78.1095,14.6868],[78.1363,14.6767],[78.1298,14.6382],[78.1199,14.6172],[78.0898,14.6178],[78.0707,14.5713],[78.0474,14.5562],[78.0394,14.531],[77.9798,14.533],[77.9772,14.5526],[77.9562,14.5713],[77.9398,14.5593],[77.972,14.528],[77.9694,14.5173],[77.9888,14.4935],[78.1431,14.3657],[78.209,14.3345],[78.2375,14.307],[78.3234,14.2808],[78.4168,14.2707],[78.401,14.199],[78.4247,14.1896],[78.4163,14.1576],[78.4237,14.1387],[78.4438,14.1272],[78.4559,14.104],[78.4379,14.0724],[78.4432,14.0586],[78.4337,14.0138],[78.4616,14.0017],[78.4562,13.9848],[78.4646,13.9726],[78.4641,13.9433],[78.4821,13.9301],[78.4989,13.9504],[78.5364,13.9809],[78.5739,13.9736],[78.5624,13.9532],[78.5888,13.9486],[78.5786,13.9012],[78.5983,13.9013],[78.6463,13.8893],[78.6345,13.8782],[78.6351,13.8584],[78.6772,13.8605],[78.7141,13.8764],[78.7356,13.8579],[78.7565,13.8193],[78.7737,13.8202],[78.7739,13.8569],[78.7894,13.8689],[78.8492,13.8767],[78.8723,13.8869],[78.9261,13.8859],[78.9404,13.8742],[78.9741,13.879],[78.9807,13.8982],[78.9958,13.8969],[79.0176,13.8779],[79.0765,13.8642],[79.0902,13.8376],[79.1114,13.8374],[79.1397,13.8493],[79.2017,13.8034],[79.1809,13.7821],[79.216,13.7457],[79.2839,13.7462],[79.3,13.7122],[79.3705,13.7449],[79.4079,13.7495],[79.4157,13.7715],[79.4389,13.7672],[79.4491,13.7896],[79.427,13.8485],[79.4332,13.8777],[79.4481,13.9338],[79.4441,13.9725],[79.4229,14.0075],[79.4303,14.053],[79.4391,14.0682],[79.441,14.0966],[79.431,14.1104],[79.4139,14.2058],[79.4184,14.2381],[79.4081,14.2551],[79.4035,14.2857],[79.3773,14.3316],[79.3543,14.3448],[79.3485,14.368],[79.3172,14.4199],[79.3072,14.4592],[79.2803,14.4749],[79.2639,14.5183],[79.239,14.5495],[79.2263,14.5781],[79.2047,14.578],[79.173,14.6047],[79.1591,14.6677],[79.1694,14.6776],[79.1672,14.7044],[79.1537,14.7428],[79.1336,14.7786],[79.1315,14.8103],[79.1129,14.8563],[79.0842,14.883],[79.0625,14.9618],[79.0673,15.0459]]]},"properties":{"NAME_1":"Andhra Pradesh","NAME_2":"Cuddapah"}},{"type":"Feature","geometry":{"type":"MultiPolygon","coordinates":[[[[82.3321,16.7249],[82.3165,16.7046],[82.2852,16.6974],[82.2647,16.6905],[82.2588,16.6901],[82.266,16.6715],[82.256,16.6537],[82.2824,16.6423],[82.2974,16.6129],[82.3187,16.6168],[82.3187,16.6524],[82.3393,16.6854],[82.3321,16.7249]]],[[[82.2995,16.7143],[82.3179,16.7335],[82.3415,16.736],[82.3412,16.7535],[82.3557,16.8121],[82.359,16.8488],[82.3376,16.8565],[82.3115,16.8549],[82.2818,16.8776],[82.2699,16.8757],[82.2507,16.906],[82.251,16.9349],[82.2715,16.9404],[82.2693,16.956],[82.2838,16.9771],[82.2782,16.9921],[82.3026,17.0407],[82.3315,17.0724],[82.439,17.1726],[82.4901,17.214],[82.5376,17.2463],[82.5138,17.2822],[82.5327,17.324],[82.551,17.3335],[82.5546,17.3588],[82.5448,17.3815],[82.5591,17.4121],[82.5811,17.4288],[82.5953,17.4526],[82.5651,17.4816],[82.5512,17.5105],[82.5055,17.4994],[82.4478,17.5029],[82.4475,17.4776],[82.4311,17.4671],[82.4027,17.4629],[82.3432,17.4886],[82.3262,17.5016],[82.3234,17.539],[82.3286,17.5809],[82.3116,17.5781],[82.2593,17.6134],[82.2353,17.6159],[82.2085,17.6288],[82.177,17.6045],[82.154,17.6059],[82.1194,17.6453],[82.0821,17.6436],[82.0568,17.629],[82.0222,17.6231],[82.0113,17.6076],[81.9945,17.6273],[82.022,17.6784],[82.0217,17.7207],[82.0088,17.7511],[81.9766,17.7589],[81.9584,17.7525],[81.9611,17.7358],[81.9279,17.7313],[81.8738,17.7327],[81.8592,17.7455],[81.8779,17.7662],[81.9231,17.801],[81.9588,17.8116],[81.969,17.8337],[82.0125,17.8474],[81.9947,17.8773],[82.0228,17.9285],[82.0051,17.9479],[81.9934,17.9781],[81.9731,18.0057],[81.964,17.9999],[81.9518,17.9921],[81.9137,17.9799],[81.9045,17.9735],[81.8851,17.9658],[81.8741,17.9598],[81.8397,17.9501],[81.801,17.9361],[81.7893,17.9214],[81.786,17.9136],[81.7583,17.8934],[81.7814,17.8707],[81.7944,17.8442],[81.7529,17.8183],[81.7296,17.8193],[81.704,17.7996],[81.6982,17.7845],[81.6747,17.7671],[81.6231,17.7628],[81.6092,17.7436],[81.573,17.7187],[81.5712,17.6879],[81.5536,17.6664],[81.5341,17.6304],[81.5119,17.6099],[81.5029,17.5899],[81.5239,17.5726],[81.5014,17.5394],[81.4982,17.49],[81.5241,17.454],[81.558,17.4435],[81.5776,17.4209],[81.6041,17.4166],[81.5978,17.3927],[81.6087,17.3497],[81.6499,17.3126],[81.6385,17.244],[81.643,17.2067],[81.6561,17.1787],[81.6637,17.1357],[81.6829,17.1034],[81.7172,17.0606],[81.7271,17.0354],[81.7325,16.9907],[81.7193,16.9274],[81.728,16.8874],[81.7446,16.8561],[81.7393,16.8032],[81.752,16.7725],[81.7764,16.755],[81.7793,16.7221],[81.7898,16.6954],[81.8363,16.6461],[81.858,16.6053],[81.854,16.5373],[81.8435,16.5138],[81.8094,16.4928],[81.7833,16.4686],[81.7628,16.4385],[81.742,16.4254],[81.7217,16.4477],[81.7028,16.4481],[81.6964,16.4279],[81.7135,16.3564],[81.7106,16.3199],[81.7188,16.3115],[81.774,16.334],[81.8424,16.3699],[81.8915,16.3863],[81.9446,16.3954],[82.0299,16.4385],[82.0735,16.4635],[82.2215,16.5365],[82.2604,16.5507],[82.2996,16.5918],[82.2782,16.6362],[82.2537,16.6526],[82.2613,16.6665],[82.2534,16.6897],[82.2274,16.7047],[82.1791,16.7163],[82.1968,16.7365],[82.2111,16.7482],[82.211,16.7279],[82.2204,16.7183],[82.2807,16.7227],[82.2995,16.7143]]]]},"properties":{"NAME_1":"Andhra Pradesh","NAME_2":"East Godavari"}},{"type":"Feature","geometry":{"type":"Polygon","coordinates":[[[80.809,15.7318],[80.8285,15.7575],[80.8417,15.8084],[80.8594,15.8374],[80.8749,15.8766],[80.8962,15.9129],[80.8955,15.9899],[80.8824,16.0363],[80.88,16.0639],[80.8686,16.0766],[80.8595,16.1324],[80.8414,16.1645],[80.8001,16.2751],[80.7667,16.3174],[80.7291,16.3726],[80.6805,16.4345],[80.6636,16.4616],[80.6361,16.4902],[80.5577,16.5359],[80.4996,16.5766],[80.4746,16.5884],[80.4062,16.5973],[80.3799,16.5942],[80.366,16.6098],[80.3101,16.6175],[80.219,16.6155],[80.1375,16.6555],[80.1287,16.6702],[80.1406,16.6968],[80.1396,16.7478],[80.1208,16.8047],[80.1024,16.8264],[80.0697,16.8136],[80.0516,16.7713],[80.0479,16.7452],[80.0167,16.7118],[79.9915,16.6926],[79.973,16.6595],[79.9426,16.6326],[79.9237,16.6307],[79.8909,16.6496],[79.8733,16.6887],[79.8618,16.6982],[79.8103,16.6905],[79.7749,16.7295],[79.7505,16.7201],[79.7227,16.6926],[79.683,16.6904],[79.648,16.662],[79.5999,16.6633],[79.574,16.6436],[79.5367,16.6316],[79.4972,16.6305],[79.4506,16.6091],[79.4266,16.5825],[79.3455,16.5796],[79.2661,16.5615],[79.2608,16.5464],[79.2304,16.5193],[79.2241,16.4921],[79.2362,16.4585],[79.2191,16.4382],[79.2115,16.3628],[79.2279,16.3368],[79.2298,16.3002],[79.2251,16.2501],[79.192,16.2227],[79.2135,16.2152],[79.2175,16.1739],[79.2956,16.2225],[79.3344,16.2389],[79.3603,16.2355],[79.4001,16.268],[79.4556,16.3033],[79.49,16.2939],[79.5244,16.3106],[79.5474,16.2972],[79.5534,16.244],[79.5666,16.1888],[79.5502,16.1539],[79.5489,16.1336],[79.5618,16.0555],[79.5745,16.0133],[79.552,15.998],[79.5605,15.9387],[79.6084,15.9295],[79.6094,15.9144],[79.6318,15.902],[79.6544,15.9119],[79.6956,15.8901],[79.6918,15.8723],[79.7201,15.8516],[79.7147,15.8327],[79.7509,15.8156],[79.7713,15.8186],[79.7749,15.8341],[79.7512,15.854],[79.7588,15.8879],[79.7833,15.9047],[79.7934,15.9304],[79.8201,15.9301],[79.8782,15.9111],[79.8895,15.9332],[79.9069,15.9382],[79.9156,15.9559],[79.8951,15.9849],[79.8962,15.9979],[79.8628,16.0165],[79.8828,16.049],[79.9052,16.055],[79.9125,16.0696],[79.8573,16.1313],[79.8664,16.1535],[79.8896,16.1564],[79.9206,16.1438],[79.9364,16.1488],[79.9604,16.1335],[79.9909,16.1301],[80.0048,16.1062],[80.0452,16.1071],[80.0342,16.0807],[80.0638,16.0779],[80.0619,16.0599],[80.0787,16.0339],[80.0793,16.0119],[80.0926,16],[80.1286,16.0131],[80.1422,16.0353],[80.1852,16.0251],[80.2241,16.0222],[80.2344,16.0424],[80.255,16.0371],[80.2967,16.0443],[80.3304,16.0057],[80.3407,16.0186],[80.3922,16.0018],[80.3691,15.9765],[80.3822,15.9104],[80.3966,15.8835],[80.4355,15.9029],[80.454,15.8999],[80.4662,15.8788],[80.4427,15.8688],[80.4228,15.8388],[80.4283,15.8032],[80.5088,15.8401],[80.5668,15.8607],[80.644,15.8776],[80.7118,15.8801],[80.786,15.8601],[80.8121,15.8315],[80.794,15.8085],[80.8118,15.7604],[80.809,15.7318]]]},"properties":{"NAME_1":"Andhra Pradesh","NAME_2":"Guntur"}},{"type":"Feature","geometry":{"type":"Polygon","coordinates":[[[78.51,17.4485],[78.4931,17.4665],[78.4855,17.4718],[78.473,17.469],[78.4577,17.4418],[78.43,17.412],[78.4153,17.4296],[78.4058,17.4292],[78.3869,17.4081],[78.3855,17.3845],[78.3955,17.3524],[78.4055,17.3445],[78.4347,17.3404],[78.4619,17.303],[78.4765,17.2992],[78.5094,17.3253],[78.52,17.3565],[78.5158,17.3857],[78.5163,17.3947],[78.5308,17.4356],[78.5274,17.4594],[78.51,17.4485]]]},"properties":{"NAME_1":"Andhra Pradesh","NAME_2":"Hyderabad"}},{"type":"Feature","geometry":{"type":"Polygon","coordinates":[[[79.894,18.8308],[79.8629,18.8326],[79.8549,18.8684],[79.8295,18.8652],[79.826,18.8271],[79.8439,18.8062],[79.844,18.7861],[79.8294,18.7758],[79.8076,18.7394],[79.8034,18.7222],[79.771,18.6993],[79.7432,18.6885],[79.7083,18.69],[79.6762,18.6844],[79.6488,18.7271],[79.6191,18.7392],[79.563,18.7785],[79.5291,18.7927],[79.5127,18.7896],[79.489,18.8148],[79.4435,18.8495],[79.4062,18.8667],[79.3828,18.8681],[79.3652,18.8378],[79.349,18.8268],[79.3133,18.8199],[79.2747,18.8343],[79.2385,18.87],[79.1852,18.8733],[79.1492,18.9144],[79.1057,18.9512],[79.1007,18.9748],[79.0863,18.9893],[79.0722,19.022],[79.0389,19.0491],[78.9705,19.0711],[78.9282,19.0568],[78.9052,19.0312],[78.8716,19.0363],[78.8451,19.0511],[78.8205,19.0535],[78.7539,19.0121],[78.7367,19.0089],[78.7004,19.0237],[78.6818,19.0254],[78.6571,19.0122],[78.6311,18.9789],[78.6181,18.9758],[78.5862,18.9859],[78.5574,18.9725],[78.5286,18.9416],[78.5173,18.9133],[78.5407,18.874],[78.5462,18.8221],[78.5629,18.7831],[78.5557,18.7614],[78.5796,18.7359],[78.6201,18.7344],[78.6368,18.7254],[78.637,18.6937],[78.6468,18.6573],[78.6737,18.6227],[78.653,18.5973],[78.5986,18.5756],[78.5891,18.5444],[78.5678,18.5448],[78.5534,18.534],[78.5211,18.4747],[78.5372,18.4556],[78.5474,18.4282],[78.5323,18.388],[78.5318,18.3651],[78.5457,18.3355],[78.5367,18.2998],[78.5172,18.2821],[78.5439,18.266],[78.5631,18.2267],[78.5884,18.2436],[78.6253,18.2482],[78.6579,18.2459],[78.6923,18.228],[78.7217,18.2295],[78.725,18.2154],[78.7526,18.2253],[78.7739,18.2615],[78.8198,18.2549],[78.843,18.2452],[78.8918,18.2357],[78.903,18.2471],[78.9363,18.2539],[78.959,18.2488],[78.9594,18.213],[79.0033,18.2],[79.0139,18.1827],[79.0095,18.139],[79.0366,18.1227],[79.0305,18.093],[79.0589,18.0809],[79.1205,18.0784],[79.1061,18.049],[79.1092,18.0225],[79.0898,18.0209],[79.1424,17.9997],[79.1444,17.9817],[79.1867,17.9903],[79.2274,17.9759],[79.2514,17.9764],[79.2505,17.996],[79.2849,18.0129],[79.3514,18.0209],[79.3683,18.0154],[79.4545,18.0737],[79.4718,18.1101],[79.5063,18.0968],[79.5566,18.101],[79.5799,18.1403],[79.6028,18.1402],[79.6166,18.1779],[79.586,18.2453],[79.5691,18.2755],[79.567,18.3072],[79.5799,18.3473],[79.5738,18.3714],[79.579,18.405],[79.573,18.4214],[79.589,18.4432],[79.5903,18.4664],[79.6312,18.4733],[79.6509,18.4686],[79.6786,18.4926],[79.7134,18.4911],[79.7556,18.4678],[79.785,18.4266],[79.8066,18.4142],[79.8203,18.4313],[79.806,18.472],[79.8101,18.4916],[79.826,18.4963],[79.8499,18.4807],[79.8739,18.4402],[79.9156,18.4198],[79.9184,18.4548],[79.9002,18.4656],[79.8787,18.5063],[79.907,18.5098],[79.9518,18.5027],[79.963,18.4728],[79.9857,18.4859],[80.0178,18.4642],[80.0335,18.5117],[80.0788,18.5136],[80.0455,18.4774],[80.0698,18.471],[80.0977,18.4529],[80.0718,18.4232],[80.0325,18.4265],[80.0174,18.4125],[80.0237,18.3961],[80.0525,18.3961],[80.0694,18.3823],[80.0765,18.4177],[80.0912,18.4269],[80.1456,18.4086],[80.1399,18.3684],[80.1672,18.3438],[80.2114,18.3853],[80.2178,18.4151],[80.222,18.5479],[80.262,18.5836],[80.2994,18.584],[80.3367,18.5905],[80.3193,18.6217],[80.2963,18.6856],[80.2675,18.718],[80.2467,18.7013],[80.2019,18.6974],[80.189,18.6756],[80.1674,18.6801],[80.1581,18.6959],[80.1066,18.6775],[80.0821,18.7024],[80.0464,18.7209],[80.0329,18.7464],[80.0124,18.7668],[79.932,18.7844],[79.9163,18.7973],[79.894,18.8308]]]},"properties":{"NAME_1":"Andhra Pradesh","NAME_2":"Karimnagar"}},{"type":"Feature","geometry":{"type":"Polygon","coordinates":[[[81.385,17.8066],[81.3151,17.8123],[81.254,17.8121],[81.192,17.8471],[81.1596,17.8526],[81.0977,17.8171],[81.0736,17.7863],[81.0324,17.7897],[81.0043,17.8383],[80.9943,17.9142],[80.9846,17.9229],[80.9726,17.9932],[80.9623,18.0315],[80.966,18.0435],[80.9484,18.0913],[80.9494,18.1232],[80.9726,18.1436],[80.9737,18.1681],[80.9007,18.1347],[80.862,18.1327],[80.8558,18.1429],[80.8492,18.2002],[80.8675,18.2073],[80.8591,18.226],[80.8242,18.2336],[80.8172,18.2252],[80.8187,18.192],[80.7979,18.1663],[80.7624,18.163],[80.7346,18.1717],[80.7333,18.2188],[80.7843,18.2433],[80.7664,18.2782],[80.7446,18.3022],[80.7444,18.3169],[80.7228,18.3613],[80.713,18.4057],[80.691,18.4193],[80.6953,18.4346],[80.6805,18.4536],[80.6508,18.4723],[80.6368,18.4939],[80.6327,18.5188],[80.6138,18.5261],[80.601,18.545],[80.532,18.5861],[80.5107,18.6157],[80.4884,18.6267],[80.4502,18.6264],[80.4021,18.6072],[80.3816,18.5936],[80.3949,18.5669],[80.3688,18.5229],[80.3736,18.4686],[80.3969,18.4533],[80.4335,18.4553],[80.4577,18.4422],[80.4503,18.3994],[80.4679,18.3802],[80.4598,18.3498],[80.4667,18.3014],[80.4968,18.2608],[80.5304,18.2556],[80.621,18.1986],[80.6261,18.186],[80.6585,18.1651],[80.6486,18.1281],[80.6313,18.1048],[80.6124,18.1074],[80.5904,18.0764],[80.5578,18.0968],[80.5235,18.0982],[80.4925,18.1334],[80.4718,18.1201],[80.4489,18.0612],[80.4278,18.0532],[80.3875,18.0762],[80.3412,18.0308],[80.3376,18.0114],[80.3059,17.9713],[80.2697,17.9623],[80.2652,17.9277],[80.2759,17.9032],[80.2651,17.8542],[80.2461,17.8218],[80.252,17.7433],[80.231,17.7459],[80.1653,17.7059],[80.1564,17.747],[80.1286,17.7282],[80.0686,17.7053],[80.0439,17.7091],[80.0368,17.6912],[80.0677,17.6757],[80.0823,17.6534],[80.0681,17.6459],[80.0464,17.5899],[80.0794,17.5694],[80.0722,17.5494],[80.0763,17.5215],[80.0923,17.4903],[80.1201,17.4757],[80.1208,17.4401],[80.1614,17.4484],[80.1527,17.3876],[80.1128,17.3748],[80.0951,17.3531],[80.0727,17.3609],[80.0465,17.3406],[79.9921,17.3565],[79.9821,17.3675],[79.9788,17.3943],[79.9619,17.3983],[79.9278,17.3847],[79.9237,17.3688],[79.8886,17.3656],[79.8717,17.353],[79.8644,17.3271],[79.833,17.3225],[79.8116,17.3304],[79.7851,17.3135],[79.8182,17.2699],[79.872,17.2614],[79.8896,17.2465],[79.8916,17.2119],[79.8724,17.2026],[79.8676,17.18],[79.9011,17.151],[79.9056,17.1288],[79.933,17.1261],[79.9712,17.0935],[79.9918,17.0624],[80.0128,17.0498],[80.054,17.0101],[80.0433,16.993],[80.0459,16.9653],[80.0842,16.9632],[80.0877,16.9874],[80.1058,16.9813],[80.1339,16.9854],[80.1425,17.0015],[80.1821,17.0449],[80.1955,17.018],[80.2178,17.0196],[80.2411,17.0028],[80.2622,17.0106],[80.3014,16.9559],[80.3133,16.912],[80.3192,16.8709],[80.335,16.8557],[80.3586,16.8549],[80.3729,16.8111],[80.4187,16.8423],[80.4228,16.8293],[80.4526,16.8153],[80.4564,16.79],[80.4895,16.7759],[80.5628,16.7628],[80.5975,16.7851],[80.5858,16.8067],[80.5546,16.8248],[80.5624,16.8363],[80.565,16.869],[80.5867,16.8739],[80.5842,16.9265],[80.5695,16.9269],[80.5317,16.9502],[80.5207,16.9364],[80.4913,16.9482],[80.4769,16.9212],[80.4425,16.9449],[80.3604,16.9705],[80.3712,16.9958],[80.3887,17.0141],[80.367,17.0566],[80.3951,17.0776],[80.4009,17.0542],[80.4205,17.0249],[80.4462,17.017],[80.4529,17.037],[80.4717,17.0381],[80.4847,17.0563],[80.4868,17.0829],[80.4965,17.1013],[80.5491,17.1236],[80.5602,17.138],[80.5951,17.1196],[80.6298,17.11],[80.6554,17.084],[80.6378,17.0719],[80.6492,17.0546],[80.684,17.0687],[80.7257,17.0646],[80.7466,17.0549],[80.8232,17.0378],[80.8325,17.0257],[80.8588,17.0509],[80.8642,17.0958],[80.855,17.1114],[80.8703,17.1463],[80.8889,17.1411],[80.9133,17.146],[80.9149,17.1698],[80.9053,17.2013],[80.9306,17.205],[80.956,17.1882],[80.9852,17.1794],[81.0262,17.1867],[81.0439,17.2045],[81.1455,17.2317],[81.1628,17.2326],[81.1806,17.2546],[81.1711,17.2667],[81.172,17.3055],[81.1903,17.3274],[81.2188,17.3217],[81.2672,17.32],[81.2892,17.3375],[81.3225,17.3892],[81.3429,17.3854],[81.3498,17.3685],[81.3852,17.3551],[81.4156,17.3616],[81.4415,17.3817],[81.4934,17.4488],[81.4982,17.49],[81.5014,17.5394],[81.5239,17.5726],[81.5029,17.5899],[81.5119,17.6099],[81.5341,17.6304],[81.5536,17.6664],[81.5712,17.6879],[81.573,17.7187],[81.6092,17.7436],[81.6231,17.7628],[81.6747,17.7671],[81.6982,17.7845],[81.704,17.7996],[81.7296,17.8193],[81.7529,17.8183],[81.7944,17.8442],[81.7814,17.8707],[81.7583,17.8934],[81.7032,17.8611],[81.6883,17.8848],[81.6681,17.8784],[81.6527,17.8682],[81.6461,17.8469],[81.6366,17.8363],[81.6157,17.822],[81.594,17.8191],[81.5749,17.8273],[81.5539,17.8164],[81.4812,17.8029],[81.4727,17.8179],[81.4668,17.8249],[81.4376,17.8153],[81.4143,17.8164],[81.4093,17.8048],[81.385,17.8066]]]},"properties":{"NAME_1":"Andhra Pradesh","NAME_2":"Khammam"}},{"type":"Feature","geometry":{"type":"Polygon","coordinates":[[[80.8588,17.0509],[80.8325,17.0257],[80.8232,17.0378],[80.7466,17.0549],[80.7257,17.0646],[80.684,17.0687],[80.6492,17.0546],[80.6378,17.0719],[80.6554,17.084],[80.6298,17.11],[80.5951,17.1196],[80.5602,17.138],[80.5491,17.1236],[80.4965,17.1013],[80.4868,17.0829],[80.4847,17.0563],[80.4717,17.0381],[80.4529,17.037],[80.4462,17.017],[80.4205,17.0249],[80.4009,17.0542],[80.3951,17.0776],[80.367,17.0566],[80.3887,17.0141],[80.3712,16.9958],[80.3604,16.9705],[80.4425,16.9449],[80.4769,16.9212],[80.4913,16.9482],[80.5207,16.9364],[80.5317,16.9502],[80.5695,16.9269],[80.5842,16.9265],[80.5867,16.8739],[80.565,16.869],[80.5624,16.8363],[80.5546,16.8248],[80.5858,16.8067],[80.5975,16.7851],[80.5628,16.7628],[80.4895,16.7759],[80.4564,16.79],[80.4526,16.8153],[80.4228,16.8293],[80.4187,16.8423],[80.3729,16.8111],[80.3586,16.8549],[80.335,16.8557],[80.3192,16.8709],[80.3133,16.912],[80.3014,16.9559],[80.2622,17.0106],[80.2411,17.0028],[80.2178,17.0196],[80.1955,17.018],[80.1821,17.0449],[80.1425,17.0015],[80.1339,16.9854],[80.1058,16.9813],[80.0877,16.9874],[80.0842,16.9632],[80.0459,16.9653],[80.0371,16.9365],[80.0096,16.9073],[79.9917,16.8633],[80.0331,16.8524],[80.0418,16.8261],[80.0697,16.8136],[80.1024,16.8264],[80.1208,16.8047],[80.1396,16.7478],[80.1406,16.6968],[80.1287,16.6702],[80.1375,16.6555],[80.219,16.6155],[80.3101,16.6175],[80.366,16.6098],[80.3799,16.5942],[80.4062,16.5973],[80.4746,16.5884],[80.4996,16.5766],[80.5577,16.5359],[80.6361,16.4902],[80.6636,16.4616],[80.6805,16.4345],[80.7291,16.3726],[80.7667,16.3174],[80.8001,16.2751],[80.8414,16.1645],[80.8595,16.1324],[80.8686,16.0766],[80.88,16.0639],[80.8824,16.0363],[80.8955,15.9899],[80.8962,15.9129],[80.8749,15.8766],[80.8594,15.8374],[80.8417,15.8084],[80.8285,15.7575],[80.809,15.7318],[80.8221,15.7129],[80.8379,15.709],[80.9168,15.7201],[80.9379,15.7182],[80.9985,15.7501],[81.006,15.781],[80.9949,15.8035],[80.9979,15.8296],[81.0885,15.9304],[81.1457,15.9738],[81.141,16.0182],[81.1893,16.1035],[81.2024,16.1468],[81.2051,16.176],[81.2182,16.2099],[81.2426,16.2499],[81.2832,16.291],[81.3187,16.3132],[81.3926,16.3421],[81.4701,16.3532],[81.5088,16.3524],[81.5429,16.3582],[81.5629,16.3457],[81.567,16.3465],[81.5707,16.3494],[81.5471,16.3741],[81.5294,16.3804],[81.4914,16.3733],[81.475,16.3813],[81.4705,16.3892],[81.4451,16.4071],[81.4279,16.4029],[81.3984,16.422],[81.3624,16.4632],[81.3618,16.4989],[81.3304,16.5035],[81.3357,16.5609],[81.3431,16.5954],[81.3154,16.614],[81.3244,16.6682],[81.2989,16.6818],[81.276,16.6572],[81.2563,16.5959],[81.2121,16.5683],[81.1767,16.6138],[81.1542,16.6111],[81.1409,16.5878],[81.1252,16.5965],[81.0014,16.5518],[80.9949,16.5882],[80.9626,16.6234],[81.007,16.6412],[81.01,16.6551],[80.9832,16.6718],[80.9741,16.7076],[80.9909,16.7127],[81.0034,16.7337],[81.0047,16.7546],[81.0298,16.7886],[81.027,16.8071],[80.9996,16.8312],[80.9909,16.8606],[80.9803,16.8648],[80.955,16.8978],[80.9502,16.9151],[80.931,16.938],[80.9266,16.9549],[80.9335,16.9824],[80.9531,17.0101],[80.9555,17.0324],[80.9341,17.056],[80.8588,17.0509]]]},"properties":{"NAME_1":"Andhra Pradesh","NAME_2":"Krishna"}},{"type":"Feature","geometry":{"type":"Polygon","coordinates":[[[78.9134,16.1088],[78.9012,16.0976],[78.8727,16.1102],[78.8663,16.1439],[78.8565,16.1586],[78.8321,16.1518],[78.8365,16.0874],[78.808,16.0462],[78.775,16.0236],[78.739,16.0211],[78.6866,16.0404],[78.6365,16.0914],[78.6035,16.0964],[78.5591,16.0564],[78.4956,16.0731],[78.451,16.081],[78.4057,16.0809],[78.37,16.0598],[78.3404,16.0528],[78.3162,16.0292],[78.2682,16.0348],[78.2514,16.0257],[78.2597,15.9947],[78.2484,15.9683],[78.2429,15.937],[78.18,15.9004],[78.1815,15.8877],[78.1647,15.849],[78.1258,15.8489],[78.1269,15.8349],[78.1011,15.8279],[78.0637,15.8446],[78.0398,15.8981],[78.017,15.8951],[78.0019,15.8592],[77.9729,15.8741],[77.9283,15.8765],[77.8877,15.8959],[77.8669,15.8924],[77.8557,15.8758],[77.8338,15.8755],[77.7992,15.8653],[77.7161,15.8866],[77.6835,15.8739],[77.6396,15.8831],[77.6064,15.9117],[77.5884,15.907],[77.5095,15.9209],[77.467,15.9276],[77.4264,15.9423],[77.3762,15.9333],[77.3536,15.9437],[77.2824,15.9474],[77.2489,15.9577],[77.2361,15.9527],[77.1806,15.9501],[77.1434,15.9406],[77.0768,15.9097],[77.0332,15.8531],[77.0244,15.8295],[77.0639,15.8232],[77.0625,15.7784],[77.0467,15.7513],[77.0471,15.725],[77.0763,15.7214],[77.0844,15.709],[77.0759,15.6909],[77.125,15.6591],[77.1162,15.6251],[77.0814,15.6528],[77.0689,15.6409],[77.0271,15.6293],[77.0237,15.5764],[77.0289,15.5251],[77.0266,15.5],[76.996,15.4997],[76.9704,15.4909],[76.996,15.4675],[77.0061,15.4482],[77.0274,15.4352],[77.0285,15.4013],[77.0438,15.3837],[77.038,15.3588],[77.0629,15.3379],[77.0691,15.3195],[77.1097,15.3273],[77.1154,15.2899],[77.1479,15.2857],[77.1403,15.2516],[77.1209,15.2212],[77.1414,15.2181],[77.1582,15.1938],[77.1645,15.1685],[77.1528,15.1316],[77.1772,15.1369],[77.1926,15.153],[77.2168,15.1416],[77.2602,15.1358],[77.2886,15.1247],[77.3156,15.1698],[77.3467,15.1701],[77.3606,15.2156],[77.3811,15.2105],[77.404,15.2169],[77.4472,15.2142],[77.4786,15.2022],[77.4993,15.2145],[77.521,15.217],[77.5762,15.1819],[77.6065,15.1755],[77.6108,15.1978],[77.6299,15.1999],[77.6347,15.2149],[77.6563,15.2256],[77.7256,15.1627],[77.7269,15.1425],[77.7447,15.1215],[77.7681,15.1159],[77.7871,15.0973],[77.8122,15.1338],[77.8358,15.1238],[77.8695,15.1274],[77.8817,15.1686],[77.9144,15.1635],[77.9194,15.144],[77.9622,15.1492],[77.962,15.132],[77.9912,15.1286],[78.0183,15.1074],[78.008,15.0698],[77.9868,15.062],[77.9931,15.0377],[78.0104,15.0429],[78.0124,15.0183],[78.0384,14.9931],[78.0835,14.974],[78.0962,14.9622],[78.1181,14.959],[78.1368,14.938],[78.1581,14.9498],[78.1812,14.9518],[78.2191,14.9409],[78.2331,14.9535],[78.2406,14.9929],[78.2594,15.0163],[78.2796,15.0253],[78.2768,15.0543],[78.2887,15.0654],[78.329,15.0603],[78.3873,15.0466],[78.3692,15.0206],[78.3518,15.0203],[78.3415,14.9928],[78.3469,14.9816],[78.3856,14.9597],[78.4052,14.9561],[78.4096,14.9867],[78.4222,15.0263],[78.4871,15.0295],[78.4908,15.0602],[78.5142,15.0581],[78.5206,15.0246],[78.5179,14.9925],[78.5069,14.9605],[78.4874,14.9304],[78.4932,14.9101],[78.5266,14.9479],[78.5446,14.9487],[78.5433,14.9252],[78.5628,14.9206],[78.5953,14.9405],[78.6217,14.9339],[78.6277,14.9153],[78.6767,14.9285],[78.6832,14.955],[78.7101,14.9572],[78.7113,15.0131],[78.7542,15.03],[78.7609,15.0566],[78.7514,15.097],[78.7612,15.1777],[78.7416,15.1744],[78.7347,15.2336],[78.7353,15.2976],[78.7454,15.3548],[78.7656,15.3986],[78.7643,15.4453],[78.7718,15.525],[78.765,15.5933],[78.7655,15.656],[78.7716,15.6938],[78.7838,15.7301],[78.7983,15.8382],[78.805,15.8677],[78.8255,15.9002],[78.894,15.9573],[78.9134,15.9929],[78.9255,16.0628],[78.9134,16.1088]]]},"properties":{"NAME_1":"Andhra Pradesh","NAME_2":"Kurnool"}},{"type":"Feature","geometry":{"type":"Polygon","coordinates":[[[78.6951,16.9278],[78.6806,16.9255],[78.6435,16.9503],[78.6085,16.9539],[78.5788,16.9468],[78.5559,16.9757],[78.5254,16.9823],[78.5046,17.0084],[78.4778,16.9872],[78.4548,16.977],[78.4471,16.9952],[78.4201,17.0134],[78.3832,17.0302],[78.3601,17.0648],[78.3341,17.116],[78.3021,17.1462],[78.3047,17.169],[78.2888,17.22],[78.2654,17.2208],[78.2566,17.2018],[78.2213,17.2019],[78.2084,17.1815],[78.168,17.1669],[78.1773,17.0957],[78.1268,17.1082],[78.0971,17.0972],[78.0802,17.1213],[78.0933,17.1472],[78.0804,17.1911],[78.0503,17.1919],[78.0228,17.1689],[78.0044,17.1355],[77.9875,17.1229],[77.9855,17.0991],[77.9508,17.0935],[77.9309,17.0818],[77.918,17.0584],[77.9354,17.0195],[77.9741,17.0042],[77.9978,16.9738],[77.9835,16.9557],[78.0089,16.9458],[78.0058,16.8974],[77.9646,16.885],[77.9639,16.8649],[77.8609,16.8491],[77.8166,16.8608],[77.8047,16.8849],[77.7906,16.8706],[77.7536,16.8684],[77.7333,16.8768],[77.7399,16.9088],[77.7356,16.9341],[77.7575,16.9738],[77.7531,16.9838],[77.7639,17.0155],[77.7835,17.0391],[77.7704,17.0547],[77.7503,17.0581],[77.7645,17.1032],[77.7662,17.1254],[77.7834,17.1499],[77.7622,17.1985],[77.7846,17.2147],[77.7756,17.2308],[77.7308,17.2183],[77.7236,17.2024],[77.6926,17.1946],[77.6939,17.1768],[77.6618,17.179],[77.6132,17.1636],[77.6084,17.146],[77.5851,17.147],[77.576,17.1267],[77.548,17.1368],[77.5355,17.1628],[77.5092,17.1704],[77.4752,17.1713],[77.4817,17.1305],[77.4626,17.1041],[77.4781,17.061],[77.4932,17.033],[77.4994,17.0073],[77.4784,16.9902],[77.4792,16.968],[77.4641,16.9527],[77.4677,16.9171],[77.4534,16.909],[77.4604,16.8441],[77.4566,16.8237],[77.4718,16.7963],[77.4673,16.7766],[77.4353,16.7776],[77.4372,16.7631],[77.4234,16.7145],[77.4688,16.7087],[77.465,16.6783],[77.4166,16.6628],[77.4329,16.6376],[77.4614,16.6488],[77.4713,16.6435],[77.4539,16.6074],[77.4564,16.581],[77.4367,16.5812],[77.421,16.5652],[77.4153,16.5178],[77.3812,16.5115],[77.3663,16.4841],[77.3244,16.4809],[77.2966,16.4915],[77.292,16.4736],[77.2515,16.4679],[77.2644,16.4301],[77.2847,16.403],[77.3327,16.3883],[77.3525,16.3766],[77.3732,16.3799],[77.4117,16.3627],[77.4381,16.3744],[77.4814,16.3778],[77.5189,16.3701],[77.5352,16.3529],[77.5844,16.328],[77.5908,16.312],[77.5807,16.2861],[77.565,16.2977],[77.5244,16.2698],[77.5012,16.2678],[77.4876,16.2498],[77.4953,16.213],[77.4949,16.1871],[77.4836,16.1586],[77.4867,16.1158],[77.5029,16.0732],[77.4907,16.0306],[77.5101,16.0023],[77.5055,15.9727],[77.5149,15.9632],[77.5095,15.9209],[77.5884,15.907],[77.6064,15.9117],[77.6396,15.8831],[77.6835,15.8739],[77.7161,15.8866],[77.7992,15.8653],[77.8338,15.8755],[77.8557,15.8758],[77.8669,15.8924],[77.8877,15.8959],[77.9283,15.8765],[77.9729,15.8741],[78.0019,15.8592],[78.017,15.8951],[78.0398,15.8981],[78.0637,15.8446],[78.1011,15.8279],[78.1269,15.8349],[78.1258,15.8489],[78.1647,15.849],[78.1815,15.8877],[78.18,15.9004],[78.2429,15.937],[78.2484,15.9683],[78.2597,15.9947],[78.2514,16.0257],[78.2682,16.0348],[78.3162,16.0292],[78.3404,16.0528],[78.37,16.0598],[78.4057,16.0809],[78.451,16.081],[78.4956,16.0731],[78.5591,16.0564],[78.6035,16.0964],[78.6365,16.0914],[78.6866,16.0404],[78.739,16.0211],[78.775,16.0236],[78.808,16.0462],[78.8365,16.0874],[78.8321,16.1518],[78.8565,16.1586],[78.8663,16.1439],[78.8727,16.1102],[78.9012,16.0976],[78.9134,16.1088],[78.9209,16.1337],[78.9056,16.1649],[78.9081,16.191],[78.959,16.2172],[78.9924,16.2283],[79.0201,16.2443],[79.0686,16.2381],[79.123,16.2379],[79.1627,16.2202],[79.192,16.2227],[79.2251,16.2501],[79.2298,16.3002],[79.2279,16.3368],[79.2115,16.3628],[79.1834,16.375],[79.1104,16.4163],[79.0615,16.4539],[79.0098,16.4834],[78.9737,16.4876],[78.9249,16.5112],[78.9057,16.5442],[78.8665,16.5367],[78.8377,16.5413],[78.7978,16.5117],[78.7875,16.5103],[78.7516,16.5299],[78.6756,16.532],[78.7113,16.5755],[78.6673,16.6428],[78.7106,16.6429],[78.7052,16.6637],[78.7338,16.6942],[78.7507,16.701],[78.756,16.7391],[78.7819,16.7473],[78.7904,16.7737],[78.7868,16.8206],[78.7714,16.8384],[78.7778,16.8626],[78.7713,16.8751],[78.7446,16.8489],[78.7214,16.8659],[78.7437,16.9045],[78.6951,16.9278]]]},"properties":{"NAME_1":"Andhra Pradesh","NAME_2":"Mahbubnagar"}},{"type":"Feature","geometry":{"type":"Polygon","coordinates":[[[78.5631,18.2267],[78.5629,18.1851],[78.5297,18.1811],[78.4987,18.1685],[78.484,18.1544],[78.4922,18.1364],[78.4665,18.126],[78.4507,18.1298],[78.4362,18.1635],[78.4225,18.1551],[78.4094,18.1296],[78.3834,18.1216],[78.3548,18.1694],[78.3215,18.1973],[78.278,18.1462],[78.2567,18.1445],[78.2132,18.176],[78.2182,18.1854],[78.2077,18.2162],[78.1888,18.212],[78.1715,18.1872],[78.1664,18.167],[78.1724,18.1248],[78.1685,18.1039],[78.1362,18.0737],[78.0741,18.0767],[78.0366,18.0943],[78.0179,18.0942],[78.0054,18.1089],[77.9376,18.1101],[77.9181,18.1442],[77.8932,18.158],[77.9014,18.1918],[77.8612,18.1908],[77.8508,18.205],[77.8251,18.194],[77.7923,18.2032],[77.7686,18.1884],[77.7405,18.2239],[77.7208,18.2583],[77.6864,18.26],[77.6644,18.2813],[77.6252,18.2829],[77.599,18.2729],[77.5725,18.2406],[77.585,18.2167],[77.57,18.1892],[77.5794,18.1621],[77.5978,18.1518],[77.5935,18.1279],[77.5975,18.0843],[77.5673,18.0763],[77.5457,18.0538],[77.5531,18.0347],[77.6067,18.018],[77.6288,17.9925],[77.6462,17.9932],[77.6534,17.9694],[77.644,17.9464],[77.62,17.9445],[77.6166,17.9029],[77.5852,17.9082],[77.5925,17.8795],[77.5674,17.8661],[77.5543,17.8305],[77.526,17.8268],[77.5045,17.7826],[77.523,17.7796],[77.5545,17.7613],[77.562,17.7471],[77.5394,17.7254],[77.4943,17.716],[77.4893,17.7068],[77.4579,17.699],[77.4456,17.6575],[77.4508,17.6324],[77.4405,17.6041],[77.4399,17.5815],[77.49,17.5663],[77.5016,17.5409],[77.5274,17.5732],[77.5484,17.5495],[77.5854,17.5584],[77.5917,17.5327],[77.6212,17.5223],[77.6566,17.5213],[77.6856,17.5056],[77.7031,17.525],[77.7571,17.5562],[77.758,17.5783],[77.7699,17.599],[77.7485,17.6203],[77.7758,17.6254],[77.8117,17.6232],[77.8236,17.6431],[77.8514,17.6403],[77.8706,17.5972],[77.8697,17.5778],[77.9183,17.5708],[77.9351,17.5491],[77.9337,17.5356],[77.9588,17.5317],[77.9701,17.5153],[77.9605,17.4803],[77.991,17.4967],[78.0146,17.4719],[78.0494,17.4562],[78.066,17.5177],[78.0803,17.4935],[78.1056,17.4792],[78.1293,17.4844],[78.1405,17.469],[78.1619,17.4595],[78.2086,17.4827],[78.2133,17.436],[78.2576,17.4151],[78.2833,17.4294],[78.3008,17.4616],[78.2916,17.4877],[78.3301,17.5008],[78.349,17.5197],[78.3435,17.5399],[78.3567,17.5542],[78.3702,17.5999],[78.355,17.6196],[78.3765,17.6292],[78.3818,17.6615],[78.4147,17.6659],[78.4247,17.6973],[78.4453,17.7086],[78.4669,17.6914],[78.5077,17.682],[78.521,17.6958],[78.566,17.6833],[78.5931,17.6969],[78.6098,17.665],[78.6466,17.673],[78.658,17.6918],[78.6974,17.6802],[78.714,17.6626],[78.7373,17.6766],[78.7689,17.6718],[78.8057,17.7109],[78.8209,17.7384],[78.853,17.7477],[78.8634,17.805],[78.8699,17.8246],[78.8661,17.8625],[78.8353,17.8668],[78.8266,17.8896],[78.8457,17.901],[78.8494,17.9165],[78.8748,17.9594],[78.9017,17.9556],[78.9236,17.9895],[78.9442,17.9905],[78.948,18.0141],[78.9659,18.0279],[78.9937,17.9957],[79.0443,18.0294],[79.0701,18.0161],[79.0898,18.0209],[79.1092,18.0225],[79.1061,18.049],[79.1205,18.0784],[79.0589,18.0809],[79.0305,18.093],[79.0366,18.1227],[79.0095,18.139],[79.0139,18.1827],[79.0033,18.2],[78.9594,18.213],[78.959,18.2488],[78.9363,18.2539],[78.903,18.2471],[78.8918,18.2357],[78.843,18.2452],[78.8198,18.2549],[78.7739,18.2615],[78.7526,18.2253],[78.725,18.2154],[78.7217,18.2295],[78.6923,18.228],[78.6579,18.2459],[78.6253,18.2482],[78.5884,18.2436],[78.5631,18.2267]]]},"properties":{"NAME_1":"Andhra Pradesh","NAME_2":"Medak"}},{"type":"Feature","geometry":{"type":"Polygon","coordinates":[[[79.7851,17.3135],[79.7755,17.3465],[79.7597,17.369],[79.7794,17.3815],[79.7552,17.402],[79.7509,17.4248],[79.7207,17.425],[79.6964,17.447],[79.647,17.4658],[79.6471,17.4987],[79.6218,17.4859],[79.5869,17.4957],[79.5521,17.4962],[79.5312,17.5183],[79.5114,17.4896],[79.4849,17.4954],[79.4611,17.5103],[79.4146,17.5103],[79.3963,17.4947],[79.3517,17.5129],[79.3114,17.5241],[79.3008,17.5506],[79.2816,17.5523],[79.2682,17.5736],[79.2504,17.5565],[79.2197,17.5588],[79.2048,17.5864],[79.2004,17.6197],[79.1549,17.5737],[79.1414,17.588],[79.1454,17.6153],[79.1318,17.6244],[79.1175,17.6629],[79.09,17.674],[79.0682,17.7076],[79.0455,17.718],[79.0182,17.7046],[79.0087,17.7152],[78.9823,17.7842],[78.9287,17.7874],[78.9259,17.7937],[78.8634,17.805],[78.853,17.7477],[78.8209,17.7384],[78.8057,17.7109],[78.7689,17.6718],[78.7373,17.6766],[78.714,17.6626],[78.6921,17.6094],[78.6817,17.5738],[78.7072,17.5201],[78.7071,17.4347],[78.7541,17.4396],[78.7559,17.4232],[78.7397,17.3935],[78.7343,17.3548],[78.7637,17.3439],[78.7406,17.3211],[78.7613,17.3046],[78.741,17.2921],[78.7647,17.2537],[78.8,17.244],[78.8205,17.2315],[78.8074,17.2041],[78.7629,17.2143],[78.7881,17.1679],[78.7772,17.1562],[78.789,17.1359],[78.8327,17.1199],[78.8436,17.0819],[78.8394,17.0465],[78.8134,17.027],[78.824,17.0126],[78.7909,16.9852],[78.7832,16.9681],[78.7526,16.9725],[78.7482,16.9609],[78.7113,16.9632],[78.7004,16.9573],[78.6951,16.9278],[78.7437,16.9045],[78.7214,16.8659],[78.7446,16.8489],[78.7713,16.8751],[78.7778,16.8626],[78.7714,16.8384],[78.7868,16.8206],[78.7904,16.7737],[78.7819,16.7473],[78.756,16.7391],[78.7507,16.701],[78.7338,16.6942],[78.7052,16.6637],[78.7106,16.6429],[78.6673,16.6428],[78.7113,16.5755],[78.6756,16.532],[78.7516,16.5299],[78.7875,16.5103],[78.7978,16.5117],[78.8377,16.5413],[78.8665,16.5367],[78.9057,16.5442],[78.9249,16.5112],[78.9737,16.4876],[79.0098,16.4834],[79.0615,16.4539],[79.1104,16.4163],[79.1834,16.375],[79.2115,16.3628],[79.2191,16.4382],[79.2362,16.4585],[79.2241,16.4921],[79.2304,16.5193],[79.2608,16.5464],[79.2661,16.5615],[79.3455,16.5796],[79.4266,16.5825],[79.4506,16.6091],[79.4972,16.6305],[79.5367,16.6316],[79.574,16.6436],[79.5999,16.6633],[79.648,16.662],[79.683,16.6904],[79.7227,16.6926],[79.7505,16.7201],[79.7749,16.7295],[79.8103,16.6905],[79.8618,16.6982],[79.8733,16.6887],[79.8909,16.6496],[79.9237,16.6307],[79.9426,16.6326],[79.973,16.6595],[79.9915,16.6926],[80.0167,16.7118],[80.0479,16.7452],[80.0516,16.7713],[80.0697,16.8136],[80.0418,16.8261],[80.0331,16.8524],[79.9917,16.8633],[80.0096,16.9073],[80.0371,16.9365],[80.0459,16.9653],[80.0433,16.993],[80.054,17.0101],[80.0128,17.0498],[79.9918,17.0624],[79.9712,17.0935],[79.933,17.1261],[79.9056,17.1288],[79.9011,17.151],[79.8676,17.18],[79.8724,17.2026],[79.8916,17.2119],[79.8896,17.2465],[79.872,17.2614],[79.8182,17.2699],[79.7851,17.3135]]]},"properties":{"NAME_1":"Andhra Pradesh","NAME_2":"Nalgonda"}},{"type":"Feature","geometry":{"type":"MultiPolygon","coordinates":[[[[80.149,13.6185],[80.1332,13.5999],[80.1279,13.5785],[80.1513,13.5513],[80.1676,13.5899],[80.149,13.6185]]],[[[79.6167,15.0259],[79.5534,15.0334],[79.5425,15.0134],[79.5065,15.0283],[79.4901,15.0451],[79.4576,15.0542],[79.4117,15.047],[79.4061,15.0655],[79.3825,15.0671],[79.3755,15.0796],[79.351,15.0771],[79.3344,15.0957],[79.309,15.1064],[79.2956,15.0834],[79.2464,15.0993],[79.226,15.0967],[79.1897,15.0787],[79.1465,15.0822],[79.1218,15.0929],[79.0803,15.0766],[79.0673,15.0459],[79.0625,14.9618],[79.0842,14.883],[79.1129,14.8563],[79.1315,14.8103],[79.1336,14.7786],[79.1537,14.7428],[79.1672,14.7044],[79.1694,14.6776],[79.1591,14.6677],[79.173,14.6047],[79.2047,14.578],[79.2263,14.5781],[79.239,14.5495],[79.2639,14.5183],[79.2803,14.4749],[79.3072,14.4592],[79.3172,14.4199],[79.3485,14.368],[79.3543,14.3448],[79.3773,14.3316],[79.4035,14.2857],[79.4081,14.2551],[79.4184,14.2381],[79.4139,14.2058],[79.431,14.1104],[79.441,14.0966],[79.4391,14.0682],[79.4303,14.053],[79.4229,14.0075],[79.4441,13.9725],[79.4481,13.9338],[79.4332,13.8777],[79.4629,13.8849],[79.47,13.8985],[79.5429,13.9005],[79.5777,13.9071],[79.5849,13.8779],[79.6111,13.8731],[79.6233,13.8313],[79.6589,13.8227],[79.6641,13.8649],[79.6602,13.8777],[79.6704,13.9112],[79.7199,13.8896],[79.7217,13.8473],[79.7602,13.8375],[79.7722,13.8511],[79.7787,13.8985],[79.8002,13.9122],[79.8349,13.8415],[79.8501,13.8575],[79.8661,13.8532],[79.8732,13.8355],[79.8647,13.7714],[79.841,13.7549],[79.8595,13.6952],[79.8741,13.6894],[79.9371,13.6951],[79.9624,13.6753],[79.9491,13.6538],[79.961,13.6336],[79.9896,13.6304],[79.9922,13.6113],[80.0125,13.5833],[80.0119,13.5647],[80.0342,13.5625],[80.0295,13.5236],[80.0454,13.522],[80.0694,13.5376],[80.0758,13.5268],[80.0794,13.5294],[80.0887,13.5255],[80.0957,13.5098],[80.1004,13.5052],[80.1208,13.5024],[80.1327,13.4959],[80.1355,13.4922],[80.1447,13.4847],[80.1507,13.48],[80.1521,13.4789],[80.1565,13.4789],[80.1631,13.4776],[80.2162,13.4818],[80.2464,13.4654],[80.2599,13.4474],[80.276,13.3891],[80.3154,13.3715],[80.313,13.4279],[80.2949,13.4274],[80.2737,13.4446],[80.2621,13.4729],[80.2371,13.484],[80.1771,13.4949],[80.1615,13.4896],[80.1382,13.5124],[80.109,13.5193],[80.0863,13.5521],[80.0535,13.5829],[80.0721,13.6082],[80.0715,13.6349],[80.089,13.6538],[80.1035,13.6543],[80.1262,13.6115],[80.1387,13.6135],[80.1471,13.6618],[80.1415,13.694],[80.154,13.7032],[80.1871,13.6701],[80.1876,13.6482],[80.214,13.6274],[80.2643,13.5612],[80.2726,13.5165],[80.2818,13.4999],[80.2929,13.4471],[80.3151,13.4446],[80.301,13.4726],[80.2712,13.5574],[80.2432,13.6138],[80.2326,13.6696],[80.2363,13.7132],[80.2524,13.7829],[80.2449,13.8196],[80.2354,13.8318],[80.2201,13.8768],[80.1954,13.9246],[80.1718,13.984],[80.1576,14.0001],[80.1479,14.0279],[80.1326,14.1004],[80.1268,14.1662],[80.1287,14.2132],[80.1385,14.2701],[80.1699,14.3607],[80.1732,14.4257],[80.1824,14.5304],[80.1976,14.5796],[80.1974,14.5932],[80.1663,14.6218],[80.1438,14.7007],[80.1115,14.744],[80.0868,14.8218],[80.0829,14.8888],[80.0687,14.9271],[80.0535,15.0097],[80.046,15.0088],[80.0385,15.0077],[80.0299,15.0051],[80.0227,14.9974],[80.0228,14.9894],[80.0179,14.9832],[79.9898,14.9765],[79.975,15.0007],[79.9648,15.007],[79.9503,15.007],[79.9369,15.0094],[79.901,14.9954],[79.8847,14.9742],[79.8723,14.9659],[79.8674,14.9625],[79.8581,14.945],[79.8319,14.9464],[79.8133,14.9521],[79.7719,14.9655],[79.7854,14.9901],[79.7951,15.0459],[79.78,15.0509],[79.7642,15.0481],[79.7571,15.0415],[79.7462,15.0341],[79.7339,15.0217],[79.7142,15.0289],[79.6827,15.0238],[79.6598,15.0267],[79.6302,15.0268],[79.6167,15.0259]]]]},"properties":{"NAME_1":"Andhra Pradesh","NAME_2":"Nellore"}},{"type":"Feature","geometry":{"type":"Polygon","coordinates":[[[78.5286,18.9416],[78.4938,18.9637],[78.4383,18.9586],[78.4004,18.9879],[78.3647,18.9849],[78.3259,18.9575],[78.299,18.9445],[78.2768,18.9435],[78.2733,18.9687],[78.2604,18.9903],[78.2329,19.0026],[78.202,18.9984],[78.1573,18.9802],[78.1296,18.9585],[78.0691,18.9354],[78.048,18.919],[78.0293,18.8799],[77.9958,18.8816],[77.9684,18.8753],[77.9441,18.8423],[77.9426,18.8223],[77.9076,18.8295],[77.8375,18.8075],[77.8232,18.7685],[77.7865,18.6943],[77.7495,18.6898],[77.7329,18.676],[77.7297,18.6427],[77.743,18.6214],[77.7472,18.5891],[77.7279,18.5515],[77.7124,18.5544],[77.6576,18.5272],[77.6405,18.5539],[77.5973,18.5475],[77.5863,18.5029],[77.5706,18.4669],[77.5826,18.4431],[77.5602,18.435],[77.5285,18.4405],[77.5259,18.4274],[77.5552,18.4179],[77.5493,18.3877],[77.5214,18.3647],[77.5273,18.3394],[77.5534,18.3312],[77.5702,18.3082],[77.55,18.2913],[77.5978,18.2812],[77.599,18.2729],[77.6252,18.2829],[77.6644,18.2813],[77.6864,18.26],[77.7208,18.2583],[77.7405,18.2239],[77.7686,18.1884],[77.7923,18.2032],[77.8251,18.194],[77.8508,18.205],[77.8612,18.1908],[77.9014,18.1918],[77.8932,18.158],[77.9181,18.1442],[77.9376,18.1101],[78.0054,18.1089],[78.0179,18.0942],[78.0366,18.0943],[78.0741,18.0767],[78.1362,18.0737],[78.1685,18.1039],[78.1724,18.1248],[78.1664,18.167],[78.1715,18.1872],[78.1888,18.212],[78.2077,18.2162],[78.2182,18.1854],[78.2132,18.176],[78.2567,18.1445],[78.278,18.1462],[78.3215,18.1973],[78.3548,18.1694],[78.3834,18.1216],[78.4094,18.1296],[78.4225,18.1551],[78.4362,18.1635],[78.4507,18.1298],[78.4665,18.126],[78.4922,18.1364],[78.484,18.1544],[78.4987,18.1685],[78.5297,18.1811],[78.5629,18.1851],[78.5631,18.2267],[78.5439,18.266],[78.5172,18.2821],[78.5367,18.2998],[78.5457,18.3355],[78.5318,18.3651],[78.5323,18.388],[78.5474,18.4282],[78.5372,18.4556],[78.5211,18.4747],[78.5534,18.534],[78.5678,18.5448],[78.5891,18.5444],[78.5986,18.5756],[78.653,18.5973],[78.6737,18.6227],[78.6468,18.6573],[78.637,18.6937],[78.6368,18.7254],[78.6201,18.7344],[78.5796,18.7359],[78.5557,18.7614],[78.5629,18.7831],[78.5462,18.8221],[78.5407,18.874],[78.5173,18.9133],[78.5286,18.9416]]]},"properties":{"NAME_1":"Andhra Pradesh","NAME_2":"Nizamabad"}},{"type":"Feature","geometry":{"type":"Polygon","coordinates":[[[80.4283,15.8032],[80.4228,15.8388],[80.4427,15.8688],[80.4662,15.8788],[80.454,15.8999],[80.4355,15.9029],[80.3966,15.8835],[80.3822,15.9104],[80.3691,15.9765],[80.3922,16.0018],[80.3407,16.0186],[80.3304,16.0057],[80.2967,16.0443],[80.255,16.0371],[80.2344,16.0424],[80.2241,16.0222],[80.1852,16.0251],[80.1422,16.0353],[80.1286,16.0131],[80.0926,16],[80.0793,16.0119],[80.0787,16.0339],[80.0619,16.0599],[80.0638,16.0779],[80.0342,16.0807],[80.0452,16.1071],[80.0048,16.1062],[79.9909,16.1301],[79.9604,16.1335],[79.9364,16.1488],[79.9206,16.1438],[79.8896,16.1564],[79.8664,16.1535],[79.8573,16.1313],[79.9125,16.0696],[79.9052,16.055],[79.8828,16.049],[79.8628,16.0165],[79.8962,15.9979],[79.8951,15.9849],[79.9156,15.9559],[79.9069,15.9382],[79.8895,15.9332],[79.8782,15.9111],[79.8201,15.9301],[79.7934,15.9304],[79.7833,15.9047],[79.7588,15.8879],[79.7512,15.854],[79.7749,15.8341],[79.7713,15.8186],[79.7509,15.8156],[79.7147,15.8327],[79.7201,15.8516],[79.6918,15.8723],[79.6956,15.8901],[79.6544,15.9119],[79.6318,15.902],[79.6094,15.9144],[79.6084,15.9295],[79.5605,15.9387],[79.552,15.998],[79.5745,16.0133],[79.5618,16.0555],[79.5489,16.1336],[79.5502,16.1539],[79.5666,16.1888],[79.5534,16.244],[79.5474,16.2972],[79.5244,16.3106],[79.49,16.2939],[79.4556,16.3033],[79.4001,16.268],[79.3603,16.2355],[79.3344,16.2389],[79.2956,16.2225],[79.2175,16.1739],[79.2135,16.2152],[79.192,16.2227],[79.1627,16.2202],[79.123,16.2379],[79.0686,16.2381],[79.0201,16.2443],[78.9924,16.2283],[78.959,16.2172],[78.9081,16.191],[78.9056,16.1649],[78.9209,16.1337],[78.9134,16.1088],[78.9255,16.0628],[78.9134,15.9929],[78.894,15.9573],[78.8255,15.9002],[78.805,15.8677],[78.7983,15.8382],[78.7838,15.7301],[78.7716,15.6938],[78.7655,15.656],[78.765,15.5933],[78.7718,15.525],[78.7643,15.4453],[78.7656,15.3986],[78.7454,15.3548],[78.7353,15.2976],[78.7347,15.2336],[78.7416,15.1744],[78.7612,15.1777],[78.7884,15.1969],[78.8145,15.2],[78.8971,15.1893],[78.9214,15.1936],[78.9437,15.2168],[78.9536,15.1714],[78.9841,15.1596],[78.9984,15.1735],[79.0592,15.1677],[79.0488,15.1333],[79.0673,15.0459],[79.0803,15.0766],[79.1218,15.0929],[79.1465,15.0822],[79.1897,15.0787],[79.226,15.0967],[79.2464,15.0993],[79.2956,15.0834],[79.309,15.1064],[79.3344,15.0957],[79.351,15.0771],[79.3755,15.0796],[79.3825,15.0671],[79.4061,15.0655],[79.4117,15.047],[79.4576,15.0542],[79.4901,15.0451],[79.5065,15.0283],[79.5425,15.0134],[79.5534,15.0334],[79.6167,15.0259],[79.6302,15.0268],[79.6598,15.0267],[79.6827,15.0238],[79.7142,15.0289],[79.7339,15.0217],[79.7462,15.0341],[79.7571,15.0415],[79.7642,15.0481],[79.78,15.0509],[79.7951,15.0459],[79.7854,14.9901],[79.7719,14.9655],[79.8133,14.9521],[79.8319,14.9464],[79.8581,14.945],[79.8674,14.9625],[79.8723,14.9659],[79.8847,14.9742],[79.901,14.9954],[79.9369,15.0094],[79.9503,15.007],[79.9648,15.007],[79.975,15.0007],[79.9898,14.9765],[80.0179,14.9832],[80.0228,14.9894],[80.0227,14.9974],[80.0299,15.0051],[80.0385,15.0077],[80.046,15.0088],[80.0535,15.0097],[80.0479,15.0888],[80.0662,15.1568],[80.0835,15.1946],[80.0885,15.2193],[80.0829,15.2624],[80.0971,15.3135],[80.1271,15.3757],[80.2007,15.4654],[80.226,15.5532],[80.2374,15.601],[80.2704,15.6732],[80.3118,15.721],[80.3396,15.7474],[80.4283,15.8032]]]},"properties":{"NAME_1":"Andhra Pradesh","NAME_2":"Prakasam"}},{"type":"Feature","geometry":{"type":"Polygon","coordinates":[[[78.714,17.6626],[78.6974,17.6802],[78.658,17.6918],[78.6466,17.673],[78.6098,17.665],[78.5931,17.6969],[78.566,17.6833],[78.521,17.6958],[78.5077,17.682],[78.4669,17.6914],[78.4453,17.7086],[78.4247,17.6973],[78.4147,17.6659],[78.3818,17.6615],[78.3765,17.6292],[78.355,17.6196],[78.3702,17.5999],[78.3567,17.5542],[78.3435,17.5399],[78.349,17.5197],[78.3301,17.5008],[78.2916,17.4877],[78.3008,17.4616],[78.2833,17.4294],[78.2576,17.4151],[78.2133,17.436],[78.2086,17.4827],[78.1619,17.4595],[78.1405,17.469],[78.1293,17.4844],[78.1056,17.4792],[78.0803,17.4935],[78.066,17.5177],[78.0494,17.4562],[78.0146,17.4719],[77.991,17.4967],[77.9605,17.4803],[77.9701,17.5153],[77.9588,17.5317],[77.9337,17.5356],[77.9351,17.5491],[77.9183,17.5708],[77.8697,17.5778],[77.8706,17.5972],[77.8514,17.6403],[77.8236,17.6431],[77.8117,17.6232],[77.7758,17.6254],[77.7485,17.6203],[77.7699,17.599],[77.758,17.5783],[77.7571,17.5562],[77.7031,17.525],[77.6856,17.5056],[77.684,17.4729],[77.6481,17.4812],[77.6109,17.4699],[77.6106,17.4442],[77.5732,17.4542],[77.5726,17.4295],[77.5335,17.441],[77.5101,17.4273],[77.5107,17.4125],[77.5336,17.3988],[77.5213,17.3863],[77.5208,17.3621],[77.4826,17.3545],[77.4753,17.3682],[77.4516,17.3705],[77.4564,17.345],[77.4496,17.3149],[77.434,17.2883],[77.4545,17.2759],[77.3804,17.2198],[77.3915,17.1924],[77.3708,17.1901],[77.36,17.1616],[77.3763,17.1379],[77.4037,17.1232],[77.4626,17.1041],[77.4817,17.1305],[77.4752,17.1713],[77.5092,17.1704],[77.5355,17.1628],[77.548,17.1368],[77.576,17.1267],[77.5851,17.147],[77.6084,17.146],[77.6132,17.1636],[77.6618,17.179],[77.6939,17.1768],[77.6926,17.1946],[77.7236,17.2024],[77.7308,17.2183],[77.7756,17.2308],[77.7846,17.2147],[77.7622,17.1985],[77.7834,17.1499],[77.7662,17.1254],[77.7645,17.1032],[77.7503,17.0581],[77.7704,17.0547],[77.7835,17.0391],[77.7639,17.0155],[77.7531,16.9838],[77.7575,16.9738],[77.7356,16.9341],[77.7399,16.9088],[77.7333,16.8768],[77.7536,16.8684],[77.7906,16.8706],[77.8047,16.8849],[77.8166,16.8608],[77.8609,16.8491],[77.9639,16.8649],[77.9646,16.885],[78.0058,16.8974],[78.0089,16.9458],[77.9835,16.9557],[77.9978,16.9738],[77.9741,17.0042],[77.9354,17.0195],[77.918,17.0584],[77.9309,17.0818],[77.9508,17.0935],[77.9855,17.0991],[77.9875,17.1229],[78.0044,17.1355],[78.0228,17.1689],[78.0503,17.1919],[78.0804,17.1911],[78.0933,17.1472],[78.0802,17.1213],[78.0971,17.0972],[78.1268,17.1082],[78.1773,17.0957],[78.168,17.1669],[78.2084,17.1815],[78.2213,17.2019],[78.2566,17.2018],[78.2654,17.2208],[78.2888,17.22],[78.3047,17.169],[78.3021,17.1462],[78.3341,17.116],[78.3601,17.0648],[78.3832,17.0302],[78.4201,17.0134],[78.4471,16.9952],[78.4548,16.977],[78.4778,16.9872],[78.5046,17.0084],[78.5254,16.9823],[78.5559,16.9757],[78.5788,16.9468],[78.6085,16.9539],[78.6435,16.9503],[78.6806,16.9255],[78.6951,16.9278],[78.7004,16.9573],[78.7113,16.9632],[78.7482,16.9609],[78.7526,16.9725],[78.7832,16.9681],[78.7909,16.9852],[78.824,17.0126],[78.8134,17.027],[78.8394,17.0465],[78.8436,17.0819],[78.8327,17.1199],[78.789,17.1359],[78.7772,17.1562],[78.7881,17.1679],[78.7629,17.2143],[78.8074,17.2041],[78.8205,17.2315],[78.8,17.244],[78.7647,17.2537],[78.741,17.2921],[78.7613,17.3046],[78.7406,17.3211],[78.7637,17.3439],[78.7343,17.3548],[78.7397,17.3935],[78.7559,17.4232],[78.7541,17.4396],[78.7071,17.4347],[78.7072,17.5201],[78.6817,17.5738],[78.6921,17.6094],[78.714,17.6626]],[[78.43,17.412],[78.4577,17.4418],[78.473,17.469],[78.4855,17.4718],[78.4931,17.4665],[78.51,17.4485],[78.5274,17.4594],[78.5308,17.4356],[78.5163,17.3947],[78.5158,17.3857],[78.52,17.3565],[78.5094,17.3253],[78.4765,17.2992],[78.4619,17.303],[78.4347,17.3404],[78.4055,17.3445],[78.3955,17.3524],[78.3855,17.3845],[78.3869,17.4081],[78.4058,17.4292],[78.4153,17.4296],[78.43,17.412]]]},"properties":{"NAME_1":"Andhra Pradesh","NAME_2":"Rangareddi"}},{"type":"Feature","geometry":{"type":"Polygon","coordinates":[[[84.6814,19.1497],[84.665,19.1567],[84.6659,19.1353],[84.6612,19.1219],[84.6473,19.1204],[84.6293,19.1207],[84.5958,19.1152],[84.6056,19.0926],[84.6168,19.09],[84.6244,19.0744],[84.6336,19.0746],[84.6446,19.0845],[84.6632,19.0645],[84.6545,19.0523],[84.6477,19.0561],[84.6344,19.0555],[84.6301,19.0496],[84.6254,19.0528],[84.6233,19.0557],[84.6124,19.0497],[84.6095,19.0467],[84.6005,19.0329],[84.5877,19.013],[84.5736,19.0351],[84.5781,19.0621],[84.5706,19.0604],[84.568,19.0635],[84.5597,19.0596],[84.5477,19.0461],[84.5099,19.0375],[84.4978,19.0249],[84.4894,19.021],[84.4778,19.0079],[84.4757,18.9917],[84.4717,18.9812],[84.4374,18.9975],[84.4222,19.0085],[84.42,19.0125],[84.4146,19.0124],[84.4253,18.9953],[84.4256,18.9892],[84.4264,18.984],[84.428,18.9826],[84.4377,18.9657],[84.4345,18.9632],[84.4156,18.938],[84.42,18.9297],[84.4294,18.9137],[84.418,18.9007],[84.4062,18.9061],[84.4107,18.8983],[84.3978,18.8861],[84.3869,18.8899],[84.3653,18.8963],[84.3677,18.8893],[84.3742,18.8889],[84.3876,18.8777],[84.3862,18.8717],[84.3714,18.8754],[84.3547,18.8829],[84.3518,18.8778],[84.3613,18.8727],[84.3693,18.859],[84.3583,18.8513],[84.3552,18.8526],[84.336,18.8667],[84.3341,18.858],[84.3444,18.8327],[84.3424,18.8215],[84.3295,18.8045],[84.3322,18.792],[84.3157,18.7862],[84.3125,18.7792],[84.3089,18.7784],[84.3004,18.7817],[84.2785,18.7897],[84.2589,18.7748],[84.246,18.7734],[84.2312,18.7801],[84.2243,18.7843],[84.2038,18.7826],[84.1798,18.769],[84.1603,18.7723],[84.1549,18.776],[84.135,18.7668],[84.1279,18.7613],[84.1141,18.7551],[84.0856,18.7452],[84.0779,18.7489],[84.0658,18.7517],[84.0497,18.7773],[84.0479,18.7835],[84.0223,18.7986],[83.9915,18.8047],[83.9823,18.8],[83.964,18.8041],[83.9556,18.8031],[83.949,18.797],[83.9398,18.7966],[83.9357,18.8031],[83.9336,18.8069],[83.9206,18.8116],[83.9078,18.8164],[83.8955,18.8149],[83.8854,18.81],[83.8832,18.8197],[83.8643,18.839],[83.848,18.8476],[83.8371,18.8647],[83.8367,18.8727],[83.8423,18.8882],[83.8349,18.9093],[83.8231,18.9055],[83.8212,18.922],[83.8134,18.9336],[83.8148,18.9532],[83.8081,18.9684],[83.8025,18.9818],[83.7883,19.0078],[83.7815,19.0098],[83.7757,19.009],[83.7675,18.9984],[83.7411,18.9839],[83.7504,18.9444],[83.7615,18.9446],[83.7772,18.9191],[83.7705,18.9016],[83.79,18.8721],[83.8119,18.8534],[83.8161,18.8242],[83.7626,18.8158],[83.7535,18.8058],[83.7404,18.7661],[83.6772,18.7954],[83.6644,18.796],[83.6326,18.7669],[83.5772,18.7462],[83.5641,18.7314],[83.5354,18.7164],[83.518,18.691],[83.5373,18.6619],[83.5335,18.6112],[83.5131,18.5844],[83.5116,18.5503],[83.5333,18.5401],[83.5533,18.5584],[83.5983,18.5531],[83.6015,18.5107],[83.5552,18.4962],[83.554,18.4834],[83.5823,18.4618],[83.563,18.4437],[83.5649,18.4221],[83.5276,18.4332],[83.5217,18.4238],[83.4272,18.4293],[83.4061,18.4063],[83.4371,18.3762],[83.4208,18.3696],[83.4222,18.3364],[83.4327,18.3033],[83.4796,18.2789],[83.4918,18.2888],[83.5172,18.2703],[83.5127,18.2323],[83.5356,18.2307],[83.551,18.2158],[83.5685,18.2177],[83.567,18.1919],[83.6033,18.18],[83.5955,18.1578],[83.611,18.117],[83.6366,18.1005],[83.6596,18.0755],[83.7135,18.1107],[83.7846,18.1474],[83.8626,18.1757],[83.8863,18.1954],[83.9507,18.2168],[84.0113,18.2499],[84.0696,18.276],[84.1296,18.3143],[84.1254,18.3282],[84.1532,18.3765],[84.219,18.4418],[84.286,18.5015],[84.3562,18.5568],[84.3629,18.5885],[84.4407,18.664],[84.441,18.6801],[84.4901,18.7393],[84.5315,18.7721],[84.5546,18.796],[84.5571,18.8174],[84.5765,18.8371],[84.589,18.8726],[84.6146,18.9024],[84.6693,18.9515],[84.6646,18.9657],[84.6882,18.9732],[84.761,19.0713],[84.7302,19.0893],[84.719,19.0958],[84.6975,19.1088],[84.6983,19.1103],[84.6939,19.1216],[84.6973,19.1251],[84.7021,19.1511],[84.6976,19.1503],[84.6814,19.1497]]]},"properties":{"NAME_1":"Andhra Pradesh","NAME_2":"Srikakulam"}},{"type":"Feature","geometry":{"type":"Polygon","coordinates":[[[83.0658,18.3932],[83.0395,18.3701],[83.0116,18.3782],[82.992,18.375],[82.9764,18.3549],[82.9327,18.3514],[82.9027,18.3559],[82.8849,18.3786],[82.891,18.3922],[82.8187,18.4334],[82.7992,18.4394],[82.7762,18.4197],[82.7875,18.3902],[82.7779,18.3709],[82.7842,18.3542],[82.7671,18.3311],[82.7343,18.3133],[82.7026,18.3085],[82.6981,18.2963],[82.6649,18.2906],[82.6317,18.2285],[82.6095,18.2493],[82.5892,18.2567],[82.5856,18.281],[82.5897,18.3195],[82.6009,18.3661],[82.556,18.3885],[82.5352,18.3896],[82.5359,18.4083],[82.5538,18.4377],[82.5294,18.4429],[82.5231,18.5039],[82.4815,18.5151],[82.474,18.5368],[82.4291,18.4851],[82.4269,18.477],[82.3974,18.4516],[82.3807,18.4264],[82.3776,18.422],[82.3725,18.3981],[82.3749,18.3928],[82.3844,18.3724],[82.3811,18.3667],[82.3797,18.3574],[82.3502,18.3289],[82.3364,18.3201],[82.3344,18.3171],[82.3429,18.3073],[82.3487,18.3062],[82.358,18.3082],[82.3692,18.3178],[82.3751,18.318],[82.3884,18.3112],[82.3822,18.2843],[82.3671,18.2709],[82.3437,18.2717],[82.3339,18.2523],[82.3318,18.2468],[82.331,18.2334],[82.3213,18.2225],[82.3061,18.1957],[82.3193,18.1714],[82.3487,18.1618],[82.3652,18.1397],[82.3618,18.1292],[82.3334,18.1424],[82.3303,18.119],[82.3322,18.0941],[82.3432,18.0825],[82.3419,18.0713],[82.3369,18.0491],[82.3363,18.0473],[82.3249,18.0427],[82.3262,18.0465],[82.3173,18.0485],[82.317,18.036],[82.3132,18.0348],[82.3011,18.044],[82.2928,18.0543],[82.2878,18.0606],[82.2851,18.0594],[82.2789,18.0549],[82.267,18.0483],[82.2622,18.0363],[82.2582,18.0349],[82.2708,18.0107],[82.2689,17.992],[82.2532,17.9802],[82.2383,17.9839],[82.2308,17.9937],[82.1969,18.0087],[82.1851,18.0074],[82.1742,18.0155],[82.1603,18.0436],[82.1423,18.0436],[82.1304,18.0409],[82.1193,18.0512],[82.1106,18.0577],[82.108,18.054],[82.0892,18.0574],[82.0801,18.0604],[82.0699,18.0604],[82.0644,18.0584],[82.061,18.054],[82.0656,18.0489],[82.0452,18.0456],[82.0299,18.0565],[82.0066,18.0492],[82.0021,18.0282],[81.9889,18.0203],[81.9805,18.0113],[81.9731,18.0057],[81.9934,17.9781],[82.0051,17.9479],[82.0228,17.9285],[81.9947,17.8773],[82.0125,17.8474],[81.969,17.8337],[81.9588,17.8116],[81.9231,17.801],[81.8779,17.7662],[81.8592,17.7455],[81.8738,17.7327],[81.9279,17.7313],[81.9611,17.7358],[81.9584,17.7525],[81.9766,17.7589],[82.0088,17.7511],[82.0217,17.7207],[82.022,17.6784],[81.9945,17.6273],[82.0113,17.6076],[82.0222,17.6231],[82.0568,17.629],[82.0821,17.6436],[82.1194,17.6453],[82.154,17.6059],[82.177,17.6045],[82.2085,17.6288],[82.2353,17.6159],[82.2593,17.6134],[82.3116,17.5781],[82.3286,17.5809],[82.3234,17.539],[82.3262,17.5016],[82.3432,17.4886],[82.4027,17.4629],[82.4311,17.4671],[82.4475,17.4776],[82.4478,17.5029],[82.5055,17.4994],[82.5512,17.5105],[82.5651,17.4816],[82.5953,17.4526],[82.5811,17.4288],[82.5591,17.4121],[82.5448,17.3815],[82.5546,17.3588],[82.551,17.3335],[82.5327,17.324],[82.5138,17.2822],[82.5376,17.2463],[82.6232,17.2993],[82.7035,17.3438],[82.8849,17.4271],[82.9262,17.4435],[82.954,17.4599],[82.9851,17.4699],[83.0068,17.4982],[83.0329,17.5135],[83.1043,17.544],[83.161,17.5607],[83.1757,17.5754],[83.2157,17.594],[83.2349,17.6107],[83.2399,17.6332],[83.2601,17.644],[83.2954,17.6751],[83.2985,17.6943],[83.3418,17.7229],[83.3543,17.7571],[83.386,17.779],[83.4101,17.8104],[83.4187,17.8568],[83.4437,17.8724],[83.4515,17.9001],[83.4774,17.9185],[83.4451,17.9214],[83.4203,17.9311],[83.3975,17.912],[83.3704,17.9118],[83.3908,17.9585],[83.4084,17.977],[83.399,18.0092],[83.4006,18.0289],[83.3891,18.0421],[83.3508,18.0465],[83.3286,18.0344],[83.3062,18.0119],[83.3144,17.9913],[83.3021,17.9734],[83.225,17.9355],[83.2256,17.917],[83.2468,17.9018],[83.222,17.8741],[83.2033,17.8623],[83.1917,17.8346],[83.1637,17.8355],[83.1483,17.8259],[83.147,17.8213],[83.1406,17.8269],[83.1302,17.8597],[83.1176,17.8658],[83.1152,17.8915],[83.0966,17.9219],[83.0634,17.9311],[83.0442,17.945],[83.0008,17.9589],[82.9915,17.9906],[83.0066,18.0232],[83.0494,18.0775],[83.072,18.0793],[83.0926,18.0923],[83.0931,18.1238],[83.1441,18.1449],[83.133,18.1577],[83.0995,18.1508],[83.1038,18.1781],[83.0942,18.197],[83.1177,18.205],[83.123,18.1693],[83.1551,18.1746],[83.1433,18.1969],[83.1473,18.2167],[83.1295,18.2396],[83.1504,18.2433],[83.1748,18.2199],[83.1925,18.1861],[83.2141,18.2014],[83.2384,18.1921],[83.2411,18.2155],[83.2658,18.2157],[83.2602,18.2658],[83.215,18.2888],[83.2047,18.3243],[83.1646,18.3004],[83.1468,18.3324],[83.094,18.3501],[83.0788,18.312],[83.0654,18.3259],[83.0695,18.3416],[83.0658,18.3932]]]},"properties":{"NAME_1":"Andhra Pradesh","NAME_2":"Vishakhapatnam"}},{"type":"Feature","geometry":{"type":"Polygon","coordinates":[[[83.7705,18.9016],[83.7458,18.9182],[83.7263,18.9756],[83.7057,18.9852],[83.6998,19.015],[83.6844,19.0439],[83.6569,19.0749],[83.6447,19.1133],[83.6191,19.1419],[83.5943,19.1203],[83.6044,19.0929],[83.5822,19.0756],[83.5788,19.0498],[83.5515,19.0504],[83.5348,19.0286],[83.5137,19.0248],[83.5054,19.0648],[83.4925,19.055],[83.477,19.0753],[83.4594,19.0697],[83.4654,19.0362],[83.4774,19.0255],[83.4746,19.0003],[83.4485,18.9996],[83.4623,18.9592],[83.4427,18.9477],[83.4148,18.9779],[83.4089,18.9962],[83.3623,18.9947],[83.3409,19.0092],[83.3292,18.9882],[83.3078,18.9909],[83.3133,18.9666],[83.3269,18.9573],[83.3611,18.9534],[83.3628,18.9301],[83.3477,18.921],[83.3878,18.871],[83.3987,18.8335],[83.36,18.8074],[83.2795,18.7896],[83.2661,18.757],[83.2396,18.7588],[83.223,18.748],[83.1854,18.7441],[83.1685,18.7591],[83.1508,18.7587],[83.133,18.7724],[83.0881,18.7124],[83.0779,18.7053],[83.051,18.6542],[83.0115,18.639],[83.0203,18.6054],[83.008,18.5884],[83.0365,18.5776],[83.0255,18.5643],[83.0512,18.5349],[83.0715,18.5425],[83.0885,18.5328],[83.0518,18.4775],[83.0164,18.4477],[83.0373,18.4348],[83.0426,18.4183],[83.0658,18.3932],[83.0695,18.3416],[83.0654,18.3259],[83.0788,18.312],[83.094,18.3501],[83.1468,18.3324],[83.1646,18.3004],[83.2047,18.3243],[83.215,18.2888],[83.2602,18.2658],[83.2658,18.2157],[83.2411,18.2155],[83.2384,18.1921],[83.2141,18.2014],[83.1925,18.1861],[83.1748,18.2199],[83.1504,18.2433],[83.1295,18.2396],[83.1473,18.2167],[83.1433,18.1969],[83.1551,18.1746],[83.123,18.1693],[83.1177,18.205],[83.0942,18.197],[83.1038,18.1781],[83.0995,18.1508],[83.133,18.1577],[83.1441,18.1449],[83.0931,18.1238],[83.0926,18.0923],[83.072,18.0793],[83.0494,18.0775],[83.0066,18.0232],[82.9915,17.9906],[83.0008,17.9589],[83.0442,17.945],[83.0634,17.9311],[83.0966,17.9219],[83.1152,17.8915],[83.1176,17.8658],[83.1302,17.8597],[83.1406,17.8269],[83.147,17.8213],[83.1483,17.8259],[83.1637,17.8355],[83.1917,17.8346],[83.2033,17.8623],[83.222,17.8741],[83.2468,17.9018],[83.2256,17.917],[83.225,17.9355],[83.3021,17.9734],[83.3144,17.9913],[83.3062,18.0119],[83.3286,18.0344],[83.3508,18.0465],[83.3891,18.0421],[83.4006,18.0289],[83.399,18.0092],[83.4084,17.977],[83.3908,17.9585],[83.3704,17.9118],[83.3975,17.912],[83.4203,17.9311],[83.4451,17.9214],[83.4774,17.9185],[83.5296,17.9493],[83.559,17.9835],[83.5704,18.0143],[83.6596,18.0755],[83.6366,18.1005],[83.611,18.117],[83.5955,18.1578],[83.6033,18.18],[83.567,18.1919],[83.5685,18.2177],[83.551,18.2158],[83.5356,18.2307],[83.5127,18.2323],[83.5172,18.2703],[83.4918,18.2888],[83.4796,18.2789],[83.4327,18.3033],[83.4222,18.3364],[83.4208,18.3696],[83.4371,18.3762],[83.4061,18.4063],[83.4272,18.4293],[83.5217,18.4238],[83.5276,18.4332],[83.5649,18.4221],[83.563,18.4437],[83.5823,18.4618],[83.554,18.4834],[83.5552,18.4962],[83.6015,18.5107],[83.5983,18.5531],[83.5533,18.5584],[83.5333,18.5401],[83.5116,18.5503],[83.5131,18.5844],[83.5335,18.6112],[83.5373,18.6619],[83.518,18.691],[83.5354,18.7164],[83.5641,18.7314],[83.5772,18.7462],[83.6326,18.7669],[83.6644,18.796],[83.6772,18.7954],[83.7404,18.7661],[83.7535,18.8058],[83.7626,18.8158],[83.8161,18.8242],[83.8119,18.8534],[83.79,18.8721],[83.7705,18.9016]]]},"properties":{"NAME_1":"Andhra Pradesh","NAME_2":"Vizianagaram"}},{"type":"Feature","geometry":{"type":"Polygon","coordinates":[[[80.3816,18.5936],[80.367,18.6047],[80.3367,18.5905],[80.2994,18.584],[80.262,18.5836],[80.222,18.5479],[80.2178,18.4151],[80.2114,18.3853],[80.1672,18.3438],[80.1399,18.3684],[80.1456,18.4086],[80.0912,18.4269],[80.0765,18.4177],[80.0694,18.3823],[80.0525,18.3961],[80.0237,18.3961],[80.0174,18.4125],[80.0325,18.4265],[80.0718,18.4232],[80.0977,18.4529],[80.0698,18.471],[80.0455,18.4774],[80.0788,18.5136],[80.0335,18.5117],[80.0178,18.4642],[79.9857,18.4859],[79.963,18.4728],[79.9518,18.5027],[79.907,18.5098],[79.8787,18.5063],[79.9002,18.4656],[79.9184,18.4548],[79.9156,18.4198],[79.8739,18.4402],[79.8499,18.4807],[79.826,18.4963],[79.8101,18.4916],[79.806,18.472],[79.8203,18.4313],[79.8066,18.4142],[79.785,18.4266],[79.7556,18.4678],[79.7134,18.4911],[79.6786,18.4926],[79.6509,18.4686],[79.6312,18.4733],[79.5903,18.4664],[79.589,18.4432],[79.573,18.4214],[79.579,18.405],[79.5738,18.3714],[79.5799,18.3473],[79.567,18.3072],[79.5691,18.2755],[79.586,18.2453],[79.6166,18.1779],[79.6028,18.1402],[79.5799,18.1403],[79.5566,18.101],[79.5063,18.0968],[79.4718,18.1101],[79.4545,18.0737],[79.3683,18.0154],[79.3514,18.0209],[79.2849,18.0129],[79.2505,17.996],[79.2514,17.9764],[79.2274,17.9759],[79.1867,17.9903],[79.1444,17.9817],[79.1424,17.9997],[79.0898,18.0209],[79.0701,18.0161],[79.0443,18.0294],[78.9937,17.9957],[78.9659,18.0279],[78.948,18.0141],[78.9442,17.9905],[78.9236,17.9895],[78.9017,17.9556],[78.8748,17.9594],[78.8494,17.9165],[78.8457,17.901],[78.8266,17.8896],[78.8353,17.8668],[78.8661,17.8625],[78.8699,17.8246],[78.8634,17.805],[78.9259,17.7937],[78.9287,17.7874],[78.9823,17.7842],[79.0087,17.7152],[79.0182,17.7046],[79.0455,17.718],[79.0682,17.7076],[79.09,17.674],[79.1175,17.6629],[79.1318,17.6244],[79.1454,17.6153],[79.1414,17.588],[79.1549,17.5737],[79.2004,17.6197],[79.2048,17.5864],[79.2197,17.5588],[79.2504,17.5565],[79.2682,17.5736],[79.2816,17.5523],[79.3008,17.5506],[79.3114,17.5241],[79.3517,17.5129],[79.3963,17.4947],[79.4146,17.5103],[79.4611,17.5103],[79.4849,17.4954],[79.5114,17.4896],[79.5312,17.5183],[79.5521,17.4962],[79.5869,17.4957],[79.6218,17.4859],[79.6471,17.4987],[79.647,17.4658],[79.6964,17.447],[79.7207,17.425],[79.7509,17.4248],[79.7552,17.402],[79.7794,17.3815],[79.7597,17.369],[79.7755,17.3465],[79.7851,17.3135],[79.8116,17.3304],[79.833,17.3225],[79.8644,17.3271],[79.8717,17.353],[79.8886,17.3656],[79.9237,17.3688],[79.9278,17.3847],[79.9619,17.3983],[79.9788,17.3943],[79.9821,17.3675],[79.9921,17.3565],[80.0465,17.3406],[80.0727,17.3609],[80.0951,17.3531],[80.1128,17.3748],[80.1527,17.3876],[80.1614,17.4484],[80.1208,17.4401],[80.1201,17.4757],[80.0923,17.4903],[80.0763,17.5215],[80.0722,17.5494],[80.0794,17.5694],[80.0464,17.5899],[80.0681,17.6459],[80.0823,17.6534],[80.0677,17.6757],[80.0368,17.6912],[80.0439,17.7091],[80.0686,17.7053],[80.1286,17.7282],[80.1564,17.747],[80.1653,17.7059],[80.231,17.7459],[80.252,17.7433],[80.2461,17.8218],[80.2651,17.8542],[80.2759,17.9032],[80.2652,17.9277],[80.2697,17.9623],[80.3059,17.9713],[80.3376,18.0114],[80.3412,18.0308],[80.3875,18.0762],[80.4278,18.0532],[80.4489,18.0612],[80.4718,18.1201],[80.4925,18.1334],[80.5235,18.0982],[80.5578,18.0968],[80.5904,18.0764],[80.6124,18.1074],[80.6313,18.1048],[80.6486,18.1281],[80.6585,18.1651],[80.6261,18.186],[80.621,18.1986],[80.5304,18.2556],[80.4968,18.2608],[80.4667,18.3014],[80.4598,18.3498],[80.4679,18.3802],[80.4503,18.3994],[80.4577,18.4422],[80.4335,18.4553],[80.3969,18.4533],[80.3736,18.4686],[80.3688,18.5229],[80.3949,18.5669],[80.3816,18.5936]]]},"properties":{"NAME_1":"Andhra Pradesh","NAME_2":"Warangal"}},{"type":"Feature","geometry":{"type":"Polygon","coordinates":[[[81.7106,16.3199],[81.7135,16.3564],[81.6964,16.4279],[81.7028,16.4481],[81.7217,16.4477],[81.742,16.4254],[81.7628,16.4385],[81.7833,16.4686],[81.8094,16.4928],[81.8435,16.5138],[81.854,16.5373],[81.858,16.6053],[81.8363,16.6461],[81.7898,16.6954],[81.7793,16.7221],[81.7764,16.755],[81.752,16.7725],[81.7393,16.8032],[81.7446,16.8561],[81.728,16.8874],[81.7193,16.9274],[81.7325,16.9907],[81.7271,17.0354],[81.7172,17.0606],[81.6829,17.1034],[81.6637,17.1357],[81.6561,17.1787],[81.643,17.2067],[81.6385,17.244],[81.6499,17.3126],[81.6087,17.3497],[81.5978,17.3927],[81.6041,17.4166],[81.5776,17.4209],[81.558,17.4435],[81.5241,17.454],[81.4982,17.49],[81.4934,17.4488],[81.4415,17.3817],[81.4156,17.3616],[81.3852,17.3551],[81.3498,17.3685],[81.3429,17.3854],[81.3225,17.3892],[81.2892,17.3375],[81.2672,17.32],[81.2188,17.3217],[81.1903,17.3274],[81.172,17.3055],[81.1711,17.2667],[81.1806,17.2546],[81.1628,17.2326],[81.1455,17.2317],[81.0439,17.2045],[81.0262,17.1867],[80.9852,17.1794],[80.956,17.1882],[80.9306,17.205],[80.9053,17.2013],[80.9149,17.1698],[80.9133,17.146],[80.8889,17.1411],[80.8703,17.1463],[80.855,17.1114],[80.8642,17.0958],[80.8588,17.0509],[80.9341,17.056],[80.9555,17.0324],[80.9531,17.0101],[80.9335,16.9824],[80.9266,16.9549],[80.931,16.938],[80.9502,16.9151],[80.955,16.8978],[80.9803,16.8648],[80.9909,16.8606],[80.9996,16.8312],[81.027,16.8071],[81.0298,16.7886],[81.0047,16.7546],[81.0034,16.7337],[80.9909,16.7127],[80.9741,16.7076],[80.9832,16.6718],[81.01,16.6551],[81.007,16.6412],[80.9626,16.6234],[80.9949,16.5882],[81.0014,16.5518],[81.1252,16.5965],[81.1409,16.5878],[81.1542,16.6111],[81.1767,16.6138],[81.2121,16.5683],[81.2563,16.5959],[81.276,16.6572],[81.2989,16.6818],[81.3244,16.6682],[81.3154,16.614],[81.3431,16.5954],[81.3357,16.5609],[81.3304,16.5035],[81.3618,16.4989],[81.3624,16.4632],[81.3984,16.422],[81.4279,16.4029],[81.4451,16.4071],[81.4705,16.3892],[81.475,16.3813],[81.4914,16.3733],[81.5294,16.3804],[81.5471,16.3741],[81.5707,16.3494],[81.567,16.3465],[81.5629,16.3457],[81.6479,16.3343],[81.6865,16.3321],[81.7106,16.3199]]]},"properties":{"NAME_1":"Andhra Pradesh","NAME_2":"West Godavari"}}]}