{"type":"FeatureCollection","features":[{"type":"Feature","geometry":{"type":"Polygon","coordinates":[[[96.9006,27.6243],[96.8652,27.6392],[96.8527,27.6323],[96.8061,27.6406],[96.7864,27.6505],[96.7721,27.6242],[96.7306,27.6552],[96.7036,27.6682],[96.6728,27.6551],[96.6444,27.6356],[96.6174,27.6457],[96.5998,27.6615],[96.5699,27.6643],[96.5226,27.644],[96.4836,27.6533],[96.4558,27.6483],[96.4474,27.6592],[96.376,27.6519],[96.3551,27.6315],[96.3516,27.6131],[96.331,27.5862],[96.2923,27.5624],[96.2281,27.575],[96.1956,27.595],[96.1432,27.6136],[96.1288,27.626],[96.0645,27.6127],[96.0441,27.5929],[96.0017,27.5658],[95.8813,27.5532],[95.8799,27.5298],[95.8818,27.5151],[95.8896,27.5062],[95.8792,27.4927],[95.8813,27.4874],[95.8661,27.469],[95.8595,27.4626],[95.8529,27.4448],[95.8493,27.4303],[95.8576,27.4248],[95.8673,27.4172],[95.8642,27.4213],[95.8649,27.429],[95.8826,27.4441],[95.8904,27.4397],[95.89,27.4264],[95.8919,27.4098],[95.9112,27.44],[95.9333,27.4467],[95.9499,27.445],[95.9535,27.4408],[95.953,27.4333],[95.9611,27.4287],[95.9778,27.4323],[95.9802,27.4302],[95.9895,27.4217],[95.9909,27.4146],[96.0001,27.3976],[96.0021,27.3935],[96.0106,27.3813],[96.0149,27.3755],[96.0132,27.364],[95.9949,27.3602],[95.9773,27.3423],[95.9742,27.3394],[95.9842,27.3343],[95.9679,27.3246],[95.9656,27.3217],[95.9406,27.3096],[95.9123,27.2931],[95.9024,27.2878],[95.9043,27.2799],[95.9012,27.2764],[95.894,27.263],[95.8776,27.2674],[95.8608,27.2798],[95.8379,27.2871],[95.8063,27.2917],[95.7847,27.2791],[95.7319,27.2665],[95.7155,27.2591],[95.6954,27.2581],[95.637,27.2369],[95.6528,27.1807],[95.6553,27.1336],[95.6684,27.1057],[95.707,27.0428],[95.7198,27.0013],[95.7341,26.9733],[95.6529,26.9636],[95.6569,26.9547],[95.7114,26.9366],[95.755,26.9079],[95.7525,26.9302],[95.7637,26.945],[95.7609,26.964],[95.7796,26.99],[95.8153,27.0222],[95.838,27.0153],[95.8771,27.0205],[95.9571,27.0682],[95.9792,27.1107],[96.0169,27.1548],[96.0364,27.1961],[96.0864,27.2171],[96.1637,27.2545],[96.1821,27.2542],[96.2181,27.2696],[96.2343,27.2849],[96.2787,27.2794],[96.3108,27.302],[96.3477,27.2884],[96.3641,27.3002],[96.3916,27.2946],[96.4335,27.3099],[96.5,27.3094],[96.5307,27.298],[96.5618,27.3253],[96.6008,27.3446],[96.5983,27.3565],[96.6205,27.3728],[96.6461,27.3678],[96.6702,27.3723],[96.6937,27.3655],[96.7125,27.3807],[96.7407,27.3645],[96.773,27.365],[96.8024,27.3544],[96.8171,27.3295],[96.8497,27.3063],[96.8557,27.2803],[96.8851,27.268],[96.89,27.2369],[96.8634,27.2192],[96.8662,27.1997],[96.9184,27.1755],[96.9847,27.1667],[97.0302,27.1417],[97.0627,27.1112],[97.1086,27.1213],[97.131,27.1037],[97.1464,27.1028],[97.1559,27.1264],[97.1717,27.1368],[97.1499,27.1783],[97.1273,27.1852],[97.1167,27.2092],[97.0951,27.2214],[97.0941,27.2479],[97.0436,27.2898],[97.0403,27.3079],[97.0033,27.3299],[96.9975,27.3551],[96.969,27.3863],[96.9655,27.4154],[96.9414,27.427],[96.9333,27.4505],[96.9118,27.4627],[96.9139,27.4884],[96.9377,27.5301],[96.9158,27.5583],[96.914,27.5884],[96.8992,27.5936],[96.9006,27.6243]]]},"properties":{"NAME_1":"Arunachal Pradesh","NAME_2":"Changlang"}},{"type":"Feature","geometry":{"type":"Polygon","coordinates":[[[93.271,27.5954],[93.2415,27.6059],[93.2277,27.6394],[93.1943,27.6774],[93.2228,27.7174],[93.2077,27.7419],[93.1505,27.7397],[93.1382,27.7114],[93.1015,27.6829],[93.0789,27.6512],[93.0551,27.6504],[93.0402,27.638],[93.0289,27.6038],[92.9842,27.5634],[92.9504,27.5772],[92.9359,27.5926],[92.8954,27.6107],[92.8609,27.645],[92.7658,27.6464],[92.7483,27.6226],[92.7208,27.64],[92.6755,27.6055],[92.6462,27.5769],[92.6466,27.5359],[92.6783,27.5384],[92.7183,27.5571],[92.7713,27.5502],[92.7899,27.555],[92.8136,27.5252],[92.8106,27.4853],[92.8032,27.471],[92.8047,27.4202],[92.8214,27.4104],[92.8092,27.329],[92.8446,27.304],[92.8474,27.2907],[92.8882,27.2858],[92.8998,27.2096],[92.8162,27.1792],[92.7816,27.1823],[92.7499,27.1966],[92.7167,27.1772],[92.6498,27.1531],[92.6079,27.1414],[92.6002,27.0983],[92.5902,27.0802],[92.5978,27.0542],[92.6391,27.0185],[92.6589,27.0385],[92.7137,27.0261],[92.7691,27.033],[92.8366,27.0135],[92.8724,27.0077],[92.9167,26.9847],[92.9178,26.9642],[92.9974,26.9303],[93.0194,26.9168],[93.0688,26.9242],[93.0919,26.9155],[93.109,26.9273],[93.1843,26.9387],[93.2669,26.956],[93.3479,26.9632],[93.3907,26.96],[93.3808,26.9806],[93.3616,26.984],[93.3407,27.0032],[93.3433,27.0387],[93.3133,27.0813],[93.2938,27.0799],[93.2727,27.1054],[93.2135,27.1185],[93.2112,27.1328],[93.2454,27.156],[93.2707,27.1557],[93.31,27.1743],[93.2796,27.2095],[93.2649,27.2127],[93.2291,27.2004],[93.2254,27.2524],[93.2583,27.2764],[93.2948,27.2923],[93.2898,27.3311],[93.3223,27.3543],[93.3723,27.3732],[93.3683,27.4183],[93.3204,27.4431],[93.3269,27.4644],[93.32,27.491],[93.2946,27.5246],[93.3161,27.5354],[93.3307,27.5536],[93.3215,27.5671],[93.271,27.5954]]]},"properties":{"NAME_1":"Arunachal Pradesh","NAME_2":"East Kameng"}},{"type":"Feature","geometry":{"type":"Polygon","coordinates":[[[94.7585,28.5374],[94.7414,28.5003],[94.7517,28.4689],[94.7458,28.4599],[94.7633,28.4257],[94.7755,28.427],[94.8694,28.4157],[94.8786,28.408],[94.8921,28.3485],[94.9224,28.2971],[94.9208,28.2754],[94.9371,28.2434],[94.9063,28.2407],[94.8909,28.23],[94.9148,28.1991],[94.9087,28.1619],[94.9495,28.132],[94.9287,28.0997],[94.9007,28.0797],[94.9305,28.0534],[94.8872,28.0154],[94.883,28],[94.9223,28.0006],[94.9579,27.9842],[94.9545,27.959],[94.9254,27.8929],[94.9066,27.8837],[94.9174,27.8502],[94.8919,27.8134],[94.8874,27.7908],[94.8604,27.7609],[94.8609,27.7395],[94.8839,27.7421],[94.987,27.7709],[95.0388,27.7777],[95.0518,27.7902],[95.2365,27.8484],[95.3166,27.8711],[95.3843,27.842],[95.516,27.8818],[95.5164,27.9165],[95.5003,27.9506],[95.5083,27.9729],[95.5349,27.9945],[95.5597,28.0397],[95.5689,28.0827],[95.5705,28.1354],[95.5608,28.172],[95.5646,28.2588],[95.5363,28.2899],[95.5125,28.2778],[95.4628,28.2779],[95.4357,28.318],[95.4092,28.3194],[95.3774,28.2801],[95.3378,28.2732],[95.3366,28.2266],[95.3087,28.2219],[95.2819,28.1777],[95.2388,28.1625],[95.226,28.1497],[95.1957,28.1497],[95.1608,28.201],[95.134,28.2045],[95.1119,28.2266],[95.1084,28.2906],[95.12,28.2999],[95.12,28.336],[95.1107,28.3535],[95.0723,28.3978],[95.1014,28.428],[95.1026,28.4769],[95.0816,28.5049],[95.0525,28.5119],[95.0141,28.4956],[94.9977,28.5026],[94.9523,28.5608],[94.9267,28.5398],[94.8778,28.5259],[94.8568,28.548],[94.8394,28.555],[94.8068,28.5526],[94.7585,28.5374]]]},"properties":{"NAME_1":"Arunachal Pradesh","NAME_2":"East Siang"}},{"type":"Feature","geometry":{"type":"Polygon","coordinates":[[[93.2199,28.3355],[93.1938,28.318],[93.155,28.3185],[93.1248,28.3268],[93.0954,28.3071],[93.072,28.3093],[93.0219,28.2999],[93.0338,28.2631],[93.0004,28.2308],[92.986,28.2513],[92.9645,28.2618],[92.9129,28.235],[92.8953,28.2046],[92.8213,28.1739],[92.8193,28.1974],[92.7996,28.2022],[92.783,28.1837],[92.7366,28.1516],[92.7046,28.1366],[92.6802,28.118],[92.6629,28.0628],[92.6954,28.0484],[92.7395,27.9894],[92.7332,27.9779],[92.7565,27.9576],[92.7865,27.9511],[92.8205,27.9596],[92.8584,27.957],[92.8786,27.9389],[92.9295,27.9205],[92.9304,27.8759],[92.9439,27.8459],[92.9659,27.827],[93.0081,27.8209],[93.0717,27.8299],[93.0915,27.813],[93.1341,27.8247],[93.1738,27.8224],[93.1961,27.8473],[93.2173,27.8321],[93.2363,27.7979],[93.2297,27.7762],[93.2077,27.7419],[93.2228,27.7174],[93.1943,27.6774],[93.2277,27.6394],[93.2415,27.6059],[93.271,27.5954],[93.2848,27.6161],[93.3296,27.6392],[93.3917,27.6419],[93.4112,27.6955],[93.4282,27.7125],[93.4815,27.7198],[93.5179,27.7465],[93.5252,27.7731],[93.5446,27.7949],[93.5737,27.8095],[93.6076,27.8119],[93.6343,27.8289],[93.6561,27.8604],[93.6876,27.8895],[93.7749,27.8968],[93.8113,27.9113],[93.821,27.9283],[93.821,27.9598],[93.8428,28.0035],[93.8695,28.0253],[93.9106,28.0289],[93.8736,28.055],[93.8755,28.0731],[93.8533,28.0849],[93.8802,28.1093],[93.892,28.1302],[93.8499,28.2008],[93.8386,28.2405],[93.7646,28.2641],[93.745,28.2857],[93.7209,28.2923],[93.6795,28.3227],[93.6618,28.3079],[93.6268,28.3067],[93.6095,28.273],[93.5703,28.257],[93.5412,28.2688],[93.4748,28.282],[93.4517,28.2728],[93.4128,28.2892],[93.407,28.3076],[93.3847,28.3071],[93.3565,28.3451],[93.3353,28.354],[93.2925,28.341],[93.2811,28.3654],[93.2439,28.3614],[93.2199,28.3355]]]},"properties":{"NAME_1":"Arunachal Pradesh","NAME_2":"Kurung Kumey"}},{"type":"Feature","geometry":{"type":"Polygon","coordinates":[[[96.9006,27.6243],[96.9194,27.6315],[96.929,27.656],[96.9587,27.6743],[96.9783,27.6719],[97.0032,27.7105],[97.0157,27.7406],[97.0675,27.7597],[97.0964,27.7499],[97.1025,27.7934],[97.1243,27.7985],[97.1374,27.8151],[97.1603,27.8226],[97.2026,27.8644],[97.2565,27.9095],[97.3087,27.93],[97.3435,27.8941],[97.3648,27.8851],[97.389,27.8964],[97.3786,27.918],[97.3781,27.9862],[97.3986,28.0341],[97.3771,28.0391],[97.366,28.0681],[97.3118,28.07],[97.3102,28.0933],[97.339,28.1195],[97.3247,28.1482],[97.3308,28.163],[97.372,28.2004],[97.4006,28.2005],[97.3747,28.2256],[97.2821,28.2763],[97.2412,28.2751],[97.2242,28.2999],[97.1926,28.2944],[97.1694,28.3023],[97.1588,28.3269],[97.1259,28.3562],[97.0926,28.3697],[97.0518,28.3581],[97.0227,28.3263],[96.9965,28.3162],[96.9528,28.34],[96.9259,28.345],[96.92,28.3633],[96.8987,28.3859],[96.8265,28.3672],[96.7744,28.3741],[96.7575,28.4154],[96.6814,28.4512],[96.6646,28.4658],[96.5987,28.4662],[96.5595,28.453],[96.5511,28.4422],[96.5103,28.4183],[96.48,28.4246],[96.4583,28.4192],[96.432,28.3917],[96.4229,28.351],[96.3994,28.3445],[96.38,28.3641],[96.3709,28.3943],[96.3153,28.3884],[96.2981,28.3717],[96.2939,28.3532],[96.2684,28.3354],[96.2569,28.3142],[96.2399,28.3046],[96.2697,28.2442],[96.232,28.2439],[96.2051,28.2272],[96.1667,28.1893],[96.1457,28.1804],[96.1194,28.183],[96.1063,28.1947],[96.0508,28.1986],[96.0484,28.1765],[96.032,28.1651],[96.0272,28.135],[96.0117,28.1227],[96.0035,28.1006],[95.9818,28.0772],[95.9953,28.0575],[95.9895,28.0057],[95.9934,27.98],[95.9775,27.9685],[95.9523,27.9372],[95.9575,27.9329],[95.9538,27.9302],[95.9393,27.9098],[95.925,27.9009],[95.9226,27.8862],[95.914,27.8808],[95.9129,27.8781],[95.9114,27.873],[95.8942,27.861],[95.8663,27.8385],[95.8434,27.8215],[95.8289,27.8137],[95.8113,27.7937],[95.8009,27.7769],[95.7805,27.7582],[95.7848,27.7398],[95.7627,27.7329],[95.7582,27.7311],[95.7704,27.72],[95.7734,27.7054],[95.7727,27.7],[95.7931,27.6923],[95.7945,27.6842],[95.7778,27.6663],[95.7949,27.6528],[95.7996,27.643],[95.7973,27.6396],[95.7873,27.6323],[95.7961,27.6182],[95.798,27.6078],[95.8242,27.603],[95.8198,27.5903],[95.8319,27.5789],[95.867,27.5511],[95.8813,27.5532],[96.0017,27.5658],[96.0441,27.5929],[96.0645,27.6127],[96.1288,27.626],[96.1432,27.6136],[96.1956,27.595],[96.2281,27.575],[96.2923,27.5624],[96.331,27.5862],[96.3516,27.6131],[96.3551,27.6315],[96.376,27.6519],[96.4474,27.6592],[96.4558,27.6483],[96.4836,27.6533],[96.5226,27.644],[96.5699,27.6643],[96.5998,27.6615],[96.6174,27.6457],[96.6444,27.6356],[96.6728,27.6551],[96.7036,27.6682],[96.7306,27.6552],[96.7721,27.6242],[96.7864,27.6505],[96.8061,27.6406],[96.8527,27.6323],[96.8652,27.6392],[96.9006,27.6243]]]},"properties":{"NAME_1":"Arunachal Pradesh","NAME_2":"Lohit"}},{"type":"Feature","geometry":{"type":"Polygon","coordinates":[[[96.368,28.5635],[96.3474,28.5763],[96.2862,28.5973],[96.1792,28.6451],[96.1524,28.6547],[96.0721,28.6547],[96.011,28.6508],[95.9441,28.6413],[95.8733,28.6107],[95.7892,28.6069],[95.7759,28.5935],[95.7529,28.5935],[95.6497,28.6241],[95.6249,28.6527],[95.5809,28.691],[95.5541,28.7082],[95.5044,28.7177],[95.4089,28.7445],[95.3889,28.7438],[95.3544,28.7042],[95.3652,28.6287],[95.3751,28.6171],[95.3819,28.5732],[95.4009,28.5706],[95.4079,28.5489],[95.3662,28.495],[95.3368,28.4799],[95.3384,28.369],[95.369,28.3599],[95.3757,28.323],[95.3859,28.3115],[95.4092,28.3194],[95.4357,28.318],[95.4628,28.2779],[95.5125,28.2778],[95.5363,28.2899],[95.5646,28.2588],[95.5608,28.172],[95.5705,28.1354],[95.5689,28.0827],[95.5597,28.0397],[95.5349,27.9945],[95.5083,27.9729],[95.5003,27.9506],[95.5164,27.9165],[95.516,27.8818],[95.5262,27.8979],[95.5435,27.9023],[95.5421,27.9107],[95.5438,27.9135],[95.565,27.9225],[95.5805,27.9436],[95.5969,27.9511],[95.6067,27.9578],[95.8259,27.9774],[95.9775,27.9685],[95.9934,27.98],[95.9895,28.0057],[95.9953,28.0575],[95.9818,28.0772],[96.0035,28.1006],[96.0117,28.1227],[96.0272,28.135],[96.032,28.1651],[96.0484,28.1765],[96.0508,28.1986],[96.1063,28.1947],[96.1194,28.183],[96.1457,28.1804],[96.1667,28.1893],[96.2051,28.2272],[96.232,28.2439],[96.2697,28.2442],[96.2399,28.3046],[96.2569,28.3142],[96.2684,28.3354],[96.2939,28.3532],[96.2981,28.3717],[96.3153,28.3884],[96.3046,28.4047],[96.266,28.417],[96.3351,28.4628],[96.367,28.4795],[96.3609,28.5097],[96.3243,28.5303],[96.3546,28.5606],[96.368,28.5635]]]},"properties":{"NAME_1":"Arunachal Pradesh","NAME_2":"Lower Dibang Valley"}},{"type":"Feature","geometry":{"type":"Polygon","coordinates":[[[94.3178,27.7766],[94.258,27.8103],[94.1938,27.8138],[94.1922,27.8389],[94.1604,27.8461],[94.1494,27.8682],[94.1288,27.8601],[94.0967,27.862],[94.0744,27.8515],[94.0603,27.8716],[94.0562,27.9083],[94.0478,27.9166],[94.0682,27.9412],[94.049,27.9546],[94.011,27.9581],[93.9877,27.9768],[93.9458,27.9806],[93.9375,28.0037],[93.9121,28.0145],[93.9106,28.0289],[93.8695,28.0253],[93.8428,28.0035],[93.821,27.9598],[93.821,27.9283],[93.8113,27.9113],[93.7749,27.8968],[93.6876,27.8895],[93.6561,27.8604],[93.6343,27.8289],[93.6076,27.8119],[93.5737,27.8095],[93.5446,27.7949],[93.5252,27.7731],[93.5179,27.7465],[93.4815,27.7198],[93.4282,27.7125],[93.4112,27.6955],[93.3917,27.6419],[93.4314,27.6419],[93.4558,27.6256],[93.5278,27.6229],[93.544,27.5835],[93.582,27.5442],[93.6133,27.5048],[93.639,27.4953],[93.635,27.4831],[93.5834,27.4559],[93.5644,27.4329],[93.5725,27.4044],[93.5997,27.3894],[93.6038,27.3582],[93.6146,27.346],[93.6567,27.3311],[93.787,27.3297],[93.8087,27.3392],[93.8358,27.3636],[93.829,27.4057],[93.8955,27.4844],[93.9933,27.4872],[94.0679,27.4668],[94.1032,27.4736],[94.1534,27.5129],[94.2009,27.517],[94.2107,27.4979],[94.2597,27.5235],[94.2565,27.5574],[94.2265,27.5756],[94.2229,27.6007],[94.2111,27.6108],[94.2319,27.6405],[94.2677,27.6685],[94.3032,27.6875],[94.3228,27.7058],[94.3524,27.7171],[94.3108,27.7479],[94.3178,27.7766]]]},"properties":{"NAME_1":"Arunachal Pradesh","NAME_2":"Lower Subansiri"}},{"type":"Feature","geometry":{"type":"Polygon","coordinates":[[[93.3917,27.6419],[93.3296,27.6392],[93.2848,27.6161],[93.271,27.5954],[93.3215,27.5671],[93.3307,27.5536],[93.3161,27.5354],[93.2946,27.5246],[93.32,27.491],[93.3269,27.4644],[93.3204,27.4431],[93.3683,27.4183],[93.3723,27.3732],[93.3223,27.3543],[93.2898,27.3311],[93.2948,27.2923],[93.2583,27.2764],[93.2254,27.2524],[93.2291,27.2004],[93.2649,27.2127],[93.2796,27.2095],[93.31,27.1743],[93.2707,27.1557],[93.2454,27.156],[93.2112,27.1328],[93.2135,27.1185],[93.2727,27.1054],[93.2938,27.0799],[93.3133,27.0813],[93.3433,27.0387],[93.3407,27.0032],[93.3616,26.984],[93.3808,26.9806],[93.3907,26.96],[93.4479,26.9542],[93.4681,26.9389],[93.4894,26.9385],[93.5258,26.9486],[93.5842,26.9526],[93.6245,26.9642],[93.6758,26.9711],[93.6983,26.9948],[93.7189,27.0192],[93.7685,27.0433],[93.8102,27.0681],[93.8367,27.0782],[93.8255,27.1193],[93.8058,27.1348],[93.8073,27.1501],[93.8674,27.1988],[93.901,27.2415],[93.9389,27.2733],[93.9565,27.2948],[94,27.3347],[94.0609,27.3636],[94.0863,27.4046],[94.1602,27.4665],[94.1572,27.478],[94.1912,27.4963],[94.2107,27.4979],[94.2009,27.517],[94.1534,27.5129],[94.1032,27.4736],[94.0679,27.4668],[93.9933,27.4872],[93.8955,27.4844],[93.829,27.4057],[93.8358,27.3636],[93.8087,27.3392],[93.787,27.3297],[93.6567,27.3311],[93.6146,27.346],[93.6038,27.3582],[93.5997,27.3894],[93.5725,27.4044],[93.5644,27.4329],[93.5834,27.4559],[93.635,27.4831],[93.639,27.4953],[93.6133,27.5048],[93.582,27.5442],[93.544,27.5835],[93.5278,27.6229],[93.4558,27.6256],[93.4314,27.6419],[93.3917,27.6419]]]},"properties":{"NAME_1":"Arunachal Pradesh","NAME_2":"Papum Pare"}},{"type":"Feature","geometry":{"type":"Polygon","coordinates":[[[92.316,27.7782],[92.2847,27.8076],[92.2674,27.8539],[92.2552,27.8622],[92.2003,27.8571],[92.1561,27.837],[92.0554,27.7591],[92.0378,27.7572],[91.9839,27.77],[91.9556,27.7507],[91.9451,27.7287],[91.9188,27.7151],[91.9084,27.7263],[91.8786,27.7218],[91.8605,27.7369],[91.8452,27.7757],[91.8335,27.7799],[91.8279,27.8076],[91.7711,27.8012],[91.7096,27.8133],[91.6941,27.8221],[91.6693,27.8567],[91.6074,27.854],[91.5697,27.8607],[91.5458,27.8469],[91.5655,27.8153],[91.5988,27.8209],[91.6282,27.8008],[91.6311,27.7716],[91.6237,27.706],[91.5918,27.6832],[91.5577,27.6335],[91.5768,27.5996],[91.562,27.5842],[91.5944,27.5396],[91.6093,27.5416],[91.6205,27.5133],[91.6441,27.499],[91.6532,27.483],[91.6901,27.5028],[91.7106,27.4912],[91.7138,27.4736],[91.7566,27.4733],[91.7738,27.4645],[91.8094,27.4726],[91.8285,27.469],[91.8491,27.4826],[91.8985,27.4683],[91.9227,27.4713],[91.9394,27.4606],[92.0112,27.4818],[92.0937,27.5282],[92.134,27.5651],[92.1845,27.5955],[92.232,27.6189],[92.2551,27.6386],[92.2795,27.6769],[92.316,27.7782]]]},"properties":{"NAME_1":"Arunachal Pradesh","NAME_2":"Tawang"}},{"type":"Feature","geometry":{"type":"Polygon","coordinates":[[[95.637,27.2369],[95.6341,27.2398],[95.6074,27.2314],[95.5992,27.2296],[95.5783,27.2471],[95.5633,27.2525],[95.5348,27.2706],[95.5297,27.2691],[95.5205,27.2637],[95.5162,27.2686],[95.5106,27.259],[95.491,27.2487],[95.4589,27.2096],[95.4686,27.1905],[95.4659,27.1548],[95.4578,27.1356],[95.4203,27.1308],[95.4063,27.1183],[95.3713,27.1114],[95.3486,27.1048],[95.3097,27.0811],[95.2482,27.0303],[95.2379,27.0432],[95.2138,27.0335],[95.1955,27.0429],[95.2001,27.0062],[95.1952,26.99],[95.2171,26.9342],[95.234,26.9206],[95.2299,26.8857],[95.2129,26.8856],[95.1845,26.8648],[95.2151,26.7984],[95.2425,26.7845],[95.2193,26.7556],[95.2161,26.7353],[95.2361,26.7122],[95.2376,26.6863],[95.26,26.6864],[95.272,26.6628],[95.3026,26.656],[95.3466,26.6779],[95.3659,26.6776],[95.4064,26.6966],[95.4233,26.6967],[95.4657,26.7504],[95.4835,26.755],[95.5148,26.8132],[95.5457,26.8379],[95.5748,26.8257],[95.6115,26.8212],[95.6322,26.8495],[95.6368,26.8793],[95.651,26.8838],[95.6734,26.9102],[95.7035,26.8872],[95.7308,26.8875],[95.755,26.9079],[95.7114,26.9366],[95.6569,26.9547],[95.6529,26.9636],[95.7341,26.9733],[95.7198,27.0013],[95.707,27.0428],[95.6684,27.1057],[95.6553,27.1336],[95.6528,27.1807],[95.637,27.2369]]]},"properties":{"NAME_1":"Arunachal Pradesh","NAME_2":"Tirap"}},{"type":"Feature","geometry":{"type":"Polygon","coordinates":[[[96.368,28.5635],[96.4008,28.5624],[96.4074,28.5944],[96.4225,28.585],[96.4444,28.606],[96.4729,28.6225],[96.4952,28.6438],[96.4705,28.6846],[96.4906,28.6885],[96.5322,28.7115],[96.56,28.7119],[96.5859,28.7216],[96.6155,28.7648],[96.6084,28.7981],[96.5843,28.8215],[96.5375,28.8841],[96.5387,28.921],[96.5212,28.9652],[96.4875,28.9653],[96.4774,28.994],[96.5252,29.0793],[96.4772,29.0601],[96.4358,29.0376],[96.3467,29.0323],[96.2937,28.9987],[96.2281,28.9293],[96.1665,28.9059],[96.1452,28.9375],[96.1552,28.9556],[96.1804,28.9685],[96.1849,28.9881],[96.1504,29.0531],[96.1242,29.0807],[96.1695,29.0876],[96.2003,29.1059],[96.2175,29.1381],[96.2602,29.1602],[96.3464,29.171],[96.3585,29.1816],[96.3714,29.218],[96.3877,29.2337],[96.3928,29.2565],[96.375,29.2837],[96.3453,29.2674],[96.3126,29.2591],[96.293,29.2358],[96.2508,29.2332],[96.2342,29.2435],[96.2101,29.2749],[96.2032,29.2936],[96.1831,29.3093],[96.1858,29.3445],[96.15,29.3993],[96.1132,29.4275],[96.0928,29.4564],[96.0556,29.4584],[96.0145,29.4214],[95.9571,29.3827],[95.8809,29.3915],[95.8403,29.3537],[95.8268,29.3557],[95.791,29.3379],[95.7776,29.3564],[95.7454,29.3291],[95.7271,29.3025],[95.7019,29.3004],[95.6732,29.2711],[95.6312,29.249],[95.5987,29.2619],[95.5876,29.2424],[95.5858,29.218],[95.545,29.2156],[95.5468,29.1287],[95.5035,29.143],[95.4919,29.1237],[95.4891,29.0897],[95.4543,29.037],[95.4215,29.0412],[95.4101,29.0341],[95.3455,29.0461],[95.3027,29.0629],[95.2724,29.0586],[95.2748,29.0305],[95.2424,29.0024],[95.2598,28.9674],[95.2549,28.953],[95.2824,28.9485],[95.2987,28.9585],[95.3272,28.9209],[95.3154,28.8881],[95.3234,28.8455],[95.3529,28.8204],[95.3621,28.7893],[95.3889,28.7438],[95.4089,28.7445],[95.5044,28.7177],[95.5541,28.7082],[95.5809,28.691],[95.6249,28.6527],[95.6497,28.6241],[95.7529,28.5935],[95.7759,28.5935],[95.7892,28.6069],[95.8733,28.6107],[95.9441,28.6413],[96.011,28.6508],[96.0721,28.6547],[96.1524,28.6547],[96.1792,28.6451],[96.2862,28.5973],[96.3474,28.5763],[96.368,28.5635]]]},"properties":{"NAME_1":"Arunachal Pradesh","NAME_2":"Upper Dibang Valley"}},{"type":"Feature","geometry":{"type":"Polygon","coordinates":[[[95.2724,29.0586],[95.2501,29.0686],[95.2508,29.1099],[95.1775,29.1086],[95.1218,29.1163],[95.0984,29.1438],[95.0397,29.1524],[95.0049,29.1705],[95.0112,29.1334],[94.9677,29.1598],[94.9188,29.1623],[94.8718,29.1843],[94.8466,29.183],[94.798,29.1646],[94.7979,29.21],[94.7665,29.2528],[94.7111,29.3043],[94.6772,29.3278],[94.6282,29.3486],[94.6107,29.3012],[94.5739,29.2752],[94.5721,29.2506],[94.5579,29.2289],[94.5331,29.2187],[94.4945,29.2167],[94.4312,29.2268],[94.3723,29.1902],[94.3637,29.1572],[94.3502,29.1502],[94.2877,29.1481],[94.2577,29.1168],[94.2147,29.0841],[94.185,29.0391],[94.1719,29.007],[94.2255,29.007],[94.2789,28.9953],[94.3572,28.9486],[94.3789,28.927],[94.4006,28.8903],[94.4273,28.872],[94.4589,28.8603],[94.4956,28.8336],[94.5256,28.7969],[94.599,28.7903],[94.644,28.7402],[94.674,28.7269],[94.7307,28.6869],[94.7357,28.6636],[94.7407,28.5569],[94.7585,28.5374],[94.8068,28.5526],[94.8394,28.555],[94.8568,28.548],[94.8778,28.5259],[94.9267,28.5398],[94.9523,28.5608],[94.9977,28.5026],[95.0141,28.4956],[95.0525,28.5119],[95.0816,28.5049],[95.1026,28.4769],[95.1014,28.428],[95.0723,28.3978],[95.1107,28.3535],[95.12,28.336],[95.12,28.2999],[95.1084,28.2906],[95.1119,28.2266],[95.134,28.2045],[95.1608,28.201],[95.1957,28.1497],[95.226,28.1497],[95.2388,28.1625],[95.2819,28.1777],[95.3087,28.2219],[95.3366,28.2266],[95.3378,28.2732],[95.3774,28.2801],[95.4092,28.3194],[95.3859,28.3115],[95.3757,28.323],[95.369,28.3599],[95.3384,28.369],[95.3368,28.4799],[95.3662,28.495],[95.4079,28.5489],[95.4009,28.5706],[95.3819,28.5732],[95.3751,28.6171],[95.3652,28.6287],[95.3544,28.7042],[95.3889,28.7438],[95.3621,28.7893],[95.3529,28.8204],[95.3234,28.8455],[95.3154,28.8881],[95.3272,28.9209],[95.2987,28.9585],[95.2824,28.9485],[95.2549,28.953],[95.2598,28.9674],[95.2424,29.0024],[95.2748,29.0305],[95.2724,29.0586]]]},"properties":{"NAME_1":"Arunachal Pradesh","NAME_2":"Upper Siang"}},{"type":"Feature","geometry":{"type":"Polygon","coordinates":[[[93.9603,28.7131],[93.9346,28.6771],[93.9041,28.6767],[93.8653,28.7037],[93.844,28.7074],[93.7752,28.6685],[93.7316,28.6893],[93.6855,28.6793],[93.6389,28.6619],[93.607,28.6559],[93.5245,28.6613],[93.4955,28.684],[93.4792,28.675],[93.4742,28.6537],[93.4457,28.676],[93.4118,28.6529],[93.3323,28.6337],[93.3276,28.6083],[93.2999,28.5996],[93.3053,28.5663],[93.2889,28.5434],[93.2759,28.5048],[93.2291,28.478],[93.2075,28.4522],[93.1827,28.44],[93.1904,28.426],[93.2315,28.4007],[93.2193,28.3615],[93.2199,28.3355],[93.2439,28.3614],[93.2811,28.3654],[93.2925,28.341],[93.3353,28.354],[93.3565,28.3451],[93.3847,28.3071],[93.407,28.3076],[93.4128,28.2892],[93.4517,28.2728],[93.4748,28.282],[93.5412,28.2688],[93.5703,28.257],[93.6095,28.273],[93.6268,28.3067],[93.6618,28.3079],[93.6795,28.3227],[93.7209,28.2923],[93.745,28.2857],[93.7646,28.2641],[93.8386,28.2405],[93.8499,28.2008],[93.892,28.1302],[93.8802,28.1093],[93.8533,28.0849],[93.8755,28.0731],[93.8736,28.055],[93.9106,28.0289],[93.9121,28.0145],[93.9375,28.0037],[93.9458,27.9806],[93.9877,27.9768],[94.011,27.9581],[94.049,27.9546],[94.0682,27.9412],[94.0478,27.9166],[94.0562,27.9083],[94.0603,27.8716],[94.0744,27.8515],[94.0967,27.862],[94.1288,27.8601],[94.1494,27.8682],[94.1604,27.8461],[94.1922,27.8389],[94.1938,27.8138],[94.258,27.8103],[94.3178,27.7766],[94.3332,27.7605],[94.3856,27.7969],[94.403,27.7953],[94.4702,27.8356],[94.5045,27.8391],[94.5343,27.8528],[94.5779,27.859],[94.5956,27.8736],[94.5936,27.893],[94.5587,27.9052],[94.5256,27.9609],[94.5325,27.9886],[94.5134,28.018],[94.4811,28.0258],[94.4673,28.0512],[94.4084,28.0715],[94.3949,28.091],[94.3865,28.1233],[94.3914,28.1441],[94.3777,28.1608],[94.3743,28.1832],[94.3563,28.2005],[94.3675,28.2135],[94.3689,28.2461],[94.3913,28.2678],[94.3744,28.2969],[94.3772,28.3108],[94.4028,28.3297],[94.3674,28.3549],[94.329,28.3596],[94.3079,28.3772],[94.301,28.3976],[94.3077,28.4185],[94.2826,28.4335],[94.2409,28.4482],[94.1837,28.4308],[94.1509,28.4375],[94.1317,28.4528],[94.1045,28.4988],[94.1076,28.5225],[94.0956,28.5372],[94.0702,28.5404],[93.9999,28.5788],[94.0019,28.6118],[94.0217,28.6521],[94.0025,28.6755],[93.9603,28.7131]]]},"properties":{"NAME_1":"Arunachal Pradesh","NAME_2":"Upper Subansiri"}},{"type":"Feature","geometry":{"type":"Polygon","coordinates":[[[92.7332,27.9779],[92.7013,27.9338],[92.6692,27.9001],[92.6051,27.8775],[92.5607,27.821],[92.5439,27.8175],[92.5151,27.8402],[92.4925,27.8368],[92.4549,27.8033],[92.4438,27.8008],[92.4139,27.823],[92.383,27.8156],[92.3798,27.795],[92.316,27.7782],[92.2795,27.6769],[92.2551,27.6386],[92.232,27.6189],[92.1845,27.5955],[92.134,27.5651],[92.0937,27.5282],[92.0112,27.4818],[92.0239,27.4416],[92.0388,27.4365],[92.0421,27.4128],[92.0545,27.4001],[92.0461,27.3793],[92.0602,27.3453],[92.0588,27.3272],[92.078,27.3103],[92.1173,27.2928],[92.1016,27.2691],[92.07,27.2774],[92.0399,27.2618],[92.0658,27.245],[92.0696,27.2236],[92.0562,27.1896],[92.0252,27.1718],[92.0365,27.1384],[92.0222,27.1149],[92.0278,27.0786],[92.0449,27.052],[92.064,27.0522],[92.0798,27.0206],[92.1033,27.0077],[92.1021,26.983],[92.1132,26.9757],[92.1171,26.9324],[92.1079,26.8938],[92.1204,26.8903],[92.1948,26.891],[92.2546,26.9122],[92.2764,26.9025],[92.3037,26.9095],[92.3029,26.9242],[92.3531,26.9356],[92.3644,26.9327],[92.3998,26.9263],[92.4462,26.9606],[92.505,26.9668],[92.5536,26.9591],[92.5852,26.9619],[92.6455,26.9874],[92.6391,27.0185],[92.5978,27.0542],[92.5902,27.0802],[92.6002,27.0983],[92.6079,27.1414],[92.6498,27.1531],[92.7167,27.1772],[92.7499,27.1966],[92.7816,27.1823],[92.8162,27.1792],[92.8998,27.2096],[92.8882,27.2858],[92.8474,27.2907],[92.8446,27.304],[92.8092,27.329],[92.8214,27.4104],[92.8047,27.4202],[92.8032,27.471],[92.8106,27.4853],[92.8136,27.5252],[92.7899,27.555],[92.7713,27.5502],[92.7183,27.5571],[92.6783,27.5384],[92.6466,27.5359],[92.6462,27.5769],[92.6755,27.6055],[92.7208,27.64],[92.7483,27.6226],[92.7658,27.6464],[92.8609,27.645],[92.8954,27.6107],[92.9359,27.5926],[92.9504,27.5772],[92.9842,27.5634],[93.0289,27.6038],[93.0402,27.638],[93.0551,27.6504],[93.0789,27.6512],[93.1015,27.6829],[93.1382,27.7114],[93.1505,27.7397],[93.2077,27.7419],[93.2297,27.7762],[93.2363,27.7979],[93.2173,27.8321],[93.1961,27.8473],[93.1738,27.8224],[93.1341,27.8247],[93.0915,27.813],[93.0717,27.8299],[93.0081,27.8209],[92.9659,27.827],[92.9439,27.8459],[92.9304,27.8759],[92.9295,27.9205],[92.8786,27.9389],[92.8584,27.957],[92.8205,27.9596],[92.7865,27.9511],[92.7565,27.9576],[92.7332,27.9779]]]},"properties":{"NAME_1":"Arunachal Pradesh","NAME_2":"West Kameng"}},{"type":"Feature","geometry":{"type":"Polygon","coordinates":[[[94.1719,29.007],[94.1729,28.9918],[94.1551,28.9548],[94.0788,28.9058],[94.044,28.8738],[94.0301,28.8535],[93.9949,28.8414],[94,28.8198],[93.9853,28.7983],[94.0014,28.7755],[93.9685,28.7514],[93.9603,28.7131],[94.0025,28.6755],[94.0217,28.6521],[94.0019,28.6118],[93.9999,28.5788],[94.0702,28.5404],[94.0956,28.5372],[94.1076,28.5225],[94.1045,28.4988],[94.1317,28.4528],[94.1509,28.4375],[94.1837,28.4308],[94.2409,28.4482],[94.2826,28.4335],[94.3077,28.4185],[94.301,28.3976],[94.3079,28.3772],[94.329,28.3596],[94.3674,28.3549],[94.4028,28.3297],[94.3772,28.3108],[94.3744,28.2969],[94.3913,28.2678],[94.3689,28.2461],[94.3675,28.2135],[94.3563,28.2005],[94.3743,28.1832],[94.3777,28.1608],[94.3914,28.1441],[94.3865,28.1233],[94.3949,28.091],[94.4084,28.0715],[94.4673,28.0512],[94.4811,28.0258],[94.5134,28.018],[94.5325,27.9886],[94.5256,27.9609],[94.5587,27.9052],[94.5936,27.893],[94.5956,27.8736],[94.5779,27.859],[94.5343,27.8528],[94.5045,27.8391],[94.4702,27.8356],[94.403,27.7953],[94.3856,27.7969],[94.3332,27.7605],[94.3178,27.7766],[94.3108,27.7479],[94.3524,27.7171],[94.3228,27.7058],[94.3032,27.6875],[94.2677,27.6685],[94.2319,27.6405],[94.2111,27.6108],[94.2351,27.6325],[94.2628,27.636],[94.2541,27.6137],[94.2877,27.5918],[94.3675,27.5767],[94.4032,27.5872],[94.4209,27.6013],[94.4535,27.5709],[94.5002,27.5773],[94.5263,27.5958],[94.5735,27.607],[94.5915,27.6228],[94.6398,27.631],[94.6484,27.6421],[94.6981,27.6671],[94.7427,27.6634],[94.7953,27.6981],[94.8213,27.6962],[94.8488,27.7107],[94.8609,27.7395],[94.8604,27.7609],[94.8874,27.7908],[94.8919,27.8134],[94.9174,27.8502],[94.9066,27.8837],[94.9254,27.8929],[94.9545,27.959],[94.9579,27.9842],[94.9223,28.0006],[94.883,28],[94.8872,28.0154],[94.9305,28.0534],[94.9007,28.0797],[94.9287,28.0997],[94.9495,28.132],[94.9087,28.1619],[94.9148,28.1991],[94.8909,28.23],[94.9063,28.2407],[94.9371,28.2434],[94.9208,28.2754],[94.9224,28.2971],[94.8921,28.3485],[94.8786,28.408],[94.8694,28.4157],[94.7755,28.427],[94.7633,28.4257],[94.7458,28.4599],[94.7517,28.4689],[94.7414,28.5003],[94.7585,28.5374],[94.7407,28.5569],[94.7357,28.6636],[94.7307,28.6869],[94.674,28.7269],[94.644,28.7402],[94.599,28.7903],[94.5256,28.7969],[94.4956,28.8336],[94.4589,28.8603],[94.4273,28.872],[94.4006,28.8903],[94.3789,28.927],[94.3572,28.9486],[94.2789,28.9953],[94.2255,29.007],[94.1719,29.007]]]},"properties":{"NAME_1":"Arunachal Pradesh","NAME_2":"West Siang"}}]}