{"type":"FeatureCollection","features":[{"type":"Feature","geometry":{"type":"Polygon","coordinates":[[[91.2951,26.7852],[91.2623,26.805],[91.1803,26.8114],[91.1297,26.8085],[91.0891,26.8184],[91.054,26.7795],[90.996,26.7883],[90.9548,26.7838],[90.9415,26.7751],[90.9123,26.7267],[90.9141,26.7108],[90.8933,26.6702],[90.899,26.64],[90.8535,26.5982],[90.846,26.5723],[90.8267,26.5757],[90.8273,26.5411],[90.8492,26.522],[90.821,26.4929],[90.8163,26.4768],[90.8317,26.434],[90.8581,26.4319],[90.8433,26.4027],[90.8597,26.3758],[90.8402,26.3583],[90.823,26.3669],[90.789,26.3284],[90.8008,26.3073],[90.7756,26.3038],[90.7587,26.3134],[90.7191,26.284],[90.719,26.2683],[90.6545,26.2464],[90.6581,26.228],[90.6913,26.1534],[90.7215,26.135],[90.7767,26.1346],[90.8379,26.1115],[90.8599,26.1129],[90.8682,26.098],[90.9132,26.0895],[90.9356,26.0943],[90.9548,26.0974],[91.0018,26.1299],[91.0246,26.12],[91.0483,26.1289],[91.0733,26.1567],[91.0905,26.1644],[91.1158,26.154],[91.1804,26.1743],[91.2335,26.1829],[91.2483,26.1998],[91.2189,26.2165],[91.2366,26.2618],[91.2269,26.2815],[91.2507,26.2833],[91.255,26.3115],[91.2695,26.3282],[91.2771,26.3551],[91.2476,26.3678],[91.2341,26.3928],[91.2318,26.4246],[91.2377,26.4557],[91.2655,26.4878],[91.247,26.5104],[91.2499,26.5352],[91.2905,26.5629],[91.2904,26.5807],[91.2459,26.5852],[91.264,26.6207],[91.2441,26.6233],[91.2434,26.6443],[91.288,26.682],[91.2998,26.7368],[91.2915,26.747],[91.2951,26.7852]]]},"properties":{"NAME_1":"Assam","NAME_2":"Barpeta"}},{"type":"Feature","geometry":{"type":"Polygon","coordinates":[[[90.9548,26.7838],[90.8021,26.774],[90.741,26.775],[90.6999,26.768],[90.6794,26.7802],[90.6491,26.7743],[90.615,26.7951],[90.5607,26.7421],[90.5409,26.7119],[90.5232,26.6651],[90.5242,26.6307],[90.5648,26.5787],[90.5742,26.5537],[90.5721,26.5318],[90.5565,26.5266],[90.5336,26.5401],[90.4909,26.5349],[90.4576,26.5485],[90.4253,26.5505],[90.3899,26.5599],[90.3535,26.5464],[90.3577,26.5224],[90.3774,26.486],[90.4149,26.4818],[90.4493,26.4933],[90.4586,26.4662],[90.4357,26.4371],[90.4491,26.3541],[90.4566,26.3563],[90.4695,26.3332],[90.4728,26.3314],[90.4663,26.3264],[90.4775,26.2996],[90.4794,26.2962],[90.4742,26.2883],[90.4634,26.2892],[90.468,26.2809],[90.4598,26.2775],[90.4716,26.2689],[90.466,26.2651],[90.4596,26.2652],[90.4498,26.2725],[90.4442,26.2689],[90.4418,26.2647],[90.4482,26.249],[90.4395,26.2542],[90.4336,26.2514],[90.439,26.2469],[90.4257,26.2446],[90.414,26.2346],[90.3942,26.2206],[90.3838,26.2257],[90.3757,26.2216],[90.3761,26.1889],[90.373,26.1793],[90.346,26.1759],[90.3595,26.1602],[90.4252,26.1438],[90.454,26.1458],[90.4787,26.1602],[90.5403,26.1869],[90.5712,26.189],[90.5999,26.1993],[90.6205,26.2239],[90.6581,26.228],[90.6545,26.2464],[90.719,26.2683],[90.7191,26.284],[90.7587,26.3134],[90.7756,26.3038],[90.8008,26.3073],[90.789,26.3284],[90.823,26.3669],[90.8402,26.3583],[90.8597,26.3758],[90.8433,26.4027],[90.8581,26.4319],[90.8317,26.434],[90.8163,26.4768],[90.821,26.4929],[90.8492,26.522],[90.8273,26.5411],[90.8267,26.5757],[90.846,26.5723],[90.8535,26.5982],[90.899,26.64],[90.8933,26.6702],[90.9141,26.7108],[90.9123,26.7267],[90.9415,26.7751],[90.9548,26.7838]]]},"properties":{"NAME_1":"Assam","NAME_2":"Bongaigaon"}},{"type":"Feature","geometry":{"type":"Polygon","coordinates":[[[92.4259,25.0318],[92.4236,24.9961],[92.4352,24.9664],[92.4605,24.9762],[92.471,24.9641],[92.4588,24.9457],[92.4935,24.9359],[92.5019,24.9117],[92.4941,24.8767],[92.516,24.8772],[92.5257,24.861],[92.5601,24.8744],[92.589,24.8643],[92.6313,24.8556],[92.6398,24.8215],[92.6804,24.8158],[92.6698,24.7924],[92.6562,24.7382],[92.6559,24.6942],[92.669,24.6613],[92.6668,24.6413],[92.6968,24.6189],[92.6787,24.6119],[92.6701,24.5936],[92.7052,24.5666],[92.726,24.5717],[92.7391,24.5893],[92.7645,24.5693],[92.7807,24.572],[92.7652,24.5208],[92.8038,24.4217],[92.8469,24.3823],[92.8629,24.3995],[92.8964,24.3943],[92.9115,24.4129],[92.9357,24.3955],[92.9603,24.3959],[92.9803,24.4097],[93.0005,24.4033],[93.0064,24.4119],[93.016,24.4025],[93.0392,24.4111],[93.0322,24.4289],[93.0379,24.4612],[93.0457,24.4818],[93.04,24.5108],[93.0528,24.5196],[93.0513,24.5372],[93.0727,24.5611],[93.0712,24.5761],[93.0871,24.5712],[93.0973,24.5825],[93.107,24.5836],[93.0798,24.5925],[93.0754,24.5962],[93.0868,24.6113],[93.0867,24.6138],[93.0794,24.6213],[93.0822,24.6276],[93.0848,24.6477],[93.0963,24.6527],[93.0977,24.659],[93.0976,24.6628],[93.1047,24.6753],[93.0932,24.6765],[93.0903,24.6929],[93.0759,24.7104],[93.0888,24.7092],[93.0944,24.7205],[93.0944,24.7243],[93.1044,24.7369],[93.1015,24.7494],[93.1028,24.7733],[93.1056,24.7846],[93.1112,24.8123],[93.1198,24.8173],[93.1213,24.8085],[93.127,24.8085],[93.1399,24.8048],[93.1443,24.7998],[93.1529,24.7935],[93.1759,24.7974],[93.1816,24.8049],[93.1945,24.8088],[93.1974,24.8113],[93.1959,24.8163],[93.193,24.8263],[93.193,24.8364],[93.1958,24.8376],[93.2016,24.8402],[93.1987,24.8402],[93.1944,24.8439],[93.2016,24.8439],[93.1986,24.8527],[93.2001,24.8578],[93.2162,24.8647],[93.2291,24.8773],[93.2291,24.8848],[93.2305,24.8949],[93.2362,24.9025],[93.2434,24.9037],[93.2434,24.9075],[93.2419,24.915],[93.2445,24.9301],[93.2472,24.9363],[93.24,24.9376],[93.2498,24.9426],[93.2492,24.9551],[93.2624,24.9514],[93.2608,24.9539],[93.2632,24.9664],[93.2529,24.9751],[93.2169,24.9898],[93.207,24.9836],[93.1712,25],[93.0722,25.0005],[93.0611,25.0258],[93.0178,25.0643],[93.0415,25.0881],[93.0193,25.0984],[92.9625,25.0912],[92.9461,25.0733],[92.9018,25.0823],[92.8858,25.0711],[92.8413,25.0559],[92.8291,25.0742],[92.7835,25.0893],[92.7676,25.1061],[92.7564,25.1412],[92.7372,25.1267],[92.7017,25.1112],[92.6724,25.1106],[92.6432,25.1193],[92.623,25.1043],[92.605,25.1128],[92.5429,25.0996],[92.5265,25.1059],[92.4843,25.1081],[92.466,25.0572],[92.451,25.041],[92.4259,25.0318]]]},"properties":{"NAME_1":"Assam","NAME_2":"Cachar"}},{"type":"Feature","geometry":{"type":"Polygon","coordinates":[[[92.3644,26.9327],[92.3531,26.9356],[92.3029,26.9242],[92.3037,26.9095],[92.2764,26.9025],[92.2546,26.9122],[92.1948,26.891],[92.1204,26.8903],[92.1079,26.8938],[92.0974,26.8686],[92.0552,26.8481],[91.9856,26.8583],[91.954,26.8877],[91.8973,26.9161],[91.8535,26.9123],[91.8318,26.8764],[91.802,26.8521],[91.7269,26.8126],[91.7042,26.8119],[91.7072,26.7976],[91.7178,26.7541],[91.7334,26.7303],[91.7424,26.6879],[91.7325,26.6587],[91.7474,26.6374],[91.7395,26.6167],[91.7426,26.591],[91.7579,26.5774],[91.7836,26.5377],[91.7768,26.5294],[91.7863,26.4996],[91.7781,26.475],[91.7638,26.4673],[91.7801,26.4123],[91.8177,26.3802],[91.8192,26.326],[91.7843,26.3015],[91.7904,26.2693],[91.7842,26.2452],[91.7467,26.222],[91.7589,26.201],[91.7768,26.1989],[91.8418,26.2156],[91.8898,26.2202],[91.9534,26.255],[91.9818,26.2762],[92.0148,26.2813],[92.0303,26.2712],[92.0483,26.2822],[92.0735,26.3157],[92.0836,26.3384],[92.1245,26.3723],[92.1415,26.4],[92.1789,26.4245],[92.22,26.4184],[92.2548,26.4529],[92.2888,26.4611],[92.3151,26.4888],[92.3439,26.5038],[92.326,26.5127],[92.3533,26.5318],[92.3813,26.5328],[92.3556,26.5734],[92.3254,26.5933],[92.323,26.618],[92.3327,26.6295],[92.334,26.6901],[92.3383,26.7147],[92.3287,26.7552],[92.3404,26.7735],[92.3297,26.807],[92.3317,26.8321],[92.3456,26.8629],[92.3417,26.8867],[92.3644,26.9327]]]},"properties":{"NAME_1":"Assam","NAME_2":"Darrang"}},{"type":"Feature","geometry":{"type":"Polygon","coordinates":[[[95.4616,27.794],[95.4778,27.8345],[95.4851,27.8429],[95.4952,27.8598],[95.5152,27.8624],[95.516,27.8818],[95.3843,27.842],[95.3166,27.8711],[95.2365,27.8484],[95.0518,27.7902],[95.0388,27.7777],[94.987,27.7709],[94.8839,27.7421],[94.8609,27.7395],[94.8488,27.7107],[94.8213,27.6962],[94.7953,27.6981],[94.7427,27.6634],[94.6981,27.6671],[94.6484,27.6421],[94.6398,27.631],[94.5915,27.6228],[94.5735,27.607],[94.5263,27.5958],[94.5002,27.5773],[94.4535,27.5709],[94.4209,27.6013],[94.4032,27.5872],[94.3675,27.5767],[94.2877,27.5918],[94.2541,27.6137],[94.2628,27.636],[94.2351,27.6325],[94.2111,27.6108],[94.2229,27.6007],[94.2265,27.5756],[94.2565,27.5574],[94.2597,27.5235],[94.2801,27.5043],[94.2777,27.4716],[94.3075,27.4337],[94.3046,27.4002],[94.2851,27.386],[94.2562,27.4029],[94.25,27.3861],[94.2718,27.3661],[94.3007,27.3502],[94.3235,27.3529],[94.4038,27.334],[94.4322,27.334],[94.4913,27.3517],[94.509,27.3482],[94.5385,27.3068],[94.561,27.3257],[94.5981,27.2861],[94.6139,27.3097],[94.6059,27.329],[94.665,27.3532],[94.6639,27.3804],[94.6864,27.3873],[94.6875,27.414],[94.6991,27.4268],[94.7452,27.4391],[94.7616,27.475],[94.798,27.4946],[94.8808,27.5777],[94.9209,27.6047],[94.9476,27.6129],[94.9567,27.6319],[94.9837,27.6549],[95.0509,27.6663],[95.106,27.6667],[95.1211,27.6846],[95.1758,27.6999],[95.2058,27.7126],[95.1933,27.6715],[95.2247,27.657],[95.2589,27.6634],[95.276,27.6872],[95.2973,27.7003],[95.3426,27.7069],[95.3918,27.7284],[95.4093,27.7373],[95.4199,27.7432],[95.4509,27.7709],[95.4616,27.794]]]},"properties":{"NAME_1":"Assam","NAME_2":"Dhemaji"}},{"type":"Feature","geometry":{"type":"MultiPolygon","coordinates":[[[[89.8715,25.5373],[89.8551,25.476],[89.8687,25.4764],[89.88,25.4886],[89.8738,25.5136],[89.8757,25.5285],[89.8715,25.5373]]],[[[90.3657,26.3968],[90.3622,26.3986],[90.3568,26.4112],[90.3288,26.4093],[90.3273,26.3964],[90.3298,26.3868],[90.3257,26.3887],[90.3121,26.3852],[90.3114,26.3769],[90.3188,26.3626],[90.3282,26.3656],[90.3163,26.3555],[90.3091,26.3483],[90.3047,26.3454],[90.2975,26.3381],[90.288,26.3311],[90.286,26.326],[90.273,26.3233],[90.253,26.3349],[90.2467,26.3263],[90.2394,26.3254],[90.2169,26.3295],[90.2273,26.3547],[90.2318,26.3654],[90.224,26.3734],[90.2256,26.3828],[90.2183,26.3839],[90.2044,26.3771],[90.2034,26.3588],[90.1696,26.3425],[90.152,26.353],[90.1045,26.3294],[90.0563,26.2987],[90.0467,26.2983],[90.0266,26.3094],[90.0235,26.3206],[90.024,26.3362],[90.0086,26.3269],[89.9981,26.3337],[89.9854,26.3456],[89.9715,26.3382],[89.9466,26.3333],[89.9319,26.3405],[89.9282,26.3417],[89.9083,26.3366],[89.8947,26.3251],[89.8899,26.3131],[89.8742,26.3021],[89.8454,26.2994],[89.8303,26.3075],[89.8069,26.3014],[89.7992,26.3009],[89.7961,26.3025],[89.7821,26.3163],[89.762,26.3171],[89.7517,26.3222],[89.7591,26.2926],[89.7571,26.2885],[89.7461,26.2908],[89.7318,26.2929],[89.7209,26.2963],[89.7228,26.3076],[89.7157,26.302],[89.7292,26.2829],[89.7337,26.2665],[89.7323,26.2603],[89.7173,26.2592],[89.7108,26.2646],[89.7048,26.2699],[89.7007,26.2608],[89.7114,26.258],[89.7164,26.2553],[89.7157,26.2464],[89.7288,26.2382],[89.7182,26.2316],[89.7117,26.2277],[89.7056,26.2171],[89.6996,26.2189],[89.6975,26.2159],[89.7155,26.2148],[89.7244,26.2173],[89.7257,26.2061],[89.7142,26.206],[89.7161,26.1913],[89.7107,26.1886],[89.6948,26.1891],[89.7025,26.1771],[89.7065,26.1731],[89.7198,26.1779],[89.7342,26.175],[89.7329,26.173],[89.7251,26.1716],[89.7188,26.166],[89.7484,26.1578],[89.7706,26.1242],[89.7606,26.1123],[89.7902,26.1004],[89.7858,26.0882],[89.8148,26.0408],[89.8261,26.0091],[89.8475,26.005],[89.8531,25.9875],[89.8743,25.9706],[89.8415,25.9639],[89.8319,25.9415],[89.8861,25.9436],[89.8815,25.9193],[89.8522,25.8892],[89.8305,25.8533],[89.8309,25.8376],[89.8145,25.817],[89.829,25.8087],[89.8449,25.7572],[89.8304,25.735],[89.8378,25.7119],[89.8547,25.7086],[89.8544,25.6843],[89.8737,25.6576],[89.8864,25.6081],[89.8738,25.5493],[89.9181,25.5626],[89.9358,25.5627],[89.9494,25.5683],[89.9728,25.5746],[89.9792,25.5907],[89.9954,25.5863],[90.0058,25.5884],[90.0184,25.6084],[89.9993,25.6219],[89.9833,25.6267],[89.9804,25.6376],[89.947,25.6588],[89.9417,25.6781],[89.9211,25.6944],[89.9185,25.7027],[89.8942,25.7272],[89.8954,25.7441],[89.9219,25.7392],[89.9335,25.7446],[89.9337,25.7525],[89.9467,25.7647],[89.9552,25.7745],[89.9526,25.7834],[89.952,25.8109],[89.968,25.8262],[89.9759,25.834],[89.9978,25.8397],[90.0016,25.8422],[89.9974,25.8442],[90.0003,25.8486],[90.0115,25.8497],[90.0208,25.8616],[90.0219,25.8655],[90.0214,25.8685],[90.0047,25.8787],[90.0279,25.8943],[90.0522,25.8987],[90.0724,25.9193],[90.1005,25.9421],[90.1109,25.9541],[90.1187,25.9613],[90.1229,25.9697],[90.1309,25.9681],[90.1433,25.9753],[90.1571,25.9869],[90.1761,25.9956],[90.1744,26.0046],[90.1792,26.0126],[90.1749,26.0134],[90.1888,26.0251],[90.1897,26.0284],[90.1739,26.0385],[90.1684,26.0478],[90.1754,26.0598],[90.1769,26.0654],[90.1712,26.0659],[90.1542,26.078],[90.1582,26.0838],[90.1807,26.1071],[90.1837,26.1126],[90.1925,26.1265],[90.195,26.1243],[90.2044,26.1238],[90.2145,26.1312],[90.2244,26.138],[90.2442,26.1481],[90.246,26.1718],[90.2473,26.1776],[90.2694,26.1862],[90.2965,26.182],[90.3207,26.1803],[90.3239,26.1795],[90.34,26.1754],[90.346,26.1759],[90.373,26.1793],[90.3761,26.1889],[90.3757,26.2216],[90.3838,26.2257],[90.3942,26.2206],[90.414,26.2346],[90.4257,26.2446],[90.439,26.2469],[90.4336,26.2514],[90.4395,26.2542],[90.4482,26.249],[90.4418,26.2647],[90.4442,26.2689],[90.4498,26.2725],[90.4596,26.2652],[90.466,26.2651],[90.4716,26.2689],[90.4598,26.2775],[90.468,26.2809],[90.4634,26.2892],[90.4742,26.2883],[90.4794,26.2962],[90.4775,26.2996],[90.4663,26.3264],[90.4728,26.3314],[90.4695,26.3332],[90.4566,26.3563],[90.4491,26.3541],[90.4489,26.3537],[90.4344,26.3587],[90.4298,26.3477],[90.413,26.3625],[90.3815,26.3664],[90.3819,26.3743],[90.3837,26.371],[90.3944,26.3881],[90.3717,26.3848],[90.3657,26.3968]]]]},"properties":{"NAME_1":"Assam","NAME_2":"Dhuburi"}},{"type":"Feature","geometry":{"type":"Polygon","coordinates":[[[95.276,27.6872],[95.2589,27.6634],[95.2247,27.657],[95.1933,27.6715],[95.2058,27.7126],[95.1758,27.6999],[95.1211,27.6846],[95.106,27.6667],[95.0509,27.6663],[94.9837,27.6549],[94.9567,27.6319],[94.9476,27.6129],[94.9209,27.6047],[94.8808,27.5777],[94.798,27.4946],[94.7616,27.475],[94.7452,27.4391],[94.6991,27.4268],[94.6875,27.414],[94.6864,27.3873],[94.6639,27.3804],[94.665,27.3532],[94.6059,27.329],[94.6139,27.3097],[94.5981,27.2861],[94.5867,27.2706],[94.5794,27.1966],[94.5693,27.1828],[94.5946,27.1495],[94.6166,27.1803],[94.6235,27.2061],[94.6453,27.2509],[94.6852,27.2512],[94.6942,27.2725],[94.7523,27.2735],[94.7783,27.2432],[94.7705,27.221],[94.7804,27.1954],[94.7769,27.1746],[94.7613,27.154],[94.7648,27.1323],[94.8482,27.1131],[94.8866,27.1616],[94.9692,27.2337],[94.9854,27.1749],[94.9805,27.1555],[95.0266,27.1491],[95.0539,27.1565],[95.0616,27.141],[95.1621,27.1366],[95.2009,27.168],[95.2262,27.1719],[95.24,27.1919],[95.2888,27.2025],[95.3136,27.1899],[95.3301,27.1928],[95.3589,27.1735],[95.3688,27.1418],[95.3713,27.1114],[95.4063,27.1183],[95.4203,27.1308],[95.4578,27.1356],[95.4659,27.1548],[95.4686,27.1905],[95.4589,27.2096],[95.491,27.2487],[95.487,27.2567],[95.4767,27.2591],[95.4734,27.2689],[95.4458,27.2623],[95.4653,27.2773],[95.4511,27.3008],[95.4675,27.3152],[95.4605,27.3443],[95.476,27.3482],[95.4735,27.3702],[95.4501,27.3748],[95.4311,27.3776],[95.4192,27.3874],[95.3966,27.3969],[95.3796,27.3909],[95.3503,27.397],[95.3397,27.3948],[95.3143,27.3967],[95.2953,27.417],[95.2771,27.4168],[95.2661,27.4118],[95.2596,27.4229],[95.2515,27.4378],[95.2439,27.438],[95.2207,27.4629],[95.2298,27.4772],[95.2293,27.4905],[95.252,27.5119],[95.263,27.5154],[95.2704,27.5525],[95.2841,27.5601],[95.2778,27.5649],[95.276,27.5757],[95.2897,27.5767],[95.2984,27.5827],[95.3078,27.5882],[95.3214,27.5925],[95.2973,27.6561],[95.2907,27.6746],[95.276,27.6872]]]},"properties":{"NAME_1":"Assam","NAME_2":"Dibrugarh"}},{"type":"Feature","geometry":{"type":"Polygon","coordinates":[[[90.6581,26.228],[90.6205,26.2239],[90.5999,26.1993],[90.5712,26.189],[90.5403,26.1869],[90.4787,26.1602],[90.454,26.1458],[90.4252,26.1438],[90.3595,26.1602],[90.346,26.1759],[90.34,26.1754],[90.3239,26.1795],[90.3207,26.1803],[90.2965,26.182],[90.2694,26.1862],[90.2473,26.1776],[90.246,26.1718],[90.2442,26.1481],[90.2244,26.138],[90.2145,26.1312],[90.2044,26.1238],[90.195,26.1243],[90.1925,26.1265],[90.1837,26.1126],[90.1807,26.1071],[90.1582,26.0838],[90.1542,26.078],[90.1712,26.0659],[90.1769,26.0654],[90.1754,26.0598],[90.1684,26.0478],[90.1739,26.0385],[90.1897,26.0284],[90.1888,26.0251],[90.1749,26.0134],[90.1792,26.0126],[90.1744,26.0046],[90.1761,25.9956],[90.1571,25.9869],[90.1433,25.9753],[90.1309,25.9681],[90.1229,25.9697],[90.1187,25.9613],[90.2128,25.9539],[90.2866,25.9639],[90.3243,25.9744],[90.3299,25.9885],[90.365,26.0103],[90.3965,26.0142],[90.4286,25.989],[90.4575,25.9996],[90.4773,26.0153],[90.5057,25.996],[90.5345,25.958],[90.5255,25.901],[90.5534,25.9291],[90.5714,25.939],[90.5788,25.958],[90.629,25.9374],[90.6273,25.917],[90.6757,25.9365],[90.686,25.9508],[90.7131,25.9522],[90.7403,25.9409],[90.7405,25.9152],[90.7781,25.9083],[90.7971,25.9415],[90.8204,25.9484],[90.8696,25.9424],[90.883,25.9517],[90.9191,25.9133],[90.9159,25.9432],[90.9579,25.9339],[90.9675,25.8872],[91.0292,25.888],[91.048,25.9416],[91.0804,25.9742],[91.0975,26.0098],[91.066,26.0445],[91.0265,26.0403],[91.0096,26.0532],[90.978,26.0617],[90.9356,26.0943],[90.9132,26.0895],[90.8682,26.098],[90.8599,26.1129],[90.8379,26.1115],[90.7767,26.1346],[90.7215,26.135],[90.6913,26.1534],[90.6581,26.228]]]},"properties":{"NAME_1":"Assam","NAME_2":"Goalpara"}},{"type":"Feature","geometry":{"type":"Polygon","coordinates":[[[93.9625,26.9295],[93.9351,26.9329],[93.9185,26.9118],[93.8925,26.894],[93.8972,26.8753],[93.8793,26.8588],[93.842,26.8555],[93.8252,26.8286],[93.8069,26.8263],[93.7722,26.847],[93.7536,26.8085],[93.7112,26.8208],[93.6958,26.801],[93.6708,26.8034],[93.6492,26.7808],[93.6656,26.7173],[93.6501,26.7082],[93.5659,26.7269],[93.5626,26.7392],[93.5342,26.7568],[93.5094,26.7634],[93.4609,26.7598],[93.4318,26.7474],[93.4034,26.7558],[93.3475,26.7343],[93.3359,26.7103],[93.3075,26.7009],[93.3099,26.6716],[93.3207,26.6598],[93.3097,26.6394],[93.2867,26.6377],[93.3007,26.6077],[93.3029,26.5811],[93.3013,26.5801],[93.3119,26.5795],[93.3154,26.5812],[93.3788,26.5809],[93.4023,26.5791],[93.4037,26.5733],[93.4461,26.5796],[93.4574,26.5827],[93.4581,26.5772],[93.4667,26.5832],[93.4633,26.5772],[93.4652,26.5716],[93.4943,26.5939],[93.4726,26.5935],[93.4976,26.6075],[93.5089,26.5986],[93.5111,26.5965],[93.5462,26.6071],[93.5707,26.6067],[93.5926,26.6006],[93.5865,26.5879],[93.5878,26.577],[93.5869,26.5717],[93.6149,26.58],[93.6133,26.5695],[93.6175,26.5708],[93.6249,26.5786],[93.6256,26.5939],[93.6404,26.6014],[93.65,26.5977],[93.6581,26.6057],[93.6705,26.6058],[93.676,26.6038],[93.6856,26.6094],[93.7227,26.607],[93.7519,26.5806],[93.7426,26.5662],[93.7391,26.5645],[93.7382,26.5599],[93.7362,26.5532],[93.7414,26.5469],[93.7353,26.5442],[93.7379,26.5379],[93.7474,26.5319],[93.7555,26.5237],[93.7587,26.5183],[93.7674,26.5055],[93.7796,26.483],[93.7795,26.4804],[93.7729,26.4814],[93.7789,26.4715],[93.7877,26.4577],[93.7859,26.4415],[93.7838,26.4219],[93.7977,26.4136],[93.799,26.4096],[93.7932,26.4066],[93.7807,26.3902],[93.7764,26.3877],[93.7895,26.3811],[93.7954,26.3865],[93.7995,26.3935],[93.8162,26.4034],[93.8247,26.4117],[93.8279,26.4181],[93.8596,26.4086],[93.8678,26.3985],[93.8845,26.3911],[93.8901,26.386],[93.8854,26.3807],[93.8899,26.3697],[93.8883,26.3652],[93.8856,26.3598],[93.885,26.3459],[93.8912,26.3461],[93.8954,26.3353],[93.8899,26.3299],[93.8945,26.3254],[93.8947,26.3187],[93.8867,26.3252],[93.8888,26.3188],[93.8789,26.3177],[93.8737,26.3054],[93.8701,26.3006],[93.8772,26.294],[93.8833,26.2807],[93.881,26.2768],[93.8734,26.2793],[93.8767,26.2696],[93.8699,26.2583],[93.8635,26.257],[93.8596,26.2514],[93.8497,26.2448],[93.8615,26.2472],[93.8571,26.2234],[93.8531,26.2199],[93.8445,26.2234],[93.8406,26.2198],[93.8465,26.218],[93.8389,26.2129],[93.8356,26.208],[93.8441,26.2068],[93.8397,26.2033],[93.8349,26.2021],[93.8327,26.198],[93.8298,26.1908],[93.836,26.1788],[93.8287,26.1734],[93.8384,26.1626],[93.8358,26.1606],[93.8319,26.1566],[93.8268,26.1563],[93.8312,26.1544],[93.8314,26.1516],[93.8296,26.1517],[93.8305,26.1424],[93.8308,26.134],[93.8265,26.1415],[93.8221,26.1355],[93.8281,26.1319],[93.8209,26.1287],[93.8223,26.1218],[93.8225,26.1155],[93.8136,26.1162],[93.8138,26.1007],[93.8117,26.0943],[93.8097,26.09],[93.8068,26.09],[93.8068,26.0833],[93.8058,26.0817],[93.808,26.0741],[93.801,26.0794],[93.7954,26.0648],[93.7981,26.0589],[93.7963,26.0485],[93.7931,26.043],[93.7852,26.044],[93.7841,26.0366],[93.7935,26.0393],[93.7997,26.032],[93.7924,26.0225],[93.7898,26.0174],[93.7854,26.0183],[93.7917,26.0098],[93.7944,26.0018],[93.7963,26.0022],[93.7987,26.0047],[93.8022,26.0071],[93.8076,25.9989],[93.8013,26.0019],[93.7954,25.9958],[93.8002,25.984],[93.8047,25.9836],[93.7981,25.9801],[93.7874,25.9828],[93.7841,25.9841],[93.7793,25.9712],[93.7713,25.9696],[93.773,25.966],[93.7852,25.9583],[93.7983,25.9097],[93.7798,25.8463],[93.7958,25.8144],[93.8188,25.8262],[93.8243,25.8471],[93.8517,25.863],[93.8827,25.8459],[93.9159,25.8877],[93.9608,25.9059],[93.9827,25.9263],[93.9692,25.9608],[93.956,25.9742],[93.9549,26.0073],[93.9659,26.0424],[93.9911,26.0726],[93.986,26.0836],[94.0064,26.1472],[93.9997,26.1582],[94.013,26.1863],[94.0357,26.2032],[94.0529,26.2558],[94.0705,26.26],[94.1027,26.3087],[94.108,26.3264],[94.1388,26.3416],[94.1645,26.3393],[94.1677,26.3533],[94.138,26.3544],[94.1182,26.4041],[94.1194,26.4316],[94.1309,26.4493],[94.1072,26.4708],[94.099,26.4958],[94.1172,26.5584],[94.1019,26.5802],[94.073,26.6008],[94.0974,26.6326],[94.0965,26.6493],[94.0712,26.6697],[94.0509,26.6769],[94.0387,26.7123],[94.0482,26.7324],[94.0245,26.7509],[94.0031,26.7503],[93.9988,26.7704],[93.9753,26.7691],[93.9804,26.8124],[94.0107,26.84],[93.9865,26.8746],[93.9585,26.899],[93.9625,26.9295]]]},"properties":{"NAME_1":"Assam","NAME_2":"Golaghat"}},{"type":"Feature","geometry":{"type":"Polygon","coordinates":[[[92.7652,24.5208],[92.7807,24.572],[92.7645,24.5693],[92.7391,24.5893],[92.726,24.5717],[92.7052,24.5666],[92.6701,24.5936],[92.6787,24.6119],[92.6968,24.6189],[92.6668,24.6413],[92.669,24.6613],[92.6559,24.6942],[92.6562,24.7382],[92.6698,24.7924],[92.6804,24.8158],[92.6398,24.8215],[92.6313,24.8556],[92.589,24.8643],[92.5811,24.8413],[92.5449,24.8009],[92.5449,24.7623],[92.523,24.7426],[92.4972,24.6762],[92.5103,24.6278],[92.5058,24.5936],[92.5192,24.5693],[92.5085,24.5346],[92.5107,24.482],[92.5068,24.4397],[92.4927,24.3696],[92.477,24.325],[92.4329,24.2557],[92.4224,24.2531],[92.4225,24.2482],[92.4182,24.2109],[92.419,24.1944],[92.4332,24.1833],[92.4345,24.1741],[92.4352,24.1626],[92.4366,24.1524],[92.4439,24.1531],[92.4506,24.1437],[92.4631,24.1364],[92.4806,24.1501],[92.4829,24.1527],[92.4836,24.1539],[92.4849,24.1593],[92.4859,24.1622],[92.4881,24.1622],[92.5025,24.1621],[92.5128,24.1626],[92.5086,24.1692],[92.5136,24.1736],[92.5176,24.1762],[92.5254,24.1729],[92.5329,24.1805],[92.5506,24.2459],[92.588,24.2449],[92.6116,24.2533],[92.6262,24.3345],[92.645,24.3277],[92.6585,24.3435],[92.6917,24.3564],[92.7142,24.4053],[92.7305,24.4528],[92.7652,24.5208]]]},"properties":{"NAME_1":"Assam","NAME_2":"Hailakandi"}},{"type":"Feature","geometry":{"type":"Polygon","coordinates":[[[94.5946,27.1495],[94.5693,27.1828],[94.5246,27.1628],[94.5086,27.1246],[94.4741,27.1354],[94.47,27.1184],[94.4383,27.1233],[94.4178,27.0949],[94.3673,27.1016],[94.3371,27.0851],[94.3076,27.0762],[94.2812,27.099],[94.2381,27.077],[94.2245,27.0357],[94.1868,27.0319],[94.1919,27.0146],[94.181,27.0009],[94.1587,27.0027],[94.1373,26.9932],[94.134,26.973],[94.1111,26.9738],[94.0777,26.964],[94.0527,26.9828],[94.0275,26.9598],[94.0292,26.9382],[94.0125,26.9311],[93.9625,26.9295],[93.9585,26.899],[93.9865,26.8746],[94.0107,26.84],[93.9804,26.8124],[93.9753,26.7691],[93.9988,26.7704],[94.0031,26.7503],[94.0245,26.7509],[94.0482,26.7324],[94.0387,26.7123],[94.0509,26.6769],[94.0712,26.6697],[94.0965,26.6493],[94.0974,26.6326],[94.073,26.6008],[94.1019,26.5802],[94.1172,26.5584],[94.099,26.4958],[94.1072,26.4708],[94.1309,26.4493],[94.1194,26.4316],[94.1182,26.4041],[94.138,26.3544],[94.1677,26.3533],[94.1791,26.3887],[94.1758,26.4318],[94.1865,26.4605],[94.2115,26.4898],[94.2399,26.5114],[94.2823,26.5635],[94.2872,26.5085],[94.2939,26.4807],[94.3165,26.4629],[94.3239,26.4794],[94.3521,26.4958],[94.3511,26.5086],[94.3776,26.5131],[94.3966,26.5297],[94.4148,26.5833],[94.4099,26.6164],[94.4545,26.639],[94.4679,26.6698],[94.4983,26.6737],[94.5201,26.7015],[94.5451,26.7109],[94.5924,26.7027],[94.5952,26.7299],[94.5599,26.7612],[94.5355,26.7584],[94.5155,26.7795],[94.5236,26.8122],[94.4892,26.8384],[94.4975,26.874],[94.4813,26.902],[94.4812,26.9384],[94.4073,26.9477],[94.4024,26.9642],[94.4695,27.0051],[94.4799,27.0337],[94.5099,27.0455],[94.5455,27.0784],[94.5946,27.1495]]]},"properties":{"NAME_1":"Assam","NAME_2":"Jorhat"}},{"type":"Feature","geometry":{"type":"Polygon","coordinates":[[[91.9534,26.255],[91.8898,26.2202],[91.8418,26.2156],[91.7768,26.1989],[91.7589,26.201],[91.7467,26.222],[91.7842,26.2452],[91.7904,26.2693],[91.7843,26.3015],[91.8192,26.326],[91.8177,26.3802],[91.7801,26.4123],[91.7638,26.4673],[91.7781,26.475],[91.7863,26.4996],[91.7768,26.5294],[91.7836,26.5377],[91.7579,26.5774],[91.7426,26.591],[91.7395,26.6167],[91.7474,26.6374],[91.7325,26.6587],[91.7424,26.6879],[91.7334,26.7303],[91.7178,26.7541],[91.7072,26.7976],[91.7009,26.797],[91.6953,26.7041],[91.6785,26.6537],[91.6704,26.6451],[91.6671,26.6002],[91.67,26.5247],[91.613,26.4871],[91.6098,26.5516],[91.5844,26.553],[91.5782,26.5271],[91.5557,26.5149],[91.5605,26.4844],[91.5514,26.4714],[91.5636,26.4341],[91.5246,26.3789],[91.5188,26.3495],[91.5248,26.3307],[91.4911,26.3199],[91.456,26.3189],[91.449,26.3039],[91.4505,26.2735],[91.4375,26.2606],[91.4173,26.2658],[91.4126,26.2459],[91.4203,26.2275],[91.4123,26.1982],[91.4188,26.167],[91.4129,26.1371],[91.3907,26.1401],[91.3555,26.1652],[91.2965,26.1583],[91.2543,26.1639],[91.2335,26.1829],[91.1804,26.1743],[91.1158,26.154],[91.0905,26.1644],[91.0733,26.1567],[91.0483,26.1289],[91.0246,26.12],[91.0018,26.1299],[90.9548,26.0974],[90.9356,26.0943],[90.978,26.0617],[91.0096,26.0532],[91.0265,26.0403],[91.066,26.0445],[91.0975,26.0098],[91.0804,25.9742],[91.048,25.9416],[91.0292,25.888],[91.0265,25.8666],[91.0131,25.8572],[91.0008,25.8223],[91.0208,25.8226],[91.0491,25.8488],[91.0659,25.8464],[91.0665,25.8258],[91.1208,25.8313],[91.1529,25.8501],[91.2026,25.8405],[91.1799,25.7763],[91.1887,25.7389],[91.2239,25.7234],[91.2554,25.7478],[91.2756,25.7469],[91.3324,25.8321],[91.3425,25.8361],[91.4127,25.8539],[91.4412,25.8416],[91.4687,25.859],[91.4834,25.8911],[91.5012,25.8985],[91.5016,25.9208],[91.5198,25.9409],[91.5185,25.9582],[91.5513,25.9749],[91.5654,26.0018],[91.57,26.0275],[91.5968,26.0208],[91.6322,26.0224],[91.6247,25.9859],[91.6379,25.9648],[91.6301,25.9446],[91.6112,25.9399],[91.6479,25.9137],[91.6693,25.9054],[91.7202,25.9541],[91.7232,26.0303],[91.7313,26.0592],[91.7595,26.0713],[91.7785,26.0912],[91.7904,26.087],[91.8193,26.1187],[91.8758,26.0977],[91.8693,26.0569],[91.8832,26.03],[91.9075,26.0271],[91.934,26.0147],[91.9782,26.0259],[91.9911,26.041],[92.0361,26.0394],[92.0529,26.0328],[92.0934,26.0485],[92.1331,26.0459],[92.1505,26.0649],[92.1783,26.0795],[92.1628,26.1498],[92.1296,26.18],[92.1086,26.1726],[92.0839,26.1797],[92.0773,26.1966],[92.0321,26.2091],[91.9974,26.2058],[91.9566,26.2328],[91.9534,26.255]]]},"properties":{"NAME_1":"Assam","NAME_2":"Kamrup"}},{"type":"Feature","geometry":{"type":"MultiPolygon","coordinates":[[[[92.5282,26.142],[92.5152,26.1469],[92.5096,26.1431],[92.4857,26.1487],[92.4756,26.1438],[92.4693,26.1482],[92.4596,26.1392],[92.4554,26.1369],[92.4524,26.136],[92.4424,26.1255],[92.4348,26.1234],[92.4329,26.1172],[92.4042,26.1196],[92.4056,26.1269],[92.4131,26.1352],[92.3862,26.1415],[92.3774,26.1335],[92.3557,26.112],[92.3438,26.1086],[92.3182,26.0931],[92.3123,26.0834],[92.3105,26.0765],[92.3021,26.0768],[92.2557,26.0289],[92.2217,25.9986],[92.2152,25.9963],[92.211,25.9947],[92.2074,25.9882],[92.1916,25.9852],[92.1656,25.9644],[92.1608,25.9515],[92.1575,25.9393],[92.1602,25.926],[92.1637,25.9118],[92.1743,25.9092],[92.1832,25.9109],[92.2006,25.9082],[92.2238,25.9104],[92.225,25.9016],[92.2238,25.9007],[92.2129,25.8921],[92.2033,25.8901],[92.1791,25.8679],[92.181,25.8514],[92.1633,25.8258],[92.1531,25.8127],[92.1537,25.7955],[92.151,25.7836],[92.1552,25.7786],[92.1541,25.7729],[92.156,25.7645],[92.1582,25.7572],[92.1655,25.7344],[92.1609,25.7263],[92.1537,25.7227],[92.151,25.7194],[92.1511,25.7118],[92.161,25.6973],[92.1644,25.6849],[92.1645,25.6693],[92.171,25.6669],[92.1879,25.6834],[92.1983,25.6864],[92.2016,25.6897],[92.2106,25.6959],[92.229,25.7162],[92.2326,25.7151],[92.2557,25.7107],[92.2705,25.7109],[92.288,25.7159],[92.3061,25.7231],[92.3139,25.7247],[92.3335,25.7252],[92.3481,25.7319],[92.3683,25.7404],[92.3675,25.7424],[92.3835,25.7474],[92.4048,25.7437],[92.4133,25.734],[92.432,25.732],[92.4364,25.7156],[92.4272,25.7104],[92.4321,25.691],[92.4405,25.6881],[92.443,25.6877],[92.4552,25.6842],[92.4654,25.6825],[92.4813,25.6639],[92.4979,25.627],[92.5106,25.6172],[92.5332,25.6159],[92.5445,25.6143],[92.5586,25.609],[92.5563,25.5928],[92.5609,25.5827],[92.5814,25.5598],[92.6026,25.5574],[92.6211,25.5683],[92.6261,25.568],[92.6306,25.5707],[92.6341,25.5789],[92.6535,25.5922],[92.6605,25.5851],[92.6631,25.5779],[92.6846,25.5815],[92.6912,25.5963],[92.7023,25.6021],[92.7149,25.6015],[92.7465,25.6],[92.7515,25.6062],[92.7524,25.6154],[92.7676,25.6216],[92.7629,25.6285],[92.7629,25.6311],[92.7721,25.6421],[92.7842,25.6709],[92.777,25.6805],[92.798,25.6912],[92.812,25.7045],[92.8185,25.7153],[92.8235,25.7306],[92.8226,25.7436],[92.8332,25.7471],[92.8378,25.752],[92.8867,25.7606],[92.9063,25.7674],[92.929,25.7835],[92.9317,25.8057],[92.9306,25.8103],[92.944,25.8075],[92.9523,25.8135],[92.9649,25.8202],[92.9594,25.8114],[92.9577,25.8082],[92.969,25.7959],[92.9713,25.7929],[92.9691,25.7874],[92.9758,25.7903],[92.9853,25.7861],[92.9903,25.7982],[92.9846,25.8092],[92.9885,25.8224],[92.9902,25.8247],[92.9991,25.8225],[93.0067,25.8092],[93.0168,25.7927],[93.0261,25.7986],[93.0719,25.7775],[93.0775,25.7797],[93.034,25.8113],[93.0223,25.8276],[93.0121,25.8419],[93.0111,25.8488],[92.998,25.8587],[92.9863,25.8779],[92.9651,25.8773],[92.9103,25.8699],[92.9037,25.8686],[92.8896,25.8697],[92.8758,25.8694],[92.8738,25.8698],[92.8709,25.872],[92.8686,25.8756],[92.8609,25.886],[92.8515,25.9024],[92.8581,25.9244],[92.8446,25.9204],[92.8292,25.9201],[92.8228,25.925],[92.8092,25.9205],[92.8018,25.9238],[92.7972,25.9566],[92.8008,25.9577],[92.8052,25.9628],[92.7844,25.9547],[92.7789,25.9521],[92.7698,25.9552],[92.7673,25.9842],[92.7712,25.9906],[92.7794,25.9991],[92.774,26.0021],[92.7619,26.0013],[92.7662,26.0089],[92.7822,26.0105],[92.7826,26.0142],[92.7722,26.0181],[92.7597,26.0229],[92.7588,26.039],[92.748,26.0427],[92.7527,26.0489],[92.7513,26.0634],[92.713,26.0513],[92.7165,26.0379],[92.7126,26.0204],[92.7065,26.0227],[92.6922,26.0232],[92.6911,26.0249],[92.6858,26.0278],[92.6823,26.0283],[92.6793,26.0279],[92.6641,26.0255],[92.6571,26.0215],[92.6582,26.0132],[92.6585,26.003],[92.6363,25.9941],[92.6357,25.9912],[92.6274,25.9873],[92.5994,25.9777],[92.58,25.9669],[92.577,25.9658],[92.5718,25.9628],[92.5507,25.9722],[92.5714,26.0029],[92.5697,26.0065],[92.5784,26.0186],[92.5932,26.024],[92.5901,26.0295],[92.5858,26.0559],[92.5964,26.0706],[92.5896,26.0862],[92.5773,26.0963],[92.5766,26.0978],[92.5775,26.1121],[92.5666,26.1172],[92.5548,26.1154],[92.5344,26.0977],[92.5321,26.1026],[92.5217,26.1037],[92.5204,26.1065],[92.5228,26.1224],[92.522,26.1264],[92.5282,26.142]]],[[[93.5089,26.5986],[93.4976,26.6075],[93.4726,26.5935],[93.4943,26.5939],[93.4652,26.5716],[93.4633,26.5772],[93.4667,26.5832],[93.4581,26.5772],[93.4574,26.5827],[93.4461,26.5796],[93.4037,26.5733],[93.4023,26.5791],[93.3788,26.5809],[93.3154,26.5812],[93.3119,26.5795],[93.3013,26.5801],[93.2901,26.576],[93.263,26.5703],[93.2523,26.5709],[93.2391,26.5579],[93.2381,26.5544],[93.259,26.5533],[93.2503,26.5478],[93.2552,26.5462],[93.2656,26.5361],[93.2594,26.5333],[93.2773,26.5385],[93.2842,26.5238],[93.2937,26.5202],[93.2987,26.511],[93.2937,26.5052],[93.2901,26.5112],[93.288,26.5146],[93.2781,26.5176],[93.2763,26.5095],[93.2729,26.5156],[93.2502,26.5236],[93.2462,26.5314],[93.2137,26.5316],[93.2167,26.5261],[93.2145,26.5239],[93.2178,26.51],[93.2087,26.5206],[93.2004,26.5366],[93.1904,26.5335],[93.1623,26.527],[93.1786,26.5359],[93.1851,26.5412],[93.1938,26.5445],[93.1976,26.543],[93.2053,26.5507],[93.2123,26.5588],[93.2073,26.5641],[93.1875,26.5702],[93.1564,26.5502],[93.1524,26.552],[93.1381,26.5499],[93.1232,26.5405],[93.1193,26.5317],[93.1035,26.5365],[93.1032,26.5418],[93.0714,26.544],[93.0452,26.5379],[93.0507,26.5289],[93.0136,26.5066],[93.0105,26.4897],[93.0156,26.4802],[93.0237,26.4819],[93.0457,26.4886],[93.0704,26.4918],[93.0686,26.5019],[93.0732,26.4989],[93.0857,26.496],[93.0673,26.4855],[93.0741,26.4801],[93.0919,26.4709],[93.0909,26.4651],[93.1089,26.4695],[93.1008,26.475],[93.104,26.4765],[93.1117,26.482],[93.1187,26.4873],[93.1203,26.4825],[93.1198,26.4966],[93.1308,26.4905],[93.1309,26.4832],[93.1334,26.4798],[93.1174,26.471],[93.1276,26.4658],[93.108,26.4519],[93.114,26.4488],[93.1007,26.4349],[93.1021,26.4403],[93.1078,26.4453],[93.0892,26.4417],[93.0748,26.4364],[93.0918,26.4368],[93.0891,26.4339],[93.0712,26.4227],[93.0696,26.4264],[93.0509,26.4172],[93.0499,26.4198],[93.0547,26.422],[93.0528,26.4365],[93.031,26.4266],[92.9983,26.4256],[92.9859,26.4208],[92.9766,26.422],[92.9722,26.418],[92.9653,26.4167],[92.9505,26.3988],[92.9128,26.3983],[92.9057,26.4015],[92.8917,26.3915],[92.8843,26.3842],[92.8906,26.3831],[92.908,26.3808],[92.9245,26.3842],[92.9187,26.3705],[92.9124,26.3597],[92.9133,26.3577],[92.9239,26.3579],[92.9332,26.3544],[92.9384,26.3544],[92.9418,26.3533],[92.946,26.3384],[92.9402,26.3269],[92.9357,26.3247],[92.9181,26.3182],[92.8971,26.3076],[92.8959,26.3022],[92.8965,26.2985],[92.8925,26.2917],[92.8799,26.2881],[92.8618,26.2963],[92.855,26.3015],[92.8548,26.3047],[92.8486,26.3067],[92.8398,26.2829],[92.8262,26.2737],[92.8228,26.267],[92.8197,26.2652],[92.8167,26.2407],[92.8277,26.2294],[92.8193,26.2174],[92.798,26.2239],[92.8017,26.2045],[92.8277,26.2071],[92.8501,26.2039],[92.871,26.2069],[92.9,26.2056],[92.9227,26.2058],[92.9321,26.2034],[92.9429,26.2033],[92.9547,26.1842],[92.9563,26.172],[92.9489,26.1614],[92.934,26.1491],[92.9447,26.1387],[92.9589,26.1414],[92.9691,26.1311],[92.9731,26.132],[92.9937,26.1248],[93.0005,26.1201],[93.0105,26.1139],[93.0152,26.1155],[93.0223,26.1144],[93.0377,26.1093],[93.0389,26.0928],[93.0496,26.0899],[93.0519,26.0879],[93.0578,26.0909],[93.058,26.0888],[93.0652,26.085],[93.0695,26.0827],[93.0729,26.0849],[93.0773,26.086],[93.0829,26.0813],[93.0858,26.0867],[93.0855,26.0828],[93.0922,26.082],[93.0906,26.0785],[93.1032,26.0788],[93.1072,26.073],[93.0955,26.0349],[93.1244,26.0343],[93.1306,26.0256],[93.1464,26.0098],[93.1561,25.9952],[93.162,25.9704],[93.1627,25.9652],[93.169,25.9573],[93.1776,25.9434],[93.1911,25.9],[93.1996,25.8939],[93.2175,25.8726],[93.2381,25.8496],[93.2447,25.84],[93.2479,25.8127],[93.2508,25.8109],[93.2512,25.8],[93.2516,25.7899],[93.2483,25.7817],[93.2409,25.7693],[93.2346,25.7561],[93.2225,25.7285],[93.2094,25.7314],[93.1771,25.7281],[93.1413,25.7133],[93.1388,25.7093],[93.1386,25.6971],[93.1329,25.6869],[93.1387,25.672],[93.1649,25.6636],[93.1747,25.6547],[93.1841,25.6421],[93.1916,25.6285],[93.1817,25.6196],[93.1804,25.6054],[93.1728,25.5985],[93.1892,25.5855],[93.1972,25.5682],[93.2024,25.5632],[93.2023,25.5586],[93.2086,25.5569],[93.218,25.5519],[93.243,25.5486],[93.2651,25.5486],[93.268,25.5399],[93.2899,25.5435],[93.3069,25.5321],[93.3256,25.5361],[93.3317,25.5468],[93.3334,25.549],[93.3544,25.5652],[93.3734,25.5692],[93.3768,25.5737],[93.3827,25.5762],[93.3824,25.5848],[93.3901,25.5947],[93.4068,25.5965],[93.4168,25.6149],[93.4183,25.6211],[93.4225,25.6223],[93.431,25.6292],[93.4391,25.6323],[93.4415,25.6348],[93.4499,25.6349],[93.4594,25.6331],[93.4685,25.6438],[93.4836,25.6518],[93.4902,25.656],[93.4999,25.6565],[93.5021,25.662],[93.5102,25.671],[93.5194,25.686],[93.5259,25.6997],[93.5306,25.6927],[93.538,25.7032],[93.5436,25.7017],[93.5488,25.7147],[93.5498,25.719],[93.5499,25.7324],[93.5563,25.7419],[93.5701,25.7517],[93.5734,25.7566],[93.5732,25.7608],[93.5882,25.7682],[93.5937,25.7643],[93.5983,25.7684],[93.6056,25.7675],[93.6081,25.7769],[93.6223,25.7798],[93.627,25.7916],[93.629,25.8044],[93.6361,25.8137],[93.6485,25.824],[93.6686,25.8246],[93.6781,25.8289],[93.6905,25.8476],[93.7064,25.8533],[93.6858,25.9049],[93.6977,25.9171],[93.7289,25.9284],[93.7365,25.9305],[93.7518,25.9364],[93.7494,25.9421],[93.7684,25.955],[93.7703,25.9535],[93.773,25.966],[93.7713,25.9696],[93.7793,25.9712],[93.7841,25.9841],[93.7874,25.9828],[93.7981,25.9801],[93.8047,25.9836],[93.8002,25.984],[93.7954,25.9958],[93.8013,26.0019],[93.8076,25.9989],[93.8022,26.0071],[93.7987,26.0047],[93.7963,26.0022],[93.7944,26.0018],[93.7917,26.0098],[93.7854,26.0183],[93.7898,26.0174],[93.7924,26.0225],[93.7997,26.032],[93.7935,26.0393],[93.7841,26.0366],[93.7852,26.044],[93.7931,26.043],[93.7963,26.0485],[93.7981,26.0589],[93.7954,26.0648],[93.801,26.0794],[93.808,26.0741],[93.8058,26.0817],[93.8068,26.0833],[93.8068,26.09],[93.8097,26.09],[93.8117,26.0943],[93.8138,26.1007],[93.8136,26.1162],[93.8225,26.1155],[93.8223,26.1218],[93.8209,26.1287],[93.8281,26.1319],[93.8221,26.1355],[93.8265,26.1415],[93.8308,26.134],[93.8305,26.1424],[93.8296,26.1517],[93.8314,26.1516],[93.8312,26.1544],[93.8268,26.1563],[93.8319,26.1566],[93.8358,26.1606],[93.8384,26.1626],[93.8287,26.1734],[93.836,26.1788],[93.8298,26.1908],[93.8327,26.198],[93.8349,26.2021],[93.8397,26.2033],[93.8441,26.2068],[93.8356,26.208],[93.8389,26.2129],[93.8465,26.218],[93.8406,26.2198],[93.8445,26.2234],[93.8531,26.2199],[93.8571,26.2234],[93.8615,26.2472],[93.8497,26.2448],[93.8596,26.2514],[93.8635,26.257],[93.8699,26.2583],[93.8767,26.2696],[93.8734,26.2793],[93.881,26.2768],[93.8833,26.2807],[93.8772,26.294],[93.8701,26.3006],[93.8737,26.3054],[93.8789,26.3177],[93.8888,26.3188],[93.8867,26.3252],[93.8947,26.3187],[93.8945,26.3254],[93.8899,26.3299],[93.8954,26.3353],[93.8912,26.3461],[93.885,26.3459],[93.8856,26.3598],[93.8883,26.3652],[93.8899,26.3697],[93.8854,26.3807],[93.8901,26.386],[93.8845,26.3911],[93.8678,26.3985],[93.8596,26.4086],[93.8279,26.4181],[93.8247,26.4117],[93.8162,26.4034],[93.7995,26.3935],[93.7954,26.3865],[93.7895,26.3811],[93.7764,26.3877],[93.7807,26.3902],[93.7932,26.4066],[93.799,26.4096],[93.7977,26.4136],[93.7838,26.4219],[93.7859,26.4415],[93.7877,26.4577],[93.7789,26.4715],[93.7729,26.4814],[93.7795,26.4804],[93.7796,26.483],[93.7674,26.5055],[93.7587,26.5183],[93.7555,26.5237],[93.7474,26.5319],[93.7379,26.5379],[93.7353,26.5442],[93.7414,26.5469],[93.7362,26.5532],[93.7382,26.5599],[93.7391,26.5645],[93.7426,26.5662],[93.7519,26.5806],[93.7227,26.607],[93.6856,26.6094],[93.676,26.6038],[93.6705,26.6058],[93.6581,26.6057],[93.65,26.5977],[93.6404,26.6014],[93.6256,26.5939],[93.6249,26.5786],[93.6175,26.5708],[93.6133,26.5695],[93.6149,26.58],[93.5869,26.5717],[93.5878,26.577],[93.5865,26.5879],[93.5926,26.6006],[93.5707,26.6067],[93.5462,26.6071],[93.5111,26.5965],[93.5089,26.5986]]]]},"properties":{"NAME_1":"Assam","NAME_2":"Karbi Anglong"}},{"type":"Feature","geometry":{"type":"Polygon","coordinates":[[[92.589,24.8643],[92.5601,24.8744],[92.5257,24.861],[92.516,24.8772],[92.4941,24.8767],[92.447,24.8629],[92.4165,24.8628],[92.3951,24.8554],[92.3655,24.8817],[92.3484,24.879],[92.3145,24.9076],[92.2452,24.9102],[92.2501,24.8848],[92.2441,24.8494],[92.2546,24.8342],[92.2778,24.8304],[92.2931,24.7836],[92.2983,24.7366],[92.2627,24.6886],[92.2506,24.6536],[92.2338,24.5618],[92.2343,24.5004],[92.2354,24.4968],[92.2394,24.4899],[92.2338,24.4847],[92.2312,24.4654],[92.2351,24.4564],[92.2359,24.4538],[92.2565,24.4363],[92.2593,24.4135],[92.2626,24.4048],[92.2698,24.3949],[92.2704,24.391],[92.2727,24.3862],[92.2699,24.3822],[92.2722,24.3776],[92.2676,24.3733],[92.2641,24.3622],[92.2129,24.2493],[92.2596,24.2504],[92.3035,24.2527],[92.3105,24.2513],[92.3141,24.2526],[92.4224,24.2531],[92.4329,24.2557],[92.477,24.325],[92.4927,24.3696],[92.5068,24.4397],[92.5107,24.482],[92.5085,24.5346],[92.5192,24.5693],[92.5058,24.5936],[92.5103,24.6278],[92.4972,24.6762],[92.523,24.7426],[92.5449,24.7623],[92.5449,24.8009],[92.5811,24.8413],[92.589,24.8643]]]},"properties":{"NAME_1":"Assam","NAME_2":"Karimganj"}},{"type":"Feature","geometry":{"type":"Polygon","coordinates":[[[90.615,26.7951],[90.5638,26.7996],[90.4097,26.9019],[90.3551,26.8961],[90.3458,26.8764],[90.3117,26.8509],[90.2904,26.8485],[90.2262,26.8582],[90.1946,26.833],[90.1826,26.8041],[90.1887,26.7706],[90.1278,26.749],[90.0552,26.7293],[90.0021,26.7343],[89.9578,26.7232],[89.8894,26.7244],[89.8584,26.7312],[89.8695,26.6738],[89.8699,26.6627],[89.8683,26.6608],[89.8758,26.6463],[89.8613,26.6356],[89.857,26.6234],[89.8618,26.6152],[89.8725,26.5976],[89.8615,26.5746],[89.8643,26.5608],[89.8614,26.5432],[89.8618,26.5305],[89.855,26.4943],[89.8624,26.4661],[89.8706,26.4599],[89.8694,26.4573],[89.8498,26.4142],[89.8448,26.4102],[89.8273,26.3965],[89.828,26.3935],[89.8445,26.3944],[89.8409,26.3778],[89.8279,26.3811],[89.8244,26.3769],[89.8212,26.3511],[89.8156,26.3515],[89.8115,26.358],[89.8172,26.3661],[89.8204,26.3706],[89.8099,26.3665],[89.782,26.3533],[89.7791,26.3474],[89.7809,26.3309],[89.762,26.3171],[89.7821,26.3163],[89.7961,26.3025],[89.7992,26.3009],[89.8069,26.3014],[89.8303,26.3075],[89.8454,26.2994],[89.8742,26.3021],[89.8899,26.3131],[89.8947,26.3251],[89.9083,26.3366],[89.9282,26.3417],[89.9319,26.3405],[89.9466,26.3333],[89.9715,26.3382],[89.9854,26.3456],[89.9981,26.3337],[90.0086,26.3269],[90.024,26.3362],[90.0235,26.3206],[90.0266,26.3094],[90.0467,26.2983],[90.0563,26.2987],[90.1045,26.3294],[90.152,26.353],[90.1696,26.3425],[90.2034,26.3588],[90.2044,26.3771],[90.2183,26.3839],[90.2256,26.3828],[90.224,26.3734],[90.2318,26.3654],[90.2273,26.3547],[90.2169,26.3295],[90.2394,26.3254],[90.2467,26.3263],[90.253,26.3349],[90.273,26.3233],[90.286,26.326],[90.288,26.3311],[90.2975,26.3381],[90.3047,26.3454],[90.3091,26.3483],[90.3163,26.3555],[90.3282,26.3656],[90.3188,26.3626],[90.3114,26.3769],[90.3121,26.3852],[90.3257,26.3887],[90.3298,26.3868],[90.3273,26.3964],[90.3288,26.4093],[90.3568,26.4112],[90.3622,26.3986],[90.3657,26.3968],[90.3717,26.3848],[90.3944,26.3881],[90.3837,26.371],[90.3819,26.3743],[90.3815,26.3664],[90.413,26.3625],[90.4298,26.3477],[90.4344,26.3587],[90.4489,26.3537],[90.4491,26.3541],[90.4357,26.4371],[90.4586,26.4662],[90.4493,26.4933],[90.4149,26.4818],[90.3774,26.486],[90.3577,26.5224],[90.3535,26.5464],[90.3899,26.5599],[90.4253,26.5505],[90.4576,26.5485],[90.4909,26.5349],[90.5336,26.5401],[90.5565,26.5266],[90.5721,26.5318],[90.5742,26.5537],[90.5648,26.5787],[90.5242,26.6307],[90.5232,26.6651],[90.5409,26.7119],[90.5607,26.7421],[90.615,26.7951]]]},"properties":{"NAME_1":"Assam","NAME_2":"Kokrajhar"}},{"type":"Feature","geometry":{"type":"Polygon","coordinates":[[[94.2597,27.5235],[94.2107,27.4979],[94.1912,27.4963],[94.1572,27.478],[94.1602,27.4665],[94.0863,27.4046],[94.0609,27.3636],[94,27.3347],[93.9565,27.2948],[93.9389,27.2733],[93.901,27.2415],[93.8674,27.1988],[93.8073,27.1501],[93.8058,27.1348],[93.8255,27.1193],[93.8367,27.0782],[93.8102,27.0681],[93.7685,27.0433],[93.7189,27.0192],[93.6983,26.9948],[93.7431,26.9615],[93.7508,26.9221],[93.7488,26.8974],[93.7746,26.8915],[93.7889,26.8608],[93.7722,26.847],[93.8069,26.8263],[93.8252,26.8286],[93.842,26.8555],[93.8793,26.8588],[93.8972,26.8753],[93.8925,26.894],[93.9185,26.9118],[93.9351,26.9329],[93.9625,26.9295],[94.0125,26.9311],[94.0292,26.9382],[94.0275,26.9598],[94.0527,26.9828],[94.0777,26.964],[94.1111,26.9738],[94.134,26.973],[94.1373,26.9932],[94.1587,27.0027],[94.181,27.0009],[94.1919,27.0146],[94.1868,27.0319],[94.2245,27.0357],[94.2381,27.077],[94.2812,27.099],[94.3076,27.0762],[94.3371,27.0851],[94.3673,27.1016],[94.4178,27.0949],[94.4383,27.1233],[94.47,27.1184],[94.4741,27.1354],[94.5086,27.1246],[94.5246,27.1628],[94.5693,27.1828],[94.5794,27.1966],[94.5867,27.2706],[94.5981,27.2861],[94.561,27.3257],[94.5385,27.3068],[94.509,27.3482],[94.4913,27.3517],[94.4322,27.334],[94.4038,27.334],[94.3235,27.3529],[94.3007,27.3502],[94.2718,27.3661],[94.25,27.3861],[94.2562,27.4029],[94.2851,27.386],[94.3046,27.4002],[94.3075,27.4337],[94.2777,27.4716],[94.2801,27.5043],[94.2597,27.5235]]]},"properties":{"NAME_1":"Assam","NAME_2":"Lakhimpur"}},{"type":"Feature","geometry":{"type":"Polygon","coordinates":[[[92.4138,26.517],[92.3832,26.5187],[92.3439,26.5038],[92.3151,26.4888],[92.2888,26.4611],[92.2548,26.4529],[92.22,26.4184],[92.1789,26.4245],[92.1415,26.4],[92.1245,26.3723],[92.0836,26.3384],[92.0735,26.3157],[92.0483,26.2822],[92.0303,26.2712],[92.0148,26.2813],[91.9818,26.2762],[91.9534,26.255],[91.9566,26.2328],[91.9974,26.2058],[92.0321,26.2091],[92.0773,26.1966],[92.0839,26.1797],[92.1086,26.1726],[92.1296,26.18],[92.1628,26.1498],[92.1783,26.0795],[92.1894,26.0669],[92.212,26.071],[92.2412,26.0625],[92.2737,26.0659],[92.3016,26.0765],[92.3021,26.0768],[92.3105,26.0765],[92.3123,26.0834],[92.3182,26.0931],[92.3438,26.1086],[92.3557,26.112],[92.3774,26.1335],[92.3862,26.1415],[92.4109,26.1376],[92.427,26.1534],[92.4398,26.1919],[92.4398,26.2399],[92.451,26.2639],[92.4972,26.287],[92.54,26.2955],[92.5494,26.3409],[92.5648,26.3615],[92.5623,26.3923],[92.4818,26.3683],[92.4518,26.3846],[92.445,26.4009],[92.4535,26.4591],[92.4138,26.517]]]},"properties":{"NAME_1":"Assam","NAME_2":"Marigaon"}},{"type":"Feature","geometry":{"type":"Polygon","coordinates":[[[93.3029,26.5811],[93.3007,26.6077],[93.2867,26.6377],[93.3097,26.6394],[93.3207,26.6598],[93.3099,26.6716],[93.3075,26.7009],[93.2886,26.6899],[93.2451,26.6864],[93.2164,26.6282],[93.1719,26.6123],[93.1226,26.58],[93.1056,26.5783],[93.0725,26.597],[93.0071,26.6006],[92.9887,26.6156],[92.9422,26.6194],[92.9223,26.6004],[92.8946,26.5977],[92.8691,26.5845],[92.8501,26.5874],[92.8,26.5607],[92.7715,26.5583],[92.7535,26.5139],[92.7033,26.5277],[92.6821,26.5112],[92.6639,26.5222],[92.6396,26.5193],[92.5787,26.5019],[92.5266,26.5111],[92.4647,26.4993],[92.4511,26.5202],[92.4138,26.517],[92.4535,26.4591],[92.445,26.4009],[92.4518,26.3846],[92.4818,26.3683],[92.5623,26.3923],[92.5648,26.3615],[92.5494,26.3409],[92.54,26.2955],[92.4972,26.287],[92.451,26.2639],[92.4398,26.2399],[92.4398,26.1919],[92.427,26.1534],[92.4109,26.1376],[92.4131,26.1352],[92.4056,26.1269],[92.4042,26.1196],[92.4329,26.1172],[92.4348,26.1234],[92.4424,26.1255],[92.4524,26.136],[92.4554,26.1369],[92.4596,26.1392],[92.4693,26.1482],[92.4756,26.1438],[92.4857,26.1487],[92.5096,26.1431],[92.5152,26.1469],[92.5282,26.142],[92.522,26.1264],[92.5228,26.1224],[92.5204,26.1065],[92.5217,26.1037],[92.5321,26.1026],[92.5344,26.0977],[92.5548,26.1154],[92.5666,26.1172],[92.5775,26.1121],[92.5766,26.0978],[92.5773,26.0963],[92.5896,26.0862],[92.5964,26.0706],[92.5858,26.0559],[92.5901,26.0295],[92.5932,26.024],[92.5784,26.0186],[92.5697,26.0065],[92.5714,26.0029],[92.5507,25.9722],[92.5718,25.9628],[92.577,25.9658],[92.58,25.9669],[92.5994,25.9777],[92.6274,25.9873],[92.6357,25.9912],[92.6363,25.9941],[92.6585,26.003],[92.6582,26.0132],[92.6571,26.0215],[92.6641,26.0255],[92.6793,26.0279],[92.6823,26.0283],[92.6858,26.0278],[92.6911,26.0249],[92.6922,26.0232],[92.7065,26.0227],[92.7126,26.0204],[92.7165,26.0379],[92.713,26.0513],[92.7513,26.0634],[92.7527,26.0489],[92.748,26.0427],[92.7588,26.039],[92.7597,26.0229],[92.7722,26.0181],[92.7826,26.0142],[92.7822,26.0105],[92.7662,26.0089],[92.7619,26.0013],[92.774,26.0021],[92.7794,25.9991],[92.7712,25.9906],[92.7673,25.9842],[92.7698,25.9552],[92.7789,25.9521],[92.7844,25.9547],[92.8052,25.9628],[92.8008,25.9577],[92.7972,25.9566],[92.8018,25.9238],[92.8092,25.9205],[92.8228,25.925],[92.8292,25.9201],[92.8446,25.9204],[92.8581,25.9244],[92.8515,25.9024],[92.8609,25.886],[92.8686,25.8756],[92.8709,25.872],[92.8738,25.8698],[92.8758,25.8694],[92.8896,25.8697],[92.9037,25.8686],[92.9103,25.8699],[92.9651,25.8773],[92.9863,25.8779],[92.998,25.8587],[93.0111,25.8488],[93.0121,25.8419],[93.0223,25.8276],[93.034,25.8113],[93.0775,25.7797],[93.0719,25.7775],[93.1084,25.7772],[93.1474,25.7405],[93.1446,25.716],[93.1771,25.7281],[93.2094,25.7314],[93.2225,25.7285],[93.2346,25.7561],[93.2409,25.7693],[93.2483,25.7817],[93.2516,25.7899],[93.2512,25.8],[93.2508,25.8109],[93.2479,25.8127],[93.2447,25.84],[93.2381,25.8496],[93.2175,25.8726],[93.1996,25.8939],[93.1911,25.9],[93.1776,25.9434],[93.169,25.9573],[93.1627,25.9652],[93.162,25.9704],[93.1561,25.9952],[93.1464,26.0098],[93.1306,26.0256],[93.1244,26.0343],[93.0955,26.0349],[93.1072,26.073],[93.1032,26.0788],[93.0906,26.0785],[93.0922,26.082],[93.0855,26.0828],[93.0858,26.0867],[93.0829,26.0813],[93.0773,26.086],[93.0729,26.0849],[93.0695,26.0827],[93.0652,26.085],[93.058,26.0888],[93.0578,26.0909],[93.0519,26.0879],[93.0496,26.0899],[93.0389,26.0928],[93.0377,26.1093],[93.0223,26.1144],[93.0152,26.1155],[93.0105,26.1139],[93.0005,26.1201],[92.9937,26.1248],[92.9731,26.132],[92.9691,26.1311],[92.9589,26.1414],[92.9447,26.1387],[92.934,26.1491],[92.9489,26.1614],[92.9563,26.172],[92.9547,26.1842],[92.9429,26.2033],[92.9321,26.2034],[92.9227,26.2058],[92.9,26.2056],[92.871,26.2069],[92.8501,26.2039],[92.8277,26.2071],[92.8017,26.2045],[92.798,26.2239],[92.8193,26.2174],[92.8277,26.2294],[92.8167,26.2407],[92.8197,26.2652],[92.8228,26.267],[92.8262,26.2737],[92.8398,26.2829],[92.8486,26.3067],[92.8548,26.3047],[92.855,26.3015],[92.8618,26.2963],[92.8799,26.2881],[92.8925,26.2917],[92.8965,26.2985],[92.8959,26.3022],[92.8971,26.3076],[92.9181,26.3182],[92.9357,26.3247],[92.9402,26.3269],[92.946,26.3384],[92.9418,26.3533],[92.9384,26.3544],[92.9332,26.3544],[92.9239,26.3579],[92.9133,26.3577],[92.9124,26.3597],[92.9187,26.3705],[92.9245,26.3842],[92.908,26.3808],[92.8906,26.3831],[92.8843,26.3842],[92.8917,26.3915],[92.9057,26.4015],[92.9128,26.3983],[92.9505,26.3988],[92.9653,26.4167],[92.9722,26.418],[92.9766,26.422],[92.9859,26.4208],[92.9983,26.4256],[93.031,26.4266],[93.0528,26.4365],[93.0547,26.422],[93.0499,26.4198],[93.0509,26.4172],[93.0696,26.4264],[93.0712,26.4227],[93.0891,26.4339],[93.0918,26.4368],[93.0748,26.4364],[93.0892,26.4417],[93.1078,26.4453],[93.1021,26.4403],[93.1007,26.4349],[93.114,26.4488],[93.108,26.4519],[93.1276,26.4658],[93.1174,26.471],[93.1334,26.4798],[93.1309,26.4832],[93.1308,26.4905],[93.1198,26.4966],[93.1203,26.4825],[93.1187,26.4873],[93.1117,26.482],[93.104,26.4765],[93.1008,26.475],[93.1089,26.4695],[93.0909,26.4651],[93.0919,26.4709],[93.0741,26.4801],[93.0673,26.4855],[93.0857,26.496],[93.0732,26.4989],[93.0686,26.5019],[93.0704,26.4918],[93.0457,26.4886],[93.0237,26.4819],[93.0156,26.4802],[93.0105,26.4897],[93.0136,26.5066],[93.0507,26.5289],[93.0452,26.5379],[93.0714,26.544],[93.1032,26.5418],[93.1035,26.5365],[93.1193,26.5317],[93.1232,26.5405],[93.1381,26.5499],[93.1524,26.552],[93.1564,26.5502],[93.1875,26.5702],[93.2073,26.5641],[93.2123,26.5588],[93.2053,26.5507],[93.1976,26.543],[93.1938,26.5445],[93.1851,26.5412],[93.1786,26.5359],[93.1623,26.527],[93.1904,26.5335],[93.2004,26.5366],[93.2087,26.5206],[93.2178,26.51],[93.2145,26.5239],[93.2167,26.5261],[93.2137,26.5316],[93.2462,26.5314],[93.2502,26.5236],[93.2729,26.5156],[93.2763,26.5095],[93.2781,26.5176],[93.288,26.5146],[93.2901,26.5112],[93.2937,26.5052],[93.2987,26.511],[93.2937,26.5202],[93.2842,26.5238],[93.2773,26.5385],[93.2594,26.5333],[93.2656,26.5361],[93.2552,26.5462],[93.2503,26.5478],[93.259,26.5533],[93.2381,26.5544],[93.2391,26.5579],[93.2523,26.5709],[93.263,26.5703],[93.2901,26.576],[93.3029,26.5811]]]},"properties":{"NAME_1":"Assam","NAME_2":"Nagaon"}},{"type":"Feature","geometry":{"type":"Polygon","coordinates":[[[91.7042,26.8119],[91.6793,26.8047],[91.6238,26.8213],[91.5908,26.8048],[91.4928,26.7898],[91.4782,26.7918],[91.4083,26.8356],[91.3796,26.8015],[91.3363,26.7797],[91.2951,26.7852],[91.2915,26.747],[91.2998,26.7368],[91.288,26.682],[91.2434,26.6443],[91.2441,26.6233],[91.264,26.6207],[91.2459,26.5852],[91.2904,26.5807],[91.2905,26.5629],[91.2499,26.5352],[91.247,26.5104],[91.2655,26.4878],[91.2377,26.4557],[91.2318,26.4246],[91.2341,26.3928],[91.2476,26.3678],[91.2771,26.3551],[91.2695,26.3282],[91.255,26.3115],[91.2507,26.2833],[91.2269,26.2815],[91.2366,26.2618],[91.2189,26.2165],[91.2483,26.1998],[91.2335,26.1829],[91.2543,26.1639],[91.2965,26.1583],[91.3555,26.1652],[91.3907,26.1401],[91.4129,26.1371],[91.4188,26.167],[91.4123,26.1982],[91.4203,26.2275],[91.4126,26.2459],[91.4173,26.2658],[91.4375,26.2606],[91.4505,26.2735],[91.449,26.3039],[91.456,26.3189],[91.4911,26.3199],[91.5248,26.3307],[91.5188,26.3495],[91.5246,26.3789],[91.5636,26.4341],[91.5514,26.4714],[91.5605,26.4844],[91.5557,26.5149],[91.5782,26.5271],[91.5844,26.553],[91.6098,26.5516],[91.613,26.4871],[91.67,26.5247],[91.6671,26.6002],[91.6704,26.6451],[91.6785,26.6537],[91.6953,26.7041],[91.7009,26.797],[91.7072,26.7976],[91.7042,26.8119]]]},"properties":{"NAME_1":"Assam","NAME_2":"Nalbari"}},{"type":"Feature","geometry":{"type":"Polygon","coordinates":[[[93.1446,25.716],[93.1474,25.7405],[93.1084,25.7772],[93.0719,25.7775],[93.0261,25.7986],[93.0168,25.7927],[93.0067,25.8092],[92.9991,25.8225],[92.9902,25.8247],[92.9885,25.8224],[92.9846,25.8092],[92.9903,25.7982],[92.9853,25.7861],[92.9758,25.7903],[92.9691,25.7874],[92.9713,25.7929],[92.969,25.7959],[92.9577,25.8082],[92.9594,25.8114],[92.9649,25.8202],[92.9523,25.8135],[92.944,25.8075],[92.9306,25.8103],[92.9317,25.8057],[92.929,25.7835],[92.9063,25.7674],[92.8867,25.7606],[92.8378,25.752],[92.8332,25.7471],[92.8226,25.7436],[92.8235,25.7306],[92.8185,25.7153],[92.812,25.7045],[92.798,25.6912],[92.777,25.6805],[92.7842,25.6709],[92.7721,25.6421],[92.7629,25.6311],[92.7629,25.6285],[92.7676,25.6216],[92.7524,25.6154],[92.7515,25.6062],[92.7465,25.6],[92.7149,25.6015],[92.7023,25.6021],[92.6912,25.5963],[92.6846,25.5815],[92.6631,25.5779],[92.6607,25.5818],[92.6447,25.5374],[92.6216,25.5158],[92.581,25.4952],[92.5678,25.4808],[92.5715,25.4641],[92.5982,25.4717],[92.607,25.4185],[92.6505,25.4317],[92.6738,25.4171],[92.7181,25.375],[92.7361,25.3738],[92.7606,25.3353],[92.7844,25.3325],[92.7922,25.2868],[92.7698,25.2689],[92.7722,25.2333],[92.8031,25.2215],[92.7796,25.2031],[92.7471,25.2078],[92.677,25.1822],[92.6441,25.1512],[92.6216,25.1177],[92.5817,25.1319],[92.5252,25.1256],[92.5429,25.0996],[92.605,25.1128],[92.623,25.1043],[92.6432,25.1193],[92.6724,25.1106],[92.7017,25.1112],[92.7372,25.1267],[92.7564,25.1412],[92.7676,25.1061],[92.7835,25.0893],[92.8291,25.0742],[92.8413,25.0559],[92.8858,25.0711],[92.9018,25.0823],[92.9461,25.0733],[92.9625,25.0912],[93.0193,25.0984],[93.0415,25.0881],[93.0178,25.0643],[93.0611,25.0258],[93.0722,25.0005],[93.1712,25],[93.207,24.9836],[93.2169,24.9898],[93.2529,24.9751],[93.2515,24.9814],[93.2533,24.9864],[93.2571,24.9985],[93.2557,25.0022],[93.2571,25.0009],[93.2625,25.006],[93.2577,25.0035],[93.2571,25.0032],[93.2552,25.0042],[93.2535,25.0064],[93.2512,25.0035],[93.2506,25.0032],[93.2494,25.0029],[93.2487,25.0029],[93.2475,25.0033],[93.2467,25.0042],[93.2517,25.016],[93.2538,25.0214],[93.2556,25.0287],[93.2638,25.0359],[93.2629,25.0418],[93.2678,25.0488],[93.2869,25.0468],[93.2993,25.0505],[93.3024,25.0519],[93.3046,25.048],[93.3061,25.0644],[93.3108,25.0726],[93.3223,25.0884],[93.3236,25.0917],[93.3358,25.0958],[93.3405,25.1144],[93.3492,25.1254],[93.3461,25.1299],[93.3486,25.1535],[93.3488,25.1572],[93.3531,25.1818],[93.3622,25.1956],[93.3706,25.2036],[93.3848,25.2257],[93.3887,25.2459],[93.4121,25.2635],[93.4233,25.2722],[93.4448,25.2923],[93.4656,25.2991],[93.474,25.3093],[93.4567,25.3253],[93.4519,25.3442],[93.4782,25.3799],[93.4633,25.411],[93.4569,25.4419],[93.435,25.4548],[93.4171,25.4528],[93.3904,25.4692],[93.3905,25.4856],[93.3718,25.5011],[93.3576,25.5277],[93.3404,25.5373],[93.3357,25.5454],[93.3317,25.5468],[93.3256,25.5361],[93.3069,25.5321],[93.2899,25.5435],[93.268,25.5399],[93.2651,25.5486],[93.243,25.5486],[93.218,25.5519],[93.2086,25.5569],[93.2023,25.5586],[93.2024,25.5632],[93.1972,25.5682],[93.1892,25.5855],[93.1728,25.5985],[93.1804,25.6054],[93.1817,25.6196],[93.1916,25.6285],[93.1841,25.6421],[93.1747,25.6547],[93.1649,25.6636],[93.1387,25.672],[93.1329,25.6869],[93.1386,25.6971],[93.1388,25.7093],[93.1413,25.7133],[93.1446,25.716]]]},"properties":{"NAME_1":"Assam","NAME_2":"North Cachar Hills"}},{"type":"Feature","geometry":{"type":"Polygon","coordinates":[[[95.3713,27.1114],[95.3688,27.1418],[95.3589,27.1735],[95.3301,27.1928],[95.3136,27.1899],[95.2888,27.2025],[95.24,27.1919],[95.2262,27.1719],[95.2009,27.168],[95.1621,27.1366],[95.0616,27.141],[95.0539,27.1565],[95.0266,27.1491],[94.9805,27.1555],[94.9854,27.1749],[94.9692,27.2337],[94.8866,27.1616],[94.8482,27.1131],[94.7648,27.1323],[94.7613,27.154],[94.7769,27.1746],[94.7804,27.1954],[94.7705,27.221],[94.7783,27.2432],[94.7523,27.2735],[94.6942,27.2725],[94.6852,27.2512],[94.6453,27.2509],[94.6235,27.2061],[94.6166,27.1803],[94.5946,27.1495],[94.5455,27.0784],[94.5099,27.0455],[94.4799,27.0337],[94.4695,27.0051],[94.4024,26.9642],[94.4073,26.9477],[94.4812,26.9384],[94.4813,26.902],[94.4975,26.874],[94.4892,26.8384],[94.5236,26.8122],[94.5155,26.7795],[94.5355,26.7584],[94.5599,26.7612],[94.5952,26.7299],[94.6211,26.7212],[94.6866,26.7326],[94.7377,26.7689],[94.7564,26.7723],[94.7731,26.795],[94.7908,26.8015],[94.8131,26.8248],[94.8211,26.8545],[94.8515,26.8813],[94.8696,26.915],[94.8862,26.9325],[94.9139,26.9426],[94.9573,26.9436],[94.9857,26.9182],[95.0213,26.9254],[95.038,26.9385],[95.0869,26.9527],[95.11,26.9669],[95.1169,26.9837],[95.1545,27.006],[95.1955,27.0429],[95.2138,27.0335],[95.2379,27.0432],[95.2482,27.0303],[95.3097,27.0811],[95.3486,27.1048],[95.3713,27.1114]]]},"properties":{"NAME_1":"Assam","NAME_2":"Sibsagar"}},{"type":"Feature","geometry":{"type":"Polygon","coordinates":[[[93.6983,26.9948],[93.6758,26.9711],[93.6245,26.9642],[93.5842,26.9526],[93.5258,26.9486],[93.4894,26.9385],[93.4681,26.9389],[93.4479,26.9542],[93.3907,26.96],[93.3479,26.9632],[93.2669,26.956],[93.1843,26.9387],[93.109,26.9273],[93.0919,26.9155],[93.0688,26.9242],[93.0194,26.9168],[92.9974,26.9303],[92.9178,26.9642],[92.9167,26.9847],[92.8724,27.0077],[92.8366,27.0135],[92.7691,27.033],[92.7137,27.0261],[92.6589,27.0385],[92.6391,27.0185],[92.6455,26.9874],[92.5852,26.9619],[92.5536,26.9591],[92.505,26.9668],[92.4462,26.9606],[92.3998,26.9263],[92.3644,26.9327],[92.3417,26.8867],[92.3456,26.8629],[92.3317,26.8321],[92.3297,26.807],[92.3404,26.7735],[92.3287,26.7552],[92.3383,26.7147],[92.334,26.6901],[92.3327,26.6295],[92.323,26.618],[92.3254,26.5933],[92.3556,26.5734],[92.3813,26.5328],[92.3533,26.5318],[92.326,26.5127],[92.3439,26.5038],[92.3832,26.5187],[92.4138,26.517],[92.4511,26.5202],[92.4647,26.4993],[92.5266,26.5111],[92.5787,26.5019],[92.6396,26.5193],[92.6639,26.5222],[92.6821,26.5112],[92.7033,26.5277],[92.7535,26.5139],[92.7715,26.5583],[92.8,26.5607],[92.8501,26.5874],[92.8691,26.5845],[92.8946,26.5977],[92.9223,26.6004],[92.9422,26.6194],[92.9887,26.6156],[93.0071,26.6006],[93.0725,26.597],[93.1056,26.5783],[93.1226,26.58],[93.1719,26.6123],[93.2164,26.6282],[93.2451,26.6864],[93.2886,26.6899],[93.3075,26.7009],[93.3359,26.7103],[93.3475,26.7343],[93.4034,26.7558],[93.4318,26.7474],[93.4609,26.7598],[93.5094,26.7634],[93.5342,26.7568],[93.5626,26.7392],[93.5659,26.7269],[93.6501,26.7082],[93.6656,26.7173],[93.6492,26.7808],[93.6708,26.8034],[93.6958,26.801],[93.7112,26.8208],[93.7536,26.8085],[93.7722,26.847],[93.7889,26.8608],[93.7746,26.8915],[93.7488,26.8974],[93.7508,26.9221],[93.7431,26.9615],[93.6983,26.9948]]]},"properties":{"NAME_1":"Assam","NAME_2":"Sonitpur"}},{"type":"Feature","geometry":{"type":"Polygon","coordinates":[[[95.9523,27.9372],[95.9775,27.9685],[95.8259,27.9774],[95.6067,27.9578],[95.5969,27.9511],[95.5805,27.9436],[95.565,27.9225],[95.5438,27.9135],[95.5421,27.9107],[95.5435,27.9023],[95.5262,27.8979],[95.5152,27.8624],[95.4952,27.8598],[95.4851,27.8429],[95.4778,27.8345],[95.4616,27.794],[95.4509,27.7709],[95.4199,27.7432],[95.4093,27.7373],[95.3918,27.7284],[95.3426,27.7069],[95.2973,27.7003],[95.276,27.6872],[95.2907,27.6746],[95.2973,27.6561],[95.3214,27.5925],[95.3078,27.5882],[95.2984,27.5827],[95.2897,27.5767],[95.276,27.5757],[95.2778,27.5649],[95.2841,27.5601],[95.2704,27.5525],[95.263,27.5154],[95.252,27.5119],[95.2293,27.4905],[95.2298,27.4772],[95.2207,27.4629],[95.2439,27.438],[95.2515,27.4378],[95.2596,27.4229],[95.2661,27.4118],[95.2771,27.4168],[95.2953,27.417],[95.3143,27.3967],[95.3397,27.3948],[95.3503,27.397],[95.3796,27.3909],[95.3966,27.3969],[95.4192,27.3874],[95.4311,27.3776],[95.4501,27.3748],[95.4735,27.3702],[95.476,27.3482],[95.4605,27.3443],[95.4675,27.3152],[95.4511,27.3008],[95.4653,27.2773],[95.4458,27.2623],[95.4734,27.2689],[95.4767,27.2591],[95.487,27.2567],[95.491,27.2487],[95.5106,27.259],[95.5162,27.2686],[95.5205,27.2637],[95.5297,27.2691],[95.5348,27.2706],[95.5633,27.2525],[95.5783,27.2471],[95.5992,27.2296],[95.6074,27.2314],[95.6341,27.2398],[95.637,27.2369],[95.6954,27.2581],[95.7155,27.2591],[95.7319,27.2665],[95.7847,27.2791],[95.8063,27.2917],[95.8379,27.2871],[95.8608,27.2798],[95.8776,27.2674],[95.894,27.263],[95.9012,27.2764],[95.9043,27.2799],[95.9024,27.2878],[95.9123,27.2931],[95.9406,27.3096],[95.9656,27.3217],[95.9679,27.3246],[95.9842,27.3343],[95.9742,27.3394],[95.9773,27.3423],[95.9949,27.3602],[96.0132,27.364],[96.0149,27.3755],[96.0106,27.3813],[96.0021,27.3935],[96.0001,27.3976],[95.9909,27.4146],[95.9895,27.4217],[95.9802,27.4302],[95.9778,27.4323],[95.9611,27.4287],[95.953,27.4333],[95.9535,27.4408],[95.9499,27.445],[95.9333,27.4467],[95.9112,27.44],[95.8919,27.4098],[95.89,27.4264],[95.8904,27.4397],[95.8826,27.4441],[95.8649,27.429],[95.8642,27.4213],[95.8673,27.4172],[95.8576,27.4248],[95.8493,27.4303],[95.8529,27.4448],[95.8595,27.4626],[95.8661,27.469],[95.8813,27.4874],[95.8792,27.4927],[95.8896,27.5062],[95.8818,27.5151],[95.8799,27.5298],[95.8813,27.5532],[95.867,27.5511],[95.8319,27.5789],[95.8198,27.5903],[95.8242,27.603],[95.798,27.6078],[95.7961,27.6182],[95.7873,27.6323],[95.7973,27.6396],[95.7996,27.643],[95.7949,27.6528],[95.7778,27.6663],[95.7945,27.6842],[95.7931,27.6923],[95.7727,27.7],[95.7734,27.7054],[95.7704,27.72],[95.7582,27.7311],[95.7627,27.7329],[95.7848,27.7398],[95.7805,27.7582],[95.8009,27.7769],[95.8113,27.7937],[95.8289,27.8137],[95.8434,27.8215],[95.8663,27.8385],[95.8942,27.861],[95.9114,27.873],[95.9129,27.8781],[95.914,27.8808],[95.9226,27.8862],[95.925,27.9009],[95.9393,27.9098],[95.9538,27.9302],[95.9575,27.9329],[95.9523,27.9372]]]},"properties":{"NAME_1":"Assam","NAME_2":"Tinsukia"}}]}