{"type":"FeatureCollection","features":[{"type":"Feature","geometry":{"type":"Polygon","coordinates":[[[87.6458,26.3933],[87.5902,26.3922],[87.5553,26.4054],[87.55,26.4182],[87.5189,26.4306],[87.4691,26.4401],[87.4302,26.422],[87.391,26.4187],[87.3713,26.4078],[87.3589,26.3879],[87.3609,26.3608],[87.3434,26.3475],[87.3159,26.3672],[87.2684,26.3736],[87.2686,26.4053],[87.2477,26.414],[87.1888,26.414],[87.165,26.4038],[87.1415,26.4146],[87.0939,26.45],[87.0822,26.5229],[87.0751,26.5416],[87.0743,26.5855],[87.0473,26.587],[87.0359,26.5566],[87.0538,26.5386],[87.0401,26.4983],[87.0527,26.466],[87.0596,26.4619],[87.0565,26.4487],[87.0511,26.4405],[87.0604,26.4201],[87.0665,26.4111],[87.0528,26.41],[87.0519,26.3981],[87.0656,26.3849],[87.0546,26.3647],[87.0626,26.3386],[87.0388,26.3363],[87.0362,26.3224],[87.0381,26.3134],[87.0394,26.3056],[87.0491,26.2987],[87.0589,26.2922],[87.0593,26.246],[87.088,26.2034],[87.0768,26.1915],[87.0767,26.1878],[87.103,26.1898],[87.0908,26.1629],[87.0929,26.1393],[87.0756,26.1358],[87.0767,26.1219],[87.0586,26.104],[87.0863,26.0962],[87.104,26.0968],[87.1026,26.0832],[87.0893,26.0743],[87.083,26.063],[87.086,26.0554],[87.1035,26.041],[87.0815,26.0373],[87.0803,26.0209],[87.0665,25.9991],[87.0641,25.9751],[87.0762,25.9701],[87.0743,25.9664],[87.0767,25.9622],[87.1013,25.9673],[87.1084,25.9558],[87.1274,25.9545],[87.1336,25.9481],[87.17,25.9424],[87.1898,25.9503],[87.1913,25.9516],[87.2073,25.958],[87.2129,25.9551],[87.2171,25.943],[87.2229,25.9474],[87.2234,25.9515],[87.2351,25.9648],[87.2386,25.9646],[87.2611,25.9842],[87.2747,25.978],[87.2892,25.9619],[87.3025,25.9795],[87.3425,25.9771],[87.3485,25.979],[87.3682,25.9684],[87.3721,25.9667],[87.3788,25.9583],[87.3851,25.9547],[87.3868,25.9556],[87.3792,25.9621],[87.3895,25.9607],[87.3928,25.967],[87.3953,25.985],[87.4046,25.9861],[87.4079,25.9877],[87.4187,25.9908],[87.4447,25.9822],[87.4607,25.9864],[87.4778,25.9743],[87.4962,25.9872],[87.5109,25.9708],[87.5078,25.9774],[87.5255,25.9799],[87.554,25.9858],[87.5546,26.0008],[87.5877,26.0149],[87.595,26.0222],[87.6187,26.0262],[87.62,26.0461],[87.6117,26.0556],[87.6095,26.0597],[87.6128,26.0602],[87.6163,26.0662],[87.6241,26.0754],[87.622,26.0814],[87.6266,26.0855],[87.632,26.085],[87.6455,26.0885],[87.6517,26.0845],[87.6648,26.0831],[87.6663,26.0907],[87.6758,26.1011],[87.6687,26.1079],[87.671,26.1109],[87.6783,26.1502],[87.6792,26.192],[87.6894,26.1976],[87.6729,26.2327],[87.662,26.2399],[87.6491,26.2774],[87.6504,26.3058],[87.6151,26.3233],[87.6141,26.3527],[87.6458,26.3933]]]},"properties":{"NAME_1":"Bihar","NAME_2":"Araria"}},{"type":"Feature","geometry":{"type":"Polygon","coordinates":[[[84.7315,25.0579],[84.7317,25.0721],[84.6786,25.1041],[84.6494,25.1067],[84.5755,25.1048],[84.5668,25.1176],[84.537,25.1071],[84.5054,25.1088],[84.4882,25.0987],[84.4402,25.1296],[84.4176,25.0796],[84.3626,25.0486],[84.3369,25.0389],[84.3067,25.0173],[84.3021,25.0032],[84.2502,24.9456],[84.2352,24.9334],[84.1637,24.8509],[84.0817,24.7713],[83.9922,24.638],[84.0242,24.6291],[84.0467,24.6123],[84.0597,24.577],[84.0725,24.5696],[84.0897,24.5339],[84.0891,24.5041],[84.1098,24.4814],[84.1536,24.5176],[84.1793,24.5104],[84.1728,24.542],[84.2207,24.5503],[84.2585,24.5377],[84.2692,24.5643],[84.293,24.566],[84.3191,24.5223],[84.3217,24.4898],[84.3634,24.5106],[84.3805,24.5311],[84.3856,24.5612],[84.4161,24.5529],[84.4385,24.5573],[84.4424,24.5325],[84.461,24.5378],[84.4821,24.5144],[84.5129,24.5266],[84.5392,24.5278],[84.5607,24.5453],[84.5652,24.5781],[84.5896,24.5976],[84.5868,24.616],[84.5963,24.6568],[84.629,24.6534],[84.6384,24.6784],[84.6913,24.6813],[84.6954,24.6987],[84.7153,24.7012],[84.7256,24.7957],[84.6959,24.8021],[84.6903,24.8275],[84.6674,24.8344],[84.6648,24.8507],[84.6344,24.8674],[84.6747,24.9035],[84.6975,24.9046],[84.7111,24.9351],[84.7042,24.9577],[84.7378,24.9874],[84.746,25.015],[84.7195,25.0142],[84.6974,25.0469],[84.7272,25.0462],[84.7315,25.0579]]]},"properties":{"NAME_1":"Bihar","NAME_2":"Aurangabad"}},{"type":"Feature","geometry":{"type":"Polygon","coordinates":[[[87.1738,25.058],[87.1646,25.0589],[87.1395,25.0625],[87.1326,25.0839],[87.1282,25.0875],[87.1163,25.0901],[87.0979,25.0947],[87.0887,25.0936],[87.0649,25.0993],[87.0563,25.1045],[87.046,25.1046],[87.04,25.0996],[87.0335,25.0919],[87.0262,25.0934],[87.025,25.095],[87.0188,25.1013],[87.0048,25.1053],[86.9938,25.105],[86.9758,25.1],[86.9579,25.102],[86.9423,25.1029],[86.9355,25.1061],[86.9234,25.0989],[86.9164,25.0978],[86.9104,25.1],[86.91,25.0959],[86.8943,25.1009],[86.8898,25.0971],[86.8797,25.0979],[86.8686,25.0955],[86.8517,25.0991],[86.8503,25.1048],[86.823,25.1107],[86.8183,25.1087],[86.7994,25.0943],[86.7973,25.0994],[86.8009,25.0978],[86.8015,25.1049],[86.7908,25.1129],[86.7803,25.1037],[86.7666,25.111],[86.7383,25.1075],[86.7307,25.112],[86.7128,25.1157],[86.7035,25.1171],[86.6976,25.1139],[86.6985,25.1169],[86.6875,25.118],[86.6491,25.0554],[86.6547,25.0159],[86.637,24.9745],[86.5992,24.9722],[86.595,24.9484],[86.573,24.9463],[86.5481,24.9556],[86.5246,24.9836],[86.4993,24.9848],[86.4866,24.9714],[86.4856,24.938],[86.4936,24.921],[86.4815,24.9073],[86.5181,24.8843],[86.5293,24.8629],[86.5208,24.7874],[86.4961,24.7826],[86.4921,24.7617],[86.5398,24.7715],[86.5511,24.7409],[86.5453,24.7127],[86.558,24.6914],[86.5798,24.6733],[86.6073,24.6627],[86.6093,24.6074],[86.6069,24.5944],[86.6684,24.5606],[86.7457,24.5895],[86.7541,24.6148],[86.7918,24.6153],[86.8058,24.5945],[86.8087,24.5638],[86.8371,24.5683],[86.8546,24.5505],[86.8764,24.5673],[86.9112,24.5387],[86.8981,24.5865],[86.9361,24.6304],[86.9656,24.6319],[87.0102,24.6063],[87.0505,24.6068],[87.0444,24.624],[87.0547,24.6706],[87.0819,24.7245],[87.0745,24.7447],[87.0863,24.7583],[87.0828,24.7792],[87.0957,24.7976],[87.0773,24.8083],[87.106,24.8473],[87.1473,24.8624],[87.1581,24.8856],[87.1476,24.9178],[87.1537,24.991],[87.1439,25.0108],[87.1738,25.058]]]},"properties":{"NAME_1":"Bihar","NAME_2":"Banka"}},{"type":"Feature","geometry":{"type":"Polygon","coordinates":[[[86.2858,25.64],[86.2733,25.6324],[86.2539,25.6353],[86.2467,25.6468],[86.2394,25.6528],[86.2216,25.6559],[86.2012,25.6581],[86.1834,25.6681],[86.1774,25.6891],[86.1677,25.7189],[86.1455,25.7292],[86.1531,25.7344],[86.1452,25.7434],[86.1438,25.7481],[86.1484,25.7538],[86.1442,25.7658],[86.136,25.7659],[86.1263,25.7595],[86.1255,25.7622],[86.1297,25.768],[86.1009,25.7758],[86.1018,25.7587],[86.1248,25.7519],[86.1328,25.7462],[86.1295,25.7364],[86.1129,25.7396],[86.1137,25.7382],[86.1102,25.7367],[86.0981,25.7454],[86.0889,25.7448],[86.0723,25.7373],[86.0652,25.728],[86.0544,25.7251],[86.05,25.7305],[86.0412,25.7309],[86.0382,25.721],[86.0312,25.7277],[86.0144,25.7259],[86.0082,25.7199],[86.0072,25.712],[86.0256,25.69],[86.0058,25.6671],[86.0052,25.6614],[86.0174,25.6659],[86.0224,25.6619],[86.0105,25.6491],[86.0153,25.6333],[86.019,25.6037],[86.007,25.5911],[85.9927,25.5999],[85.9703,25.6161],[85.9626,25.6206],[85.9563,25.6333],[85.954,25.6381],[85.9386,25.6532],[85.9332,25.652],[85.927,25.6494],[85.9153,25.6467],[85.8997,25.6425],[85.8934,25.6458],[85.8879,25.6536],[85.8813,25.6517],[85.8742,25.6479],[85.8731,25.6525],[85.8689,25.6667],[85.8644,25.6618],[85.8622,25.6615],[85.8548,25.6453],[85.851,25.6464],[85.8478,25.6424],[85.8438,25.6458],[85.835,25.6397],[85.8308,25.6332],[85.8226,25.6232],[85.8203,25.6184],[85.8408,25.5942],[85.839,25.587],[85.8064,25.5786],[85.7679,25.5888],[85.7642,25.5839],[85.7642,25.5786],[85.7558,25.5696],[85.7467,25.5637],[85.7382,25.5593],[85.7306,25.5391],[85.7487,25.5446],[85.7975,25.5475],[85.8099,25.5396],[85.8312,25.5189],[85.8555,25.5098],[85.8787,25.5024],[85.8872,25.4746],[85.8951,25.4685],[85.8922,25.4613],[85.8906,25.4622],[85.8811,25.4685],[85.8688,25.4691],[85.8654,25.4418],[85.8803,25.4234],[85.882,25.425],[85.9007,25.4319],[85.9127,25.4197],[85.9297,25.4119],[85.9443,25.4153],[85.9485,25.4117],[85.9599,25.4045],[86.0052,25.3735],[86.0146,25.3585],[86.0215,25.3593],[86.029,25.3662],[86.0287,25.3745],[86.0321,25.3884],[86.0447,25.3911],[86.0511,25.3665],[86.0602,25.3549],[86.0596,25.3353],[86.0573,25.3343],[86.0719,25.3101],[86.1042,25.3008],[86.1268,25.2745],[86.1489,25.2646],[86.1635,25.272],[86.1988,25.2502],[86.2263,25.2577],[86.2594,25.2851],[86.2918,25.2973],[86.3072,25.3169],[86.3081,25.3346],[86.3596,25.3561],[86.3825,25.3808],[86.4314,25.4017],[86.4702,25.399],[86.4752,25.4136],[86.4984,25.4129],[86.5026,25.4285],[86.4866,25.4269],[86.444,25.4525],[86.4215,25.4794],[86.4166,25.4981],[86.3945,25.5056],[86.3648,25.4781],[86.3575,25.5011],[86.3284,25.4991],[86.3266,25.5186],[86.2888,25.5269],[86.278,25.5433],[86.2811,25.5842],[86.2737,25.5973],[86.2858,25.64]]]},"properties":{"NAME_1":"Bihar","NAME_2":"Begusarai"}},{"type":"Feature","geometry":{"type":"Polygon","coordinates":[[[83.7619,25.3879],[83.7497,25.3921],[83.7589,25.4005],[83.7507,25.405],[83.7481,25.4043],[83.7406,25.4002],[83.7349,25.4093],[83.7253,25.3977],[83.7095,25.3953],[83.6963,25.3964],[83.6928,25.3938],[83.6763,25.3817],[83.6878,25.3741],[83.689,25.3713],[83.679,25.3666],[83.6691,25.3645],[83.6562,25.3637],[83.6454,25.3576],[83.6425,25.3411],[83.6318,25.3421],[83.63,25.3432],[83.629,25.3379],[83.6248,25.3349],[83.6201,25.3286],[83.6107,25.3326],[83.6032,25.3316],[83.5839,25.3249],[83.5629,25.3097],[83.5609,25.3161],[83.5543,25.3141],[83.5331,25.3129],[83.5426,25.3093],[83.5256,25.2995],[83.5231,25.3005],[83.5181,25.3025],[83.5169,25.3006],[83.518,25.2932],[83.4913,25.2866],[83.4719,25.2655],[83.4633,25.2564],[83.4536,25.2513],[83.4398,25.2592],[83.4314,25.2445],[83.4287,25.2445],[83.4193,25.2533],[83.4193,25.2464],[83.4093,25.2493],[83.3973,25.2252],[83.3951,25.2169],[83.39,25.2116],[83.3746,25.2025],[83.3603,25.1964],[83.3439,25.1874],[83.3359,25.1836],[83.338,25.1799],[83.3481,25.1786],[83.3451,25.1667],[83.3508,25.1534],[83.3574,25.1242],[83.3478,25.1108],[83.3401,25.1124],[83.338,25.0881],[83.3335,25.0848],[83.3322,25.0825],[83.3278,25.061],[83.3312,25.0598],[83.3321,25.0505],[83.325,25.056],[83.3219,25.0558],[83.3235,25.0481],[83.3182,25.0173],[83.3449,25.0026],[83.3459,24.9921],[83.3404,24.9792],[83.3385,24.9636],[83.357,24.9554],[83.3576,24.946],[83.3574,24.9192],[83.352,24.9078],[83.36,24.8918],[83.3551,24.8875],[83.3642,24.8786],[83.3558,24.8687],[83.3808,24.843],[83.3892,24.8361],[83.3949,24.8202],[83.3899,24.8019],[83.3885,24.7915],[83.3863,24.7866],[83.3941,24.7795],[83.4034,24.7767],[83.4342,24.7568],[83.4415,24.744],[83.467,24.7345],[83.4798,24.7378],[83.4833,24.7228],[83.4804,24.7162],[83.4834,24.703],[83.4921,24.7052],[83.495,24.7027],[83.4999,24.6945],[83.4995,24.6685],[83.5025,24.6487],[83.5159,24.6428],[83.5217,24.6445],[83.5242,24.6421],[83.5207,24.63],[83.5414,24.6262],[83.5417,24.6246],[83.5174,24.6032],[83.5172,24.5987],[83.5235,24.5878],[83.5251,24.5802],[83.524,24.575],[83.5172,24.5492],[83.6003,24.5417],[83.6377,24.5452],[83.6562,24.5556],[83.6743,24.5422],[83.7011,24.5433],[83.7123,24.5602],[83.7413,24.5779],[83.7326,24.5896],[83.7449,24.6327],[83.725,24.6478],[83.7578,24.7288],[83.7748,24.7396],[83.7778,24.7604],[83.7691,24.7953],[83.7243,24.8079],[83.7115,24.8337],[83.7217,24.8509],[83.7548,24.874],[83.7574,24.9138],[83.804,24.9615],[83.8047,24.9858],[83.7923,25.0118],[83.8154,25.038],[83.8161,25.0795],[83.801,25.1152],[83.8175,25.1536],[83.8086,25.2013],[83.827,25.245],[83.8563,25.2466],[83.8903,25.2638],[83.8916,25.2949],[83.8768,25.3149],[83.8376,25.3374],[83.8008,25.372],[83.7719,25.369],[83.7619,25.3879]]]},"properties":{"NAME_1":"Bihar","NAME_2":"Bhabua"}},{"type":"Feature","geometry":{"type":"Polygon","coordinates":[[[87.0788,25.455],[87.0839,25.4764],[87.0911,25.4792],[87.0955,25.5006],[87.096,25.5143],[87.0764,25.4936],[87.067,25.4693],[87.017,25.4774],[86.9945,25.4702],[86.9456,25.475],[86.9329,25.4924],[86.9054,25.4917],[86.8737,25.4625],[86.8502,25.454],[86.8232,25.4585],[86.8177,25.4438],[86.8221,25.4349],[86.8217,25.4327],[86.8185,25.4212],[86.8161,25.4144],[86.8263,25.4051],[86.8331,25.3961],[86.8345,25.3847],[86.8418,25.3794],[86.8505,25.3626],[86.8401,25.3578],[86.8339,25.355],[86.8183,25.3379],[86.8116,25.3326],[86.8047,25.3281],[86.789,25.3301],[86.7822,25.3187],[86.7789,25.3105],[86.7745,25.2999],[86.7682,25.2892],[86.7605,25.2681],[86.7523,25.2665],[86.7247,25.2538],[86.7203,25.249],[86.6861,25.2428],[86.6714,25.2397],[86.6371,25.2422],[86.6326,25.2379],[86.6453,25.2209],[86.6611,25.2145],[86.6698,25.2065],[86.6838,25.1887],[86.687,25.1897],[86.6884,25.2019],[86.6905,25.1991],[86.6978,25.1882],[86.7092,25.1873],[86.718,25.1866],[86.729,25.184],[86.7265,25.1807],[86.7149,25.1707],[86.7128,25.1704],[86.701,25.1706],[86.6988,25.17],[86.6995,25.1615],[86.6926,25.1475],[86.6904,25.143],[86.6792,25.1395],[86.6735,25.1299],[86.6781,25.1231],[86.6818,25.1208],[86.6985,25.1169],[86.6976,25.1139],[86.7035,25.1171],[86.7128,25.1157],[86.7307,25.112],[86.7383,25.1075],[86.7666,25.111],[86.7803,25.1037],[86.7908,25.1129],[86.8015,25.1049],[86.8009,25.0978],[86.7973,25.0994],[86.7994,25.0943],[86.8183,25.1087],[86.823,25.1107],[86.8503,25.1048],[86.8517,25.0991],[86.8686,25.0955],[86.8797,25.0979],[86.8898,25.0971],[86.8943,25.1009],[86.91,25.0959],[86.9104,25.1],[86.9164,25.0978],[86.9234,25.0989],[86.9355,25.1061],[86.9423,25.1029],[86.9579,25.102],[86.9758,25.1],[86.9938,25.105],[87.0048,25.1053],[87.0188,25.1013],[87.025,25.095],[87.0262,25.0934],[87.0335,25.0919],[87.04,25.0996],[87.046,25.1046],[87.0563,25.1045],[87.0649,25.0993],[87.0887,25.0936],[87.0979,25.0947],[87.1163,25.0901],[87.1282,25.0875],[87.1326,25.0839],[87.1395,25.0625],[87.1646,25.0589],[87.1766,25.064],[87.1843,25.067],[87.1975,25.0737],[87.2083,25.0833],[87.2107,25.0853],[87.2339,25.0858],[87.2492,25.1054],[87.2506,25.1059],[87.2631,25.1008],[87.2749,25.0922],[87.2911,25.0893],[87.2928,25.1047],[87.2949,25.1138],[87.2999,25.1346],[87.3024,25.1406],[87.308,25.1503],[87.3096,25.1536],[87.3144,25.1628],[87.3106,25.1698],[87.3157,25.193],[87.3183,25.2012],[87.3305,25.2171],[87.3478,25.2132],[87.358,25.2112],[87.3699,25.205],[87.3771,25.2226],[87.3865,25.2257],[87.3918,25.2275],[87.4076,25.219],[87.4166,25.2149],[87.4578,25.1978],[87.4669,25.1957],[87.4676,25.1931],[87.4718,25.2224],[87.4726,25.2409],[87.492,25.2714],[87.4876,25.2776],[87.4901,25.3052],[87.4989,25.2923],[87.5255,25.281],[87.5356,25.2801],[87.5385,25.2962],[87.5441,25.3229],[87.5474,25.3309],[87.5323,25.3353],[87.5261,25.3512],[87.5247,25.3552],[87.5221,25.3472],[87.511,25.3513],[87.4834,25.3665],[87.4404,25.3614],[87.4238,25.3755],[87.4139,25.3776],[87.4023,25.3843],[87.3748,25.403],[87.3611,25.4081],[87.3512,25.4148],[87.3373,25.4151],[87.2999,25.4023],[87.2894,25.3983],[87.2638,25.3524],[87.2713,25.3694],[87.2417,25.3786],[87.2288,25.3792],[87.2229,25.3852],[87.2158,25.3899],[87.2135,25.3967],[87.217,25.4001],[87.2128,25.4093],[87.1988,25.4149],[87.2035,25.4274],[87.2153,25.4309],[87.2243,25.4433],[87.2253,25.4513],[87.2068,25.4511],[87.1961,25.4457],[87.1852,25.4407],[87.1808,25.4415],[87.1777,25.448],[87.1604,25.4467],[87.1546,25.4378],[87.1265,25.4362],[87.1114,25.4357],[87.0954,25.4389],[87.0878,25.4456],[87.0788,25.455]]]},"properties":{"NAME_1":"Bihar","NAME_2":"Bhagalpur"}},{"type":"Feature","geometry":{"type":"Polygon","coordinates":[[[84.8456,25.6968],[84.8043,25.6998],[84.7719,25.691],[84.7393,25.7092],[84.6808,25.7028],[84.6532,25.7119],[84.6229,25.7071],[84.5955,25.7391],[84.5556,25.7364],[84.5586,25.701],[84.5523,25.684],[84.5314,25.6928],[84.5279,25.7154],[84.5164,25.6777],[84.499,25.6774],[84.4893,25.6911],[84.4665,25.6855],[84.4603,25.6907],[84.4588,25.6984],[84.4552,25.7103],[84.4488,25.7145],[84.4325,25.7121],[84.4242,25.7117],[84.4109,25.6985],[84.3971,25.7091],[84.3955,25.7244],[84.3936,25.7289],[84.3812,25.7343],[84.3559,25.7011],[84.3538,25.6857],[84.3207,25.6572],[84.3372,25.6415],[84.3437,25.6096],[84.3277,25.5838],[84.3236,25.5187],[84.3549,25.4736],[84.3412,25.4342],[84.3152,25.4333],[84.2673,25.361],[84.2743,25.3304],[84.3011,25.3278],[84.3284,25.299],[84.3165,25.2733],[84.3239,25.2542],[84.3224,25.2251],[84.3131,25.2166],[84.3501,25.1932],[84.4,25.1945],[84.4194,25.1885],[84.4578,25.1624],[84.4839,25.1888],[84.5236,25.2103],[84.5484,25.2127],[84.6198,25.2362],[84.6456,25.2589],[84.668,25.3002],[84.6972,25.3165],[84.7068,25.3215],[84.7247,25.3549],[84.7702,25.4481],[84.748,25.4922],[84.7573,25.5229],[84.7628,25.5385],[84.8109,25.5763],[84.8115,25.6081],[84.8208,25.617],[84.8149,25.6202],[84.8185,25.6378],[84.835,25.657],[84.8268,25.6587],[84.8172,25.6718],[84.8219,25.6767],[84.8422,25.6794],[84.8456,25.6968]]]},"properties":{"NAME_1":"Bihar","NAME_2":"Bhojpur"}},{"type":"Feature","geometry":{"type":"Polygon","coordinates":[[[83.921,25.5617],[83.9136,25.5543],[83.8928,25.5255],[83.873,25.5204],[83.8667,25.4935],[83.8598,25.4892],[83.8549,25.4849],[83.8294,25.4615],[83.8147,25.4683],[83.8067,25.4585],[83.8079,25.4533],[83.8186,25.4529],[83.8304,25.4511],[83.8241,25.4332],[83.8029,25.4329],[83.7944,25.4316],[83.7966,25.4083],[83.7707,25.4002],[83.7635,25.3986],[83.7619,25.3879],[83.7719,25.369],[83.8008,25.372],[83.8376,25.3374],[83.8768,25.3149],[83.8916,25.2949],[83.9022,25.2976],[83.9584,25.2829],[83.9816,25.2658],[84.0276,25.2687],[84.0519,25.3089],[84.0285,25.343],[84.0439,25.3479],[84.0379,25.3756],[84.1083,25.3592],[84.1319,25.3726],[84.2055,25.3662],[84.2275,25.3567],[84.2673,25.361],[84.3152,25.4333],[84.3412,25.4342],[84.3549,25.4736],[84.3236,25.5187],[84.3277,25.5838],[84.3437,25.6096],[84.3372,25.6415],[84.3207,25.6572],[84.3538,25.6857],[84.3559,25.7011],[84.3812,25.7343],[84.3845,25.7377],[84.373,25.7423],[84.3717,25.7383],[84.3662,25.7384],[84.3375,25.7451],[84.3313,25.7446],[84.3244,25.7333],[84.3236,25.704],[84.3186,25.6719],[84.2988,25.6718],[84.2878,25.6763],[84.2836,25.6771],[84.2729,25.6617],[84.2684,25.6633],[84.2332,25.664],[84.2029,25.6696],[84.1943,25.7034],[84.1555,25.7259],[84.1483,25.726],[84.1445,25.7206],[84.1293,25.7174],[84.1368,25.7238],[84.1231,25.7239],[84.0944,25.7204],[84.0696,25.6956],[84.0736,25.6836],[84.0797,25.6527],[84.0765,25.6375],[84.0568,25.6322],[84.0142,25.6161],[83.9916,25.601],[83.9559,25.5754],[83.9397,25.5654],[83.921,25.5617]]]},"properties":{"NAME_1":"Bihar","NAME_2":"Buxar"}},{"type":"Feature","geometry":{"type":"Polygon","coordinates":[[[85.7095,26.4468],[85.7018,26.4473],[85.7007,26.4401],[85.6986,26.4243],[85.6828,26.4162],[85.6818,26.4097],[85.7034,26.3631],[85.7099,26.3626],[85.7076,26.3588],[85.6816,26.3555],[85.6768,26.3516],[85.6925,26.353],[85.7077,26.3527],[85.7163,26.3506],[85.7237,26.3431],[85.721,26.3289],[85.717,26.3178],[85.6964,26.3079],[85.7073,26.278],[85.6879,26.2588],[85.692,26.2272],[85.719,26.2021],[85.7155,26.1661],[85.7332,26.1632],[85.7463,26.1453],[85.7206,26.1272],[85.7071,26.0913],[85.711,26.0483],[85.7218,26.0377],[85.7563,26.0542],[85.7755,26.0398],[85.8174,26.0271],[85.8589,26.023],[85.866,25.9861],[85.91,25.9744],[85.9278,25.9538],[85.9429,25.9613],[85.9673,25.9558],[85.9738,25.9374],[86.0319,25.9479],[86.0548,25.9196],[86.102,25.8946],[86.188,25.8961],[86.2049,25.8886],[86.2599,25.9081],[86.2917,25.9024],[86.3037,25.8673],[86.315,25.8728],[86.3253,25.8921],[86.3273,25.8964],[86.3399,25.9052],[86.3422,25.9145],[86.3479,25.9248],[86.3519,25.9284],[86.3546,25.9299],[86.3577,25.9378],[86.3672,25.9345],[86.3729,25.9328],[86.375,25.9243],[86.3966,25.9277],[86.3964,25.931],[86.3936,25.9368],[86.3859,25.9399],[86.382,25.9392],[86.3813,25.9447],[86.3731,25.9538],[86.3789,25.956],[86.3784,25.9759],[86.3737,25.9805],[86.374,25.984],[86.3772,25.9855],[86.3719,25.9922],[86.3766,25.9966],[86.3732,26.0098],[86.3655,26.0177],[86.3649,26.028],[86.3698,26.0323],[86.3659,26.0369],[86.371,26.0414],[86.3699,26.0448],[86.3616,26.0499],[86.3588,26.0649],[86.3355,26.0864],[86.3147,26.0989],[86.3116,26.1065],[86.3091,26.1399],[86.3181,26.1503],[86.3099,26.1663],[86.2823,26.1717],[86.2644,26.1847],[86.2604,26.1824],[86.2538,26.1933],[86.2311,26.2054],[86.2339,26.2261],[86.2335,26.2327],[86.1967,26.2277],[86.1724,26.2288],[86.1644,26.2287],[86.1361,26.239],[86.1036,26.206],[86.0483,26.2141],[86.0415,26.1962],[86.0179,26.2001],[86.0303,26.2297],[86.0236,26.2506],[85.9949,26.2679],[86.0033,26.3032],[85.9705,26.3265],[85.9544,26.3095],[85.924,26.3132],[85.9167,26.3092],[85.9099,26.3122],[85.9061,26.3083],[85.9094,26.294],[85.9087,26.2881],[85.8974,26.2914],[85.8753,26.2818],[85.8727,26.2781],[85.8649,26.2828],[85.8557,26.2858],[85.8474,26.2827],[85.8276,26.2835],[85.8048,26.2979],[85.8045,26.3101],[85.8086,26.3133],[85.8099,26.3304],[85.8244,26.3284],[85.8293,26.3448],[85.8283,26.3471],[85.8106,26.3486],[85.8112,26.3553],[85.8218,26.3597],[85.8228,26.3625],[85.8198,26.3652],[85.8173,26.3693],[85.8126,26.378],[85.8144,26.3834],[85.8163,26.3834],[85.8239,26.381],[85.8254,26.3833],[85.813,26.3909],[85.8068,26.3965],[85.8085,26.4056],[85.8082,26.4126],[85.7981,26.4143],[85.7663,26.4056],[85.7548,26.4066],[85.7497,26.4065],[85.7555,26.4239],[85.7606,26.4369],[85.7299,26.4377],[85.7095,26.4468]]]},"properties":{"NAME_1":"Bihar","NAME_2":"Darbhanga"}},{"type":"Feature","geometry":{"type":"Polygon","coordinates":[[[85.1973,25.0537],[85.185,25.0738],[85.1574,25.0699],[85.1292,25.0496],[85.1231,25.0291],[85.0982,25.0001],[85.0562,25.0046],[85.0498,25.0349],[84.9931,25.0165],[84.9353,24.9814],[84.9297,24.9992],[84.8922,25.0232],[84.8987,25.06],[84.8798,25.0678],[84.8591,25.0614],[84.8053,25.0736],[84.7633,25.0543],[84.7315,25.0579],[84.7272,25.0462],[84.6974,25.0469],[84.7195,25.0142],[84.746,25.015],[84.7378,24.9874],[84.7042,24.9577],[84.7111,24.9351],[84.6975,24.9046],[84.6747,24.9035],[84.6344,24.8674],[84.6648,24.8507],[84.6674,24.8344],[84.6903,24.8275],[84.6959,24.8021],[84.7256,24.7957],[84.7153,24.7012],[84.6954,24.6987],[84.6913,24.6813],[84.6384,24.6784],[84.629,24.6534],[84.5963,24.6568],[84.5868,24.616],[84.5896,24.5976],[84.5652,24.5781],[84.5607,24.5453],[84.5392,24.5278],[84.5129,24.5266],[84.4821,24.5144],[84.461,24.5378],[84.4424,24.5325],[84.4385,24.5573],[84.4161,24.5529],[84.3856,24.5612],[84.3805,24.5311],[84.3634,24.5106],[84.3217,24.4898],[84.2942,24.4808],[84.2932,24.4508],[84.315,24.4475],[84.3304,24.4312],[84.3259,24.4109],[84.3359,24.3958],[84.3614,24.3866],[84.3822,24.3897],[84.3949,24.3678],[84.4225,24.3591],[84.4174,24.3314],[84.4545,24.3386],[84.4651,24.3084],[84.4935,24.287],[84.5174,24.3337],[84.5215,24.3763],[84.5459,24.3737],[84.5725,24.4123],[84.601,24.401],[84.6583,24.3937],[84.6662,24.4312],[84.6789,24.4563],[84.7065,24.4724],[84.7249,24.4729],[84.742,24.4965],[84.7799,24.5049],[84.7837,24.5177],[84.8195,24.5248],[84.8326,24.5115],[84.8272,24.4701],[84.8629,24.4576],[84.8802,24.4628],[84.8779,24.4226],[84.8982,24.3938],[84.9033,24.3723],[84.9253,24.378],[84.9686,24.3759],[84.9904,24.4122],[85.0321,24.4254],[85.0745,24.4085],[85.0655,24.3868],[85.0807,24.3808],[85.0925,24.3815],[85.1151,24.409],[85.1694,24.4295],[85.1529,24.4641],[85.2033,24.4729],[85.2239,24.4712],[85.2544,24.4979],[85.282,24.4972],[85.2794,24.5191],[85.2973,24.5286],[85.3186,24.5246],[85.3703,24.5296],[85.3834,24.5352],[85.3598,24.5561],[85.3434,24.5521],[85.3113,24.5621],[85.3112,24.6036],[85.2967,24.6334],[85.2888,24.6723],[85.3197,24.6684],[85.3255,24.7124],[85.3182,24.7297],[85.2987,24.7309],[85.2903,24.7497],[85.2688,24.7467],[85.2716,24.7821],[85.2989,24.8018],[85.3002,24.8221],[85.3194,24.8531],[85.3375,24.8669],[85.339,24.8875],[85.3614,24.8829],[85.3759,24.8985],[85.3746,24.9477],[85.3892,24.9663],[85.3784,24.9775],[85.3742,24.9761],[85.3828,24.9911],[85.3674,24.99],[85.3581,24.9902],[85.3563,25.0017],[85.3546,25.0065],[85.3437,25.0179],[85.3353,25.0108],[85.3229,25.0153],[85.3166,25.0257],[85.2755,25.031],[85.269,25.0272],[85.264,25.0316],[85.2559,25.0332],[85.2564,25.0234],[85.2547,25.012],[85.2424,25.0129],[85.235,25.0203],[85.2281,25.0554],[85.2157,25.0553],[85.2143,25.0439],[85.2112,25.0425],[85.2034,25.0349],[85.1948,25.0342],[85.1973,25.0537]]]},"properties":{"NAME_1":"Bihar","NAME_2":"Gaya"}},{"type":"Feature","geometry":{"type":"Polygon","coordinates":[[[84.4074,26.6381],[84.4144,26.6272],[84.395,26.6257],[84.3706,26.6154],[84.3509,26.6204],[84.3065,26.617],[84.2931,26.6055],[84.2868,26.6039],[84.2735,26.6014],[84.2589,26.6073],[84.2287,26.6132],[84.222,26.6157],[84.2039,26.6205],[84.177,26.6245],[84.1485,26.6277],[84.1291,26.6385],[84.1215,26.6346],[84.1043,26.6327],[84.0949,26.6365],[84.0845,26.6401],[84.0814,26.6368],[84.0821,26.6266],[84.0835,26.6183],[84.0818,26.6031],[84.0791,26.5944],[84.0712,26.5845],[84.0569,26.5734],[84.0547,26.5677],[84.0481,26.5575],[84.0488,26.5503],[84.0478,26.5435],[84.0145,26.532],[83.9986,26.525],[83.9984,26.5274],[83.9836,26.5315],[83.9742,26.5319],[83.9681,26.5258],[83.9625,26.5086],[83.9427,26.5135],[83.9435,26.5159],[83.9147,26.5202],[83.9022,26.5181],[83.9018,26.5104],[83.9075,26.5004],[83.9015,26.4673],[83.9023,26.4503],[83.9081,26.4495],[83.9361,26.4417],[83.9463,26.4381],[83.982,26.4346],[83.9904,26.4476],[84.009,26.445],[84.0164,26.4319],[84.0332,26.4138],[84.0362,26.4078],[84.0409,26.4085],[84.045,26.4053],[84.0551,26.4002],[84.0772,26.384],[84.0806,26.3862],[84.0877,26.3901],[84.0923,26.3904],[84.1152,26.3876],[84.1284,26.3842],[84.1308,26.3822],[84.1563,26.3783],[84.1714,26.374],[84.2023,26.3498],[84.2089,26.3361],[84.236,26.3179],[84.2704,26.3083],[84.3139,26.332],[84.3559,26.3076],[84.3615,26.3391],[84.3566,26.3699],[84.3973,26.3689],[84.4273,26.3764],[84.4496,26.3713],[84.4474,26.352],[84.4787,26.3368],[84.5042,26.3329],[84.5227,26.3393],[84.544,26.3243],[84.5824,26.3253],[84.6056,26.3055],[84.6479,26.3058],[84.6447,26.2796],[84.676,26.2685],[84.6781,26.2408],[84.7082,26.2423],[84.7547,26.2127],[84.8037,26.2124],[84.8656,26.2199],[84.8901,26.2165],[84.8945,26.2209],[84.9019,26.2257],[84.8749,26.2429],[84.8681,26.257],[84.8631,26.2568],[84.8549,26.2666],[84.8417,26.276],[84.8284,26.2873],[84.821,26.284],[84.8039,26.2984],[84.8026,26.3196],[84.7955,26.3219],[84.7597,26.3435],[84.7217,26.385],[84.7171,26.4021],[84.7057,26.4166],[84.7073,26.418],[84.7036,26.4295],[84.6881,26.4365],[84.6471,26.4669],[84.6284,26.4651],[84.6036,26.4485],[84.5835,26.452],[84.5799,26.4623],[84.5718,26.4874],[84.5594,26.4952],[84.5343,26.4879],[84.535,26.5092],[84.5038,26.5355],[84.5081,26.5579],[84.5061,26.5673],[84.4892,26.5725],[84.4781,26.5963],[84.4776,26.6129],[84.4597,26.6234],[84.4493,26.6277],[84.416,26.6009],[84.4099,26.5879],[84.4177,26.614],[84.4209,26.6127],[84.42,26.6212],[84.4207,26.6264],[84.4074,26.6381]]]},"properties":{"NAME_1":"Bihar","NAME_2":"Gopalganj"}},{"type":"Feature","geometry":{"type":"Polygon","coordinates":[[[85.8807,25.0023],[85.8715,24.9903],[85.8306,24.9855],[85.8544,24.9522],[85.824,24.9473],[85.8212,24.9178],[85.8595,24.9181],[85.8798,24.9028],[85.8912,24.8682],[85.934,24.8567],[85.9505,24.8689],[85.9715,24.8639],[86.0246,24.8211],[86.0496,24.7942],[86.0506,24.7795],[86.0632,24.7517],[86.1055,24.736],[86.1244,24.7052],[86.1336,24.6755],[86.1182,24.6419],[86.1256,24.6118],[86.1523,24.5997],[86.1657,24.5837],[86.2157,24.5912],[86.2174,24.6118],[86.2486,24.5851],[86.2926,24.5861],[86.3194,24.5745],[86.304,24.5583],[86.3013,24.532],[86.3124,24.5085],[86.2939,24.4764],[86.3009,24.4568],[86.3195,24.4402],[86.3535,24.4421],[86.3733,24.4159],[86.3987,24.4003],[86.4156,24.3792],[86.4522,24.3686],[86.4671,24.3952],[86.4658,24.4219],[86.4886,24.425],[86.4903,24.4844],[86.5057,24.5177],[86.5235,24.5357],[86.5467,24.535],[86.5546,24.5593],[86.5832,24.5728],[86.5839,24.5853],[86.6093,24.6074],[86.6073,24.6627],[86.5798,24.6733],[86.558,24.6914],[86.5453,24.7127],[86.5511,24.7409],[86.5398,24.7715],[86.4921,24.7617],[86.4961,24.7826],[86.5208,24.7874],[86.5293,24.8629],[86.5181,24.8843],[86.4815,24.9073],[86.4936,24.921],[86.4856,24.938],[86.4866,24.9714],[86.4993,24.9848],[86.4759,24.9941],[86.4575,24.9898],[86.4467,25.011],[86.4325,25.0134],[86.4314,25.0461],[86.3898,25.0517],[86.3852,25.0879],[86.4087,25.1057],[86.4122,25.1374],[86.3645,25.1442],[86.3134,25.1103],[86.3097,25.087],[86.2802,25.0805],[86.2355,25.0556],[86.239,25.002],[86.2291,24.99],[86.2033,24.9941],[86.2091,25.0172],[86.1912,25.0226],[86.1577,25.0453],[86.1394,25.049],[86.1259,25.0013],[85.9928,24.9991],[85.9823,24.9755],[85.9652,24.9924],[85.9361,24.9848],[85.9291,25.0025],[85.8807,25.0023]]]},"properties":{"NAME_1":"Bihar","NAME_2":"Jamui"}},{"type":"Feature","geometry":{"type":"Polygon","coordinates":[[[84.9207,25.2897],[84.8957,25.2847],[84.8895,25.2825],[84.8824,25.266],[84.8819,25.2554],[84.8667,25.2487],[84.8615,25.2343],[84.8539,25.2227],[84.8516,25.2238],[84.827,25.2287],[84.8039,25.2196],[84.7954,25.2174],[84.776,25.222],[84.7658,25.2229],[84.7457,25.2189],[84.7376,25.2097],[84.7345,25.2099],[84.7251,25.2024],[84.7213,25.2026],[84.7181,25.2133],[84.724,25.223],[84.7285,25.2227],[84.7402,25.2305],[84.7646,25.2325],[84.7783,25.2378],[84.7779,25.2565],[84.7668,25.257],[84.7631,25.257],[84.7541,25.2625],[84.7498,25.2625],[84.7349,25.2688],[84.7276,25.253],[84.7082,25.2618],[84.7049,25.2618],[84.6926,25.2551],[84.6824,25.2567],[84.6874,25.2712],[84.6973,25.2733],[84.7009,25.2842],[84.7155,25.2856],[84.717,25.2943],[84.7033,25.3006],[84.6972,25.3165],[84.668,25.3002],[84.6456,25.2589],[84.6198,25.2362],[84.5484,25.2127],[84.5236,25.2103],[84.4839,25.1888],[84.4578,25.1624],[84.4402,25.1296],[84.4882,25.0987],[84.5054,25.1088],[84.537,25.1071],[84.5668,25.1176],[84.5755,25.1048],[84.6494,25.1067],[84.6786,25.1041],[84.7317,25.0721],[84.7315,25.0579],[84.7633,25.0543],[84.8053,25.0736],[84.8591,25.0614],[84.8798,25.0678],[84.8987,25.06],[84.8922,25.0232],[84.9297,24.9992],[84.9353,24.9814],[84.9931,25.0165],[85.0498,25.0349],[85.0562,25.0046],[85.0982,25.0001],[85.1231,25.0291],[85.1292,25.0496],[85.1574,25.0699],[85.185,25.0738],[85.1973,25.0537],[85.2017,25.0559],[85.2093,25.0643],[85.2039,25.0783],[85.1963,25.092],[85.2018,25.1],[85.1984,25.1016],[85.1821,25.1057],[85.1657,25.1255],[85.1663,25.1376],[85.1861,25.1478],[85.1806,25.162],[85.1702,25.1722],[85.1615,25.1658],[85.1637,25.1814],[85.1576,25.195],[85.1663,25.2067],[85.1685,25.2093],[85.1738,25.2122],[85.1749,25.2193],[85.1702,25.2262],[85.1693,25.248],[85.1871,25.2538],[85.1909,25.2585],[85.199,25.2657],[85.1891,25.2652],[85.1697,25.2727],[85.18,25.2921],[85.1806,25.2992],[85.1779,25.3043],[85.1672,25.3092],[85.1651,25.3084],[85.1518,25.3117],[85.1293,25.3169],[85.1251,25.3094],[85.1171,25.2975],[85.1181,25.2816],[85.1142,25.2732],[85.1091,25.2733],[85.106,25.2802],[85.0887,25.2887],[85.089,25.2837],[85.0785,25.2756],[85.0708,25.2836],[85.0582,25.2845],[85.0531,25.2852],[85.0461,25.2823],[85.0348,25.2734],[85.0334,25.2725],[85.021,25.2674],[85.019,25.2928],[85.0086,25.3057],[85.0072,25.3184],[85.0046,25.3205],[84.9786,25.3099],[84.9714,25.2917],[84.9579,25.2896],[84.9362,25.2869],[84.9298,25.2732],[84.9235,25.2692],[84.9207,25.2897]]]},"properties":{"NAME_1":"Bihar","NAME_2":"Jehanabad"}},{"type":"Feature","geometry":{"type":"Polygon","coordinates":[[[88.0433,25.6947],[88.0302,25.6988],[88.0224,25.6915],[88.0143,25.6944],[88.0175,25.7025],[88.0068,25.7065],[87.9972,25.7119],[87.9818,25.7217],[87.961,25.7247],[87.9605,25.7321],[87.951,25.7386],[87.9375,25.7583],[87.9292,25.7721],[87.9286,25.7679],[87.905,25.772],[87.9013,25.7692],[87.898,25.7993],[87.8992,25.8002],[87.8991,25.8055],[87.902,25.811],[87.9031,25.8141],[87.9095,25.8107],[87.9105,25.8148],[87.8987,25.8201],[87.8939,25.8251],[87.8938,25.8292],[87.891,25.8265],[87.8974,25.8345],[87.8973,25.8396],[87.8995,25.8598],[87.8722,25.8597],[87.8677,25.8645],[87.8559,25.8647],[87.8504,25.8671],[87.8345,25.8687],[87.8228,25.8715],[87.8183,25.8815],[87.8098,25.8292],[87.8223,25.7864],[87.7982,25.7653],[87.7487,25.7507],[87.7326,25.7629],[87.6813,25.745],[87.6628,25.6884],[87.633,25.6915],[87.6052,25.6806],[87.5891,25.6873],[87.5649,25.6815],[87.5557,25.6595],[87.5345,25.6741],[87.4771,25.6818],[87.4293,25.6806],[87.409,25.6746],[87.3605,25.6857],[87.3333,25.6816],[87.2549,25.7169],[87.2371,25.6983],[87.2555,25.669],[87.2479,25.5977],[87.2618,25.5577],[87.2227,25.5366],[87.2063,25.4837],[87.2227,25.4734],[87.2253,25.4513],[87.2243,25.4433],[87.2153,25.4309],[87.2035,25.4274],[87.1988,25.4149],[87.217,25.4001],[87.2135,25.3967],[87.2158,25.3899],[87.2229,25.3852],[87.2288,25.3792],[87.2417,25.3786],[87.2713,25.3694],[87.2638,25.3524],[87.2894,25.3983],[87.2999,25.4023],[87.3373,25.4151],[87.3512,25.4148],[87.3611,25.4081],[87.3748,25.403],[87.4023,25.3843],[87.4139,25.3776],[87.4238,25.3755],[87.4404,25.3614],[87.4834,25.3665],[87.511,25.3513],[87.5221,25.3472],[87.5247,25.3552],[87.5261,25.3512],[87.5323,25.3353],[87.5474,25.3309],[87.5671,25.3339],[87.6069,25.3114],[87.6262,25.3157],[87.6518,25.3072],[87.6842,25.3101],[87.6913,25.2814],[87.7078,25.2564],[87.7833,25.2462],[87.7876,25.2205],[87.8297,25.2041],[87.8228,25.2343],[87.8493,25.2534],[87.8565,25.2778],[87.8504,25.2974],[87.8289,25.3034],[87.7816,25.3384],[87.7888,25.3722],[87.7657,25.378],[87.7631,25.3956],[87.7865,25.4487],[87.8086,25.4342],[87.8258,25.4453],[87.8338,25.4646],[87.8635,25.4654],[87.8699,25.503],[87.9005,25.5072],[87.9241,25.5356],[87.9556,25.538],[88.0042,25.494],[88.0704,25.4805],[88.0681,25.4968],[88.0664,25.505],[88.0639,25.5062],[88.056,25.5299],[88.0461,25.5343],[88.0298,25.5504],[88.027,25.5533],[88.0296,25.5595],[88.0334,25.5615],[88.0253,25.5691],[88.03,25.5743],[88.021,25.5869],[88.0386,25.595],[88.0313,25.5983],[88.0372,25.6156],[88.0438,25.6282],[88.0356,25.6368],[88.0358,25.641],[88.0429,25.639],[88.0445,25.6429],[88.0485,25.6439],[88.0431,25.6739],[88.0491,25.6815],[88.0433,25.6947]]]},"properties":{"NAME_1":"Bihar","NAME_2":"Katihar"}},{"type":"Feature","geometry":{"type":"Polygon","coordinates":[[[86.4099,25.7286],[86.4072,25.7217],[86.3836,25.7164],[86.3778,25.7117],[86.3666,25.7066],[86.347,25.6962],[86.3424,25.6918],[86.3361,25.6789],[86.3208,25.6586],[86.2866,25.6557],[86.2858,25.64],[86.2737,25.5973],[86.2811,25.5842],[86.278,25.5433],[86.2888,25.5269],[86.3266,25.5186],[86.3284,25.4991],[86.3575,25.5011],[86.3648,25.4781],[86.3945,25.5056],[86.4166,25.4981],[86.4215,25.4794],[86.444,25.4525],[86.4866,25.4269],[86.5026,25.4285],[86.5362,25.4933],[86.5476,25.4997],[86.5741,25.4856],[86.594,25.4257],[86.6292,25.4054],[86.6342,25.3781],[86.6204,25.3601],[86.6458,25.3303],[86.6282,25.3064],[86.652,25.271],[86.7008,25.2708],[86.7247,25.2538],[86.7523,25.2665],[86.7605,25.2681],[86.7682,25.2892],[86.7745,25.2999],[86.7789,25.3105],[86.7822,25.3187],[86.789,25.3301],[86.8047,25.3281],[86.8116,25.3326],[86.8183,25.3379],[86.8339,25.355],[86.8401,25.3578],[86.8505,25.3626],[86.8418,25.3794],[86.8345,25.3847],[86.8331,25.3961],[86.8263,25.4051],[86.8161,25.4144],[86.8185,25.4212],[86.8217,25.4327],[86.8221,25.4349],[86.8062,25.4566],[86.807,25.4582],[86.8131,25.4691],[86.8116,25.4724],[86.8189,25.4743],[86.8219,25.4915],[86.8361,25.5171],[86.8431,25.5655],[86.8441,25.5736],[86.8416,25.5807],[86.8392,25.5836],[86.8352,25.5867],[86.8344,25.6186],[86.8276,25.6207],[86.8086,25.6315],[86.8025,25.6357],[86.8013,25.6383],[86.7732,25.6233],[86.7368,25.6442],[86.7273,25.6614],[86.6846,25.6433],[86.6771,25.6273],[86.6552,25.6402],[86.591,25.621],[86.5617,25.6016],[86.5052,25.6113],[86.4736,25.6378],[86.4783,25.6568],[86.4555,25.6895],[86.4323,25.6984],[86.4099,25.7286]]]},"properties":{"NAME_1":"Bihar","NAME_2":"Khagaria"}},{"type":"Feature","geometry":{"type":"Polygon","coordinates":[[[88.1863,26.5001],[88.2334,26.5324],[88.2208,26.5463],[88.2124,26.5417],[88.1992,26.5387],[88.1967,26.5436],[88.1824,26.5429],[88.1796,26.5345],[88.1574,26.5187],[88.1509,26.5169],[88.1322,26.5126],[88.1061,26.5356],[88.0977,26.5161],[88.1059,26.4667],[88.0974,26.4374],[88.0811,26.4198],[88.0297,26.3815],[88.0326,26.3646],[88.0102,26.3608],[87.995,26.3694],[87.9942,26.3922],[87.9683,26.3968],[87.935,26.4177],[87.9267,26.4464],[87.9025,26.4771],[87.8608,26.4634],[87.8512,26.4362],[87.7949,26.4685],[87.7791,26.4474],[87.7756,26.4192],[87.7362,26.4075],[87.7122,26.4271],[87.6802,26.4351],[87.6809,26.4155],[87.6528,26.4055],[87.6458,26.3933],[87.6141,26.3527],[87.6151,26.3233],[87.6504,26.3058],[87.6491,26.2774],[87.662,26.2399],[87.6729,26.2327],[87.6894,26.1976],[87.6792,26.192],[87.6783,26.1502],[87.671,26.1109],[87.6852,26.1122],[87.6957,26.1167],[87.7126,26.123],[87.7266,26.1126],[87.7483,26.1155],[87.7662,26.1116],[87.767,26.0984],[87.7822,26.1039],[87.791,26.1091],[87.8117,26.1073],[87.821,26.1063],[87.8502,26.1026],[87.8563,26.1133],[87.8577,26.1084],[87.8549,26.1042],[87.8603,26.0932],[87.8534,26.0803],[87.8585,26.078],[87.8395,26.0588],[87.8386,26.0489],[87.8324,26.0218],[87.8171,26.0011],[87.8145,25.9766],[87.8069,25.9591],[87.8092,25.9473],[87.8268,25.9319],[87.8283,25.9411],[87.8239,25.9465],[87.831,25.9622],[87.8262,25.9837],[87.8333,26.0011],[87.8417,26.0323],[87.8492,26.045],[87.8752,26.0556],[87.8761,26.0662],[87.8883,26.0719],[87.8926,26.0804],[87.8957,26.0799],[87.9175,26.088],[87.9219,26.0769],[87.9311,26.069],[87.9379,26.0845],[87.9598,26.084],[87.9681,26.0814],[87.9722,26.0849],[87.9695,26.0916],[87.9544,26.1028],[87.9694,26.1093],[87.9674,26.1254],[87.9678,26.1318],[87.9688,26.1394],[87.9633,26.1489],[87.9821,26.1592],[87.996,26.1418],[88.0068,26.1433],[88.0151,26.1429],[88.0117,26.1548],[88.0336,26.1703],[88.0374,26.1777],[88.0586,26.1738],[88.0698,26.1757],[88.073,26.1854],[88.0872,26.1944],[88.0897,26.2032],[88.0936,26.2065],[88.1025,26.2122],[88.1057,26.2164],[88.116,26.223],[88.12,26.2279],[88.1261,26.2269],[88.1374,26.2438],[88.1588,26.2569],[88.1631,26.2575],[88.1769,26.2617],[88.2041,26.2796],[88.2143,26.2817],[88.221,26.2882],[88.2268,26.2966],[88.2318,26.3104],[88.2563,26.3301],[88.2611,26.3379],[88.2653,26.3365],[88.2698,26.3327],[88.2724,26.3305],[88.2794,26.3463],[88.2891,26.3511],[88.2899,26.3569],[88.2819,26.3601],[88.2699,26.3789],[88.2616,26.38],[88.2549,26.3745],[88.2451,26.376],[88.2317,26.3849],[88.2304,26.394],[88.2554,26.4159],[88.2522,26.4338],[88.2366,26.4493],[88.2153,26.4657],[88.226,26.472],[88.1938,26.472],[88.179,26.4906],[88.1863,26.5001]]]},"properties":{"NAME_1":"Bihar","NAME_2":"Kishanganj"}},{"type":"Feature","geometry":{"type":"Polygon","coordinates":[[[86.0573,25.3343],[86.047,25.3408],[86.0332,25.3333],[86.0351,25.3305],[86.0301,25.3068],[86.0234,25.3038],[86.0161,25.2931],[86.0101,25.2941],[86.0076,25.2999],[86.0049,25.2988],[85.9835,25.3133],[85.9426,25.3235],[85.9251,25.3235],[85.9255,25.3128],[85.923,25.3028],[85.9052,25.2966],[85.8995,25.2985],[85.897,25.2692],[85.8946,25.2653],[85.9061,25.2542],[85.914,25.2503],[85.9184,25.2441],[85.9254,25.2174],[85.9535,25.1809],[85.9585,25.1664],[85.9493,25.1338],[85.9461,25.0719],[85.8883,25.0431],[85.8807,25.0023],[85.9291,25.0025],[85.9361,24.9848],[85.9652,24.9924],[85.9823,24.9755],[85.9928,24.9991],[86.1259,25.0013],[86.1394,25.049],[86.1577,25.0453],[86.1912,25.0226],[86.2091,25.0172],[86.2033,24.9941],[86.2291,24.99],[86.239,25.002],[86.2355,25.0556],[86.2802,25.0805],[86.3097,25.087],[86.3134,25.1103],[86.3645,25.1442],[86.4122,25.1374],[86.4172,25.166],[86.4016,25.1829],[86.4251,25.2046],[86.3766,25.2333],[86.3482,25.283],[86.3445,25.3087],[86.319,25.2995],[86.3072,25.3169],[86.2918,25.2973],[86.2594,25.2851],[86.2263,25.2577],[86.1988,25.2502],[86.1635,25.272],[86.1489,25.2646],[86.1268,25.2745],[86.1042,25.3008],[86.0719,25.3101],[86.0573,25.3343]]]},"properties":{"NAME_1":"Bihar","NAME_2":"Lakhisarai"}},{"type":"Feature","geometry":{"type":"Polygon","coordinates":[[[87.086,26.0554],[87.0543,26.0576],[87.0053,26.0773],[86.9901,26.0667],[86.9281,26.0872],[86.855,26.0938],[86.82,26.1113],[86.7918,26.1065],[86.7752,26.0942],[86.7254,26.1197],[86.7144,26.097],[86.6893,26.0684],[86.682,26.0357],[86.6529,26.0226],[86.6277,26.0289],[86.6235,26.0171],[86.6037,25.997],[86.6025,25.9923],[86.608,25.9707],[86.6188,25.9668],[86.6241,25.9671],[86.6107,25.9473],[86.6137,25.9436],[86.6277,25.9302],[86.6366,25.9262],[86.6432,25.923],[86.6646,25.93],[86.6684,25.9363],[86.6746,25.9375],[86.6807,25.9072],[86.6976,25.8898],[86.706,25.867],[86.7436,25.858],[86.7708,25.8608],[86.7856,25.8639],[86.803,25.8753],[86.8184,25.8693],[86.8242,25.8697],[86.8355,25.871],[86.8336,25.8676],[86.841,25.8493],[86.8444,25.845],[86.8471,25.8371],[86.8637,25.8185],[86.8503,25.7978],[86.8542,25.7902],[86.8485,25.781],[86.8465,25.7762],[86.8518,25.7625],[86.8444,25.7495],[86.8536,25.7463],[86.8414,25.7454],[86.8396,25.7358],[86.8633,25.7296],[86.8683,25.7217],[86.8518,25.6958],[86.8547,25.685],[86.8358,25.6782],[86.8226,25.665],[86.8037,25.6567],[86.8002,25.6575],[86.8002,25.6492],[86.8034,25.6406],[86.8013,25.6383],[86.8025,25.6357],[86.8086,25.6315],[86.8276,25.6207],[86.8344,25.6186],[86.8352,25.5867],[86.8392,25.5836],[86.8416,25.5807],[86.8441,25.5736],[86.8431,25.5655],[86.8361,25.5171],[86.8219,25.4915],[86.8189,25.4743],[86.8116,25.4724],[86.8131,25.4691],[86.807,25.4582],[86.8062,25.4566],[86.8177,25.4438],[86.8232,25.4585],[86.8502,25.454],[86.8737,25.4625],[86.9054,25.4917],[86.9329,25.4924],[86.9456,25.475],[86.9945,25.4702],[87.017,25.4774],[87.067,25.4693],[87.0764,25.4936],[87.096,25.5143],[87.0908,25.5244],[87.0746,25.5209],[87.0717,25.5191],[87.062,25.5261],[87.0549,25.5232],[87.0517,25.5315],[87.0572,25.5651],[87.0554,25.5798],[87.0391,25.6079],[87.0344,25.6291],[87.0233,25.6507],[87.0238,25.6637],[87.0347,25.6668],[87.0446,25.6818],[87.0415,25.6995],[87.0351,25.7097],[87.03,25.7144],[87.0171,25.7208],[87.0038,25.7443],[87.0069,25.7614],[87.0147,25.7915],[87.0135,25.8093],[87.0136,25.8138],[87.0182,25.8166],[87.0223,25.8138],[87.0275,25.8145],[87.0326,25.8317],[87.0245,25.8606],[87.0276,25.8739],[87.0284,25.8773],[87.0238,25.8961],[87.0216,25.8979],[87.0139,25.8924],[87.0132,25.8963],[86.9988,25.9125],[86.9859,25.934],[86.9928,25.9431],[87.0061,25.944],[87.0193,25.9517],[87.0317,25.9577],[87.0411,25.9531],[87.045,25.9513],[87.0496,25.9535],[87.0748,25.9606],[87.0743,25.9664],[87.0762,25.9701],[87.0641,25.9751],[87.0665,25.9991],[87.0803,26.0209],[87.0815,26.0373],[87.1035,26.041],[87.086,26.0554]]]},"properties":{"NAME_1":"Bihar","NAME_2":"Madhepura"}},{"type":"Feature","geometry":{"type":"Polygon","coordinates":[[[86.7126,26.4358],[86.6985,26.4483],[86.6341,26.4663],[86.6282,26.4806],[86.5669,26.5007],[86.5442,26.5381],[86.5011,26.5416],[86.4579,26.5678],[86.3973,26.5849],[86.3963,26.5944],[86.3433,26.6057],[86.3102,26.6196],[86.2952,26.6129],[86.2551,26.6156],[86.2334,26.592],[86.1994,26.5933],[86.1945,26.6144],[86.1574,26.6096],[86.1407,26.6287],[86.12,26.6304],[86.072,26.6568],[86.0307,26.6664],[86.0022,26.6546],[85.9782,26.6579],[85.9588,26.649],[85.9576,26.6294],[85.9291,26.6103],[85.8932,26.5945],[85.8609,26.5686],[85.8533,26.6095],[85.8183,26.6038],[85.7997,26.5572],[85.8193,26.5438],[85.7882,26.4992],[85.7716,26.5205],[85.7535,26.4918],[85.7759,26.4793],[85.8056,26.4782],[85.7875,26.4573],[85.7579,26.4726],[85.7482,26.4558],[85.7606,26.4369],[85.7555,26.4239],[85.7497,26.4065],[85.7548,26.4066],[85.7663,26.4056],[85.7981,26.4143],[85.8082,26.4126],[85.8085,26.4056],[85.8068,26.3965],[85.813,26.3909],[85.8254,26.3833],[85.8239,26.381],[85.8163,26.3834],[85.8144,26.3834],[85.8126,26.378],[85.8173,26.3693],[85.8198,26.3652],[85.8228,26.3625],[85.8218,26.3597],[85.8112,26.3553],[85.8106,26.3486],[85.8283,26.3471],[85.8293,26.3448],[85.8244,26.3284],[85.8099,26.3304],[85.8086,26.3133],[85.8045,26.3101],[85.8048,26.2979],[85.8276,26.2835],[85.8474,26.2827],[85.8557,26.2858],[85.8649,26.2828],[85.8727,26.2781],[85.8753,26.2818],[85.8974,26.2914],[85.9087,26.2881],[85.9094,26.294],[85.9061,26.3083],[85.9099,26.3122],[85.9167,26.3092],[85.924,26.3132],[85.9544,26.3095],[85.9705,26.3265],[86.0033,26.3032],[85.9949,26.2679],[86.0236,26.2506],[86.0303,26.2297],[86.0179,26.2001],[86.0415,26.1962],[86.0483,26.2141],[86.1036,26.206],[86.1361,26.239],[86.1644,26.2287],[86.1724,26.2288],[86.1967,26.2277],[86.2335,26.2327],[86.2339,26.2261],[86.2311,26.2054],[86.2538,26.1933],[86.2604,26.1824],[86.2644,26.1847],[86.2823,26.1717],[86.3099,26.1663],[86.3181,26.1503],[86.3091,26.1399],[86.3116,26.1065],[86.3147,26.0989],[86.3355,26.0864],[86.3588,26.0649],[86.3616,26.0499],[86.3923,26.0454],[86.3937,26.0475],[86.4124,26.0593],[86.4213,26.0761],[86.4246,26.0809],[86.4462,26.1135],[86.4589,26.1288],[86.4779,26.1317],[86.4849,26.1288],[86.5072,26.1327],[86.5142,26.1403],[86.521,26.1548],[86.517,26.1611],[86.5072,26.1649],[86.4985,26.1713],[86.4844,26.1627],[86.4711,26.1553],[86.4556,26.1559],[86.4556,26.1586],[86.4437,26.1758],[86.4382,26.1757],[86.4252,26.163],[86.4219,26.1659],[86.419,26.1711],[86.417,26.1678],[86.4056,26.1663],[86.3916,26.1848],[86.3977,26.1905],[86.3962,26.1991],[86.3944,26.2105],[86.3984,26.2029],[86.4184,26.202],[86.4262,26.2105],[86.4239,26.2174],[86.4264,26.2243],[86.4375,26.2193],[86.4778,26.2214],[86.4855,26.2264],[86.5008,26.226],[86.504,26.2486],[86.5016,26.2546],[86.4885,26.2694],[86.4937,26.2824],[86.5064,26.2843],[86.5268,26.3099],[86.5413,26.3105],[86.565,26.3351],[86.5935,26.3446],[86.6142,26.3387],[86.6225,26.3593],[86.6439,26.3711],[86.6866,26.3733],[86.6872,26.3922],[86.7126,26.4358]]]},"properties":{"NAME_1":"Bihar","NAME_2":"Madhubani"}},{"type":"Feature","geometry":{"type":"Polygon","coordinates":[[[86.5026,25.4285],[86.4984,25.4129],[86.4752,25.4136],[86.4702,25.399],[86.4314,25.4017],[86.3825,25.3808],[86.3596,25.3561],[86.3081,25.3346],[86.3072,25.3169],[86.319,25.2995],[86.3445,25.3087],[86.3482,25.283],[86.3766,25.2333],[86.4251,25.2046],[86.4016,25.1829],[86.4172,25.166],[86.4122,25.1374],[86.4087,25.1057],[86.3852,25.0879],[86.3898,25.0517],[86.4314,25.0461],[86.4325,25.0134],[86.4467,25.011],[86.4575,24.9898],[86.4759,24.9941],[86.4993,24.9848],[86.5246,24.9836],[86.5481,24.9556],[86.573,24.9463],[86.595,24.9484],[86.5992,24.9722],[86.637,24.9745],[86.6547,25.0159],[86.6491,25.0554],[86.6875,25.118],[86.6818,25.1208],[86.6781,25.1231],[86.6735,25.1299],[86.6792,25.1395],[86.6904,25.143],[86.6926,25.1475],[86.6995,25.1615],[86.6988,25.17],[86.701,25.1706],[86.7128,25.1704],[86.7149,25.1707],[86.7265,25.1807],[86.729,25.184],[86.718,25.1866],[86.7092,25.1873],[86.6978,25.1882],[86.6905,25.1991],[86.6884,25.2019],[86.687,25.1897],[86.6838,25.1887],[86.6698,25.2065],[86.6611,25.2145],[86.6453,25.2209],[86.6326,25.2379],[86.6371,25.2422],[86.6714,25.2397],[86.6861,25.2428],[86.7203,25.249],[86.7247,25.2538],[86.7008,25.2708],[86.652,25.271],[86.6282,25.3064],[86.6458,25.3303],[86.6204,25.3601],[86.6342,25.3781],[86.6292,25.4054],[86.594,25.4257],[86.5741,25.4856],[86.5476,25.4997],[86.5362,25.4933],[86.5026,25.4285]]]},"properties":{"NAME_1":"Bihar","NAME_2":"Munger"}},{"type":"Feature","geometry":{"type":"Polygon","coordinates":[[[85.5712,26.3739],[85.5624,26.3906],[85.5474,26.3816],[85.5303,26.3737],[85.5268,26.3726],[85.5243,26.3802],[85.5138,26.3771],[85.5014,26.3829],[85.4866,26.3574],[85.478,26.3561],[85.4756,26.3502],[85.4725,26.3378],[85.4624,26.3356],[85.4644,26.3294],[85.4568,26.3166],[85.4504,26.3016],[85.4299,26.2744],[85.4316,26.2842],[85.4151,26.2739],[85.4211,26.2934],[85.4153,26.2888],[85.4039,26.2721],[85.4019,26.2774],[85.3994,26.2835],[85.3971,26.2908],[85.3876,26.2809],[85.3888,26.2955],[85.3967,26.2979],[85.3925,26.3032],[85.4089,26.3064],[85.3944,26.3199],[85.3845,26.3237],[85.384,26.3153],[85.3811,26.3096],[85.3719,26.3136],[85.3693,26.3267],[85.3539,26.3485],[85.3463,26.3392],[85.3383,26.3458],[85.3338,26.3433],[85.3302,26.3307],[85.3235,26.3325],[85.3204,26.3513],[85.2914,26.3455],[85.276,26.3478],[85.2746,26.3508],[85.2634,26.3526],[85.2485,26.3511],[85.2366,26.369],[85.229,26.3699],[85.2138,26.3556],[85.2194,26.3521],[85.2256,26.3555],[85.2321,26.3523],[85.2341,26.3475],[85.2654,26.3359],[85.2589,26.3307],[85.2556,26.3334],[85.2487,26.3103],[85.2515,26.3049],[85.2541,26.2994],[85.2509,26.2992],[85.2441,26.3004],[85.2297,26.3083],[85.2235,26.3087],[85.2273,26.304],[85.2049,26.2981],[85.196,26.2865],[85.194,26.2888],[85.2005,26.3029],[85.192,26.2957],[85.1964,26.3204],[85.1939,26.3122],[85.1855,26.3258],[85.1859,26.3146],[85.1832,26.3228],[85.1802,26.3345],[85.1698,26.3406],[85.1641,26.3346],[85.1526,26.3206],[85.1312,26.3187],[85.1265,26.3129],[85.1241,26.3169],[85.1193,26.3177],[85.0897,26.3222],[85.0797,26.3258],[85.0656,26.3306],[85.0555,26.3434],[85.0279,26.3332],[85.0158,26.319],[85.0088,26.3242],[85.0019,26.3316],[84.9745,26.3247],[84.9491,26.3265],[84.9017,26.3207],[84.876,26.2757],[84.8749,26.2429],[84.9019,26.2257],[84.8945,26.2209],[84.8901,26.2165],[84.9036,26.1952],[84.9097,26.1815],[84.9111,26.1662],[84.9065,26.1548],[84.9134,26.1382],[84.9204,26.1336],[84.9408,26.1068],[84.933,26.097],[84.9386,26.0939],[84.942,26.074],[84.9399,26.0546],[84.9267,26.0431],[84.9309,26.029],[84.9518,26.0096],[84.9547,26.0003],[84.9566,25.9976],[84.9578,25.9966],[84.9658,25.9947],[84.9677,25.9953],[84.9689,25.9959],[84.9708,25.9977],[84.9715,25.9988],[84.9718,25.9994],[84.9723,26.0006],[84.98,26.006],[84.9916,26.0144],[85.0034,26.0005],[85.0144,25.9875],[85.0462,25.9906],[85.0521,25.9831],[85.0713,25.9699],[85.09,25.9736],[85.0949,25.978],[85.1022,25.9824],[85.0991,25.9876],[85.1344,25.9895],[85.1408,25.987],[85.1491,26.0078],[85.1514,26.0086],[85.1567,26.0103],[85.1978,26.0068],[85.2025,26.0032],[85.2077,26.0031],[85.2201,26.0057],[85.2275,26.0075],[85.2408,26.0129],[85.262,26.0145],[85.2697,26.0106],[85.2834,25.9949],[85.2851,25.9791],[85.2846,25.9704],[85.2797,25.953],[85.277,25.9516],[85.2929,25.945],[85.3078,25.9424],[85.3256,25.9496],[85.3562,25.9392],[85.3618,25.9304],[85.384,25.9343],[85.3982,25.9394],[85.3988,25.943],[85.4221,25.9353],[85.4275,25.9304],[85.4381,25.9239],[85.4483,25.9239],[85.4636,25.9292],[85.4857,25.9065],[85.5061,25.9061],[85.5276,25.92],[85.5463,25.9056],[85.5532,25.9187],[85.5662,25.9212],[85.5707,25.9183],[85.5873,25.9234],[85.598,25.9248],[85.6111,25.9226],[85.6256,25.9236],[85.6176,25.9555],[85.6261,25.9714],[85.6143,25.9891],[85.6193,26.0061],[85.6435,26.0093],[85.6582,26.0276],[85.6733,26.0279],[85.7007,26.0637],[85.7071,26.0913],[85.7206,26.1272],[85.7463,26.1453],[85.7332,26.1632],[85.7155,26.1661],[85.719,26.2021],[85.692,26.2272],[85.6879,26.2588],[85.7073,26.278],[85.6964,26.3079],[85.6942,26.3095],[85.6836,26.3197],[85.6703,26.3222],[85.6561,26.3196],[85.6498,26.3218],[85.6324,26.3209],[85.6268,26.3284],[85.6088,26.3475],[85.5971,26.3536],[85.59,26.3562],[85.58,26.3614],[85.5667,26.3657],[85.5712,26.3739]]]},"properties":{"NAME_1":"Bihar","NAME_2":"Muzaffarpur"}},{"type":"Feature","geometry":{"type":"Polygon","coordinates":[[[85.8983,25.2939],[85.8737,25.2803],[85.8563,25.2973],[85.8036,25.292],[85.7996,25.3092],[85.7698,25.3187],[85.7474,25.3179],[85.708,25.3561],[85.6845,25.3551],[85.6531,25.337],[85.6533,25.3171],[85.6232,25.325],[85.6433,25.3405],[85.6211,25.3816],[85.5834,25.3854],[85.5711,25.4251],[85.5435,25.4215],[85.527,25.4286],[85.4908,25.4293],[85.486,25.4455],[85.4647,25.4417],[85.4312,25.4472],[85.3986,25.4617],[85.3959,25.4369],[85.3712,25.4312],[85.354,25.4035],[85.3078,25.4043],[85.2999,25.3962],[85.2281,25.4051],[85.2212,25.4152],[85.1809,25.403],[85.1861,25.3396],[85.1737,25.3096],[85.1779,25.3043],[85.1806,25.2992],[85.18,25.2921],[85.1697,25.2727],[85.1891,25.2652],[85.199,25.2657],[85.1909,25.2585],[85.1871,25.2538],[85.1693,25.248],[85.1702,25.2262],[85.1749,25.2193],[85.1738,25.2122],[85.1685,25.2093],[85.1663,25.2067],[85.1576,25.195],[85.1637,25.1814],[85.1615,25.1658],[85.1702,25.1722],[85.1806,25.162],[85.1861,25.1478],[85.1663,25.1376],[85.1657,25.1255],[85.1821,25.1057],[85.1984,25.1016],[85.2018,25.1],[85.1963,25.092],[85.2039,25.0783],[85.2093,25.0643],[85.2017,25.0559],[85.1948,25.0342],[85.2034,25.0349],[85.2112,25.0425],[85.2143,25.0439],[85.2157,25.0553],[85.2281,25.0554],[85.235,25.0203],[85.2424,25.0129],[85.2547,25.012],[85.2564,25.0234],[85.2559,25.0332],[85.264,25.0316],[85.269,25.0272],[85.2755,25.031],[85.3166,25.0257],[85.3229,25.0153],[85.3353,25.0108],[85.3437,25.0179],[85.3546,25.0065],[85.3563,25.0017],[85.3581,24.9902],[85.3674,24.99],[85.3828,24.9911],[85.3742,24.9761],[85.3784,24.9775],[85.4002,24.9738],[85.4244,24.9768],[85.4861,25.0045],[85.5212,25.0067],[85.5319,25.0138],[85.548,24.9899],[85.5591,24.9937],[85.5634,24.9946],[85.5646,25.0042],[85.5598,25.0046],[85.5485,25.0254],[85.5521,25.0339],[85.5564,25.0346],[85.5638,25.0299],[85.593,25.0303],[85.6017,25.0375],[85.6186,25.0508],[85.6298,25.0589],[85.6439,25.0632],[85.6434,25.0852],[85.6337,25.0993],[85.6142,25.1162],[85.6047,25.1143],[85.6018,25.1089],[85.5993,25.1293],[85.6251,25.1324],[85.6483,25.1244],[85.6618,25.126],[85.6804,25.1358],[85.6855,25.1596],[85.6948,25.1716],[85.6884,25.1796],[85.6981,25.1904],[85.7094,25.1901],[85.7138,25.1952],[85.7224,25.2011],[85.7175,25.2193],[85.6929,25.233],[85.6947,25.27],[85.7171,25.2765],[85.7297,25.2643],[85.7385,25.2623],[85.7547,25.2655],[85.7637,25.245],[85.7847,25.2513],[85.78,25.2348],[85.7801,25.2179],[85.8056,25.226],[85.8126,25.2197],[85.8269,25.2226],[85.832,25.2327],[85.847,25.2423],[85.8532,25.242],[85.8669,25.2388],[85.8779,25.2296],[85.8993,25.232],[85.9184,25.2441],[85.914,25.2503],[85.9061,25.2542],[85.8946,25.2653],[85.897,25.2692],[85.8983,25.2939]]]},"properties":{"NAME_1":"Bihar","NAME_2":"Nalanda"}},{"type":"Feature","geometry":{"type":"Polygon","coordinates":[[[85.6337,25.0993],[85.6434,25.0852],[85.6439,25.0632],[85.6298,25.0589],[85.6186,25.0508],[85.6017,25.0375],[85.593,25.0303],[85.5638,25.0299],[85.5564,25.0346],[85.5521,25.0339],[85.5485,25.0254],[85.5598,25.0046],[85.5646,25.0042],[85.5634,24.9946],[85.5591,24.9937],[85.548,24.9899],[85.5319,25.0138],[85.5212,25.0067],[85.4861,25.0045],[85.4244,24.9768],[85.4002,24.9738],[85.3892,24.9663],[85.3746,24.9477],[85.3759,24.8985],[85.3614,24.8829],[85.339,24.8875],[85.3375,24.8669],[85.3194,24.8531],[85.3002,24.8221],[85.2989,24.8018],[85.2716,24.7821],[85.2688,24.7467],[85.2903,24.7497],[85.2987,24.7309],[85.3182,24.7297],[85.3255,24.7124],[85.3197,24.6684],[85.2888,24.6723],[85.2967,24.6334],[85.3112,24.6036],[85.3113,24.5621],[85.3434,24.5521],[85.3598,24.5561],[85.3834,24.5352],[85.411,24.5451],[85.4421,24.5394],[85.4945,24.5506],[85.5044,24.5297],[85.5342,24.5322],[85.5404,24.5503],[85.5683,24.5652],[85.5614,24.5837],[85.5766,24.603],[85.6085,24.585],[85.6443,24.5783],[85.6647,24.5819],[85.6721,24.6194],[85.6607,24.6506],[85.66,24.6747],[85.7048,24.7287],[85.7036,24.7575],[85.7367,24.8227],[85.7654,24.8125],[85.7772,24.799],[85.8107,24.7945],[85.8272,24.8096],[85.8778,24.8003],[85.9046,24.7613],[85.9277,24.7405],[85.9702,24.7336],[85.9773,24.7476],[86,24.7514],[86.0061,24.7657],[86.0506,24.7795],[86.0496,24.7942],[86.0246,24.8211],[85.9715,24.8639],[85.9505,24.8689],[85.934,24.8567],[85.8912,24.8682],[85.8798,24.9028],[85.8595,24.9181],[85.8212,24.9178],[85.824,24.9473],[85.8544,24.9522],[85.8306,24.9855],[85.788,24.98],[85.7762,25.0025],[85.7475,24.9943],[85.7408,25.0184],[85.7603,25.0285],[85.7699,25.0935],[85.7524,25.1024],[85.7173,25.0931],[85.679,25.1132],[85.6337,25.0993]]]},"properties":{"NAME_1":"Bihar","NAME_2":"Nawada"}},{"type":"Feature","geometry":{"type":"Polygon","coordinates":[[[84.7545,27.0047],[84.7036,27.0268],[84.6449,27.0472],[84.6485,27.0754],[84.6778,27.1029],[84.6857,27.1432],[84.6779,27.1701],[84.6917,27.2223],[84.6452,27.306],[84.6245,27.3361],[84.5672,27.3473],[84.488,27.3583],[84.4717,27.355],[84.4433,27.37],[84.3939,27.368],[84.2934,27.385],[84.2776,27.4008],[84.2748,27.4287],[84.2562,27.4519],[84.2338,27.4561],[84.2106,27.4423],[84.2079,27.4694],[84.151,27.4857],[84.153,27.5166],[84.132,27.5117],[84.1107,27.5215],[84.0975,27.4894],[84.0711,27.4791],[84.0542,27.4426],[84.028,27.4382],[83.9937,27.4439],[83.9481,27.441],[83.9331,27.4494],[83.8702,27.4285],[83.8752,27.3919],[83.9073,27.3895],[83.8899,27.3582],[83.8585,27.351],[83.8293,27.3275],[83.829,27.3228],[83.8306,27.3214],[83.8425,27.3213],[83.8474,27.3169],[83.8505,27.3121],[83.908,27.3304],[83.9257,27.3042],[83.9041,27.2812],[83.8962,27.2771],[83.9019,27.2521],[83.9076,27.248],[83.9559,27.2335],[83.9615,27.228],[83.9633,27.2211],[83.9603,27.2167],[83.9646,27.211],[83.9766,27.2034],[83.9788,27.2004],[83.9851,27.1818],[83.9666,27.1608],[83.9509,27.1409],[83.9525,27.129],[83.9508,27.1263],[83.9414,27.1198],[83.9403,27.1023],[83.9408,27.0896],[83.9478,27.0862],[83.9779,27.0926],[83.9812,27.0938],[83.9927,27.1001],[84.0053,27.104],[84.0207,27.0955],[84.0189,27.0934],[84.0169,27.0838],[83.9911,27.0713],[84.0243,27.0447],[84.0356,27.0465],[84.0403,27.0353],[84.0357,27.0193],[84.0304,27.0118],[84.0495,26.9908],[84.0364,26.984],[84.0435,26.9804],[84.0442,26.9609],[84.0409,26.9575],[84.0351,26.9487],[84.0317,26.9493],[84.0249,26.9427],[84.0298,26.9396],[84.0366,26.933],[84.0424,26.9091],[84.0451,26.9047],[84.049,26.8999],[84.0591,26.8908],[84.0879,26.8824],[84.0926,26.8778],[84.1011,26.8938],[84.1006,26.9008],[84.1094,26.8944],[84.1302,26.8853],[84.1317,26.8557],[84.1689,26.8345],[84.1753,26.8459],[84.1765,26.8533],[84.1808,26.8574],[84.1896,26.8598],[84.2092,26.871],[84.222,26.8702],[84.2286,26.8698],[84.2456,26.8587],[84.2521,26.8449],[84.2428,26.8218],[84.2485,26.8209],[84.2523,26.8087],[84.2485,26.7927],[84.2246,26.7571],[84.234,26.7395],[84.2545,26.7343],[84.2594,26.7408],[84.2786,26.7512],[84.298,26.7533],[84.3056,26.7377],[84.3185,26.7162],[84.3233,26.6885],[84.3371,26.6814],[84.3501,26.6814],[84.4022,26.6712],[84.4074,26.6381],[84.4207,26.6264],[84.42,26.6212],[84.4209,26.6127],[84.4177,26.614],[84.4099,26.5879],[84.416,26.6009],[84.4493,26.6277],[84.4597,26.6234],[84.4776,26.6129],[84.4834,26.6048],[84.5183,26.6033],[84.5139,26.6279],[84.5418,26.6584],[84.5602,26.666],[84.5832,26.6709],[84.5843,26.6752],[84.5936,26.6837],[84.6196,26.6951],[84.6308,26.6838],[84.6475,26.6818],[84.6869,26.7173],[84.6946,26.7183],[84.6955,26.7342],[84.7152,26.7449],[84.7117,26.7831],[84.7189,26.7981],[84.7273,26.7977],[84.7362,26.8126],[84.7256,26.8258],[84.7264,26.8443],[84.6811,26.8815],[84.6753,26.8931],[84.6718,26.9169],[84.6889,26.9185],[84.6899,26.9394],[84.7026,26.9482],[84.7087,26.9528],[84.7287,26.9552],[84.7545,27.0047]]]},"properties":{"NAME_1":"Bihar","NAME_2":"Pashchim Champaran"}},{"type":"Feature","geometry":{"type":"Polygon","coordinates":[[[84.9991,25.7328],[84.9769,25.7265],[84.9707,25.7225],[84.9392,25.7046],[84.9216,25.7062],[84.9159,25.7065],[84.9003,25.7099],[84.891,25.717],[84.8754,25.7129],[84.863,25.7168],[84.8512,25.6994],[84.8422,25.6794],[84.8275,25.6791],[84.8219,25.6767],[84.8172,25.6718],[84.8268,25.6587],[84.835,25.657],[84.8185,25.6378],[84.8149,25.6202],[84.8208,25.617],[84.8115,25.6081],[84.8109,25.5763],[84.7628,25.5385],[84.7573,25.5229],[84.748,25.4922],[84.7702,25.4481],[84.7247,25.3549],[84.7068,25.3215],[84.7033,25.3006],[84.717,25.2943],[84.7155,25.2856],[84.7009,25.2842],[84.6973,25.2733],[84.6874,25.2712],[84.6824,25.2567],[84.6926,25.2551],[84.7049,25.2618],[84.7082,25.2618],[84.7276,25.253],[84.7349,25.2688],[84.7498,25.2625],[84.7541,25.2625],[84.7631,25.257],[84.7668,25.257],[84.7779,25.2565],[84.7783,25.2378],[84.7646,25.2325],[84.7402,25.2305],[84.7285,25.2227],[84.724,25.223],[84.7181,25.2133],[84.7213,25.2026],[84.7251,25.2024],[84.7345,25.2099],[84.7376,25.2097],[84.7457,25.2189],[84.7658,25.2229],[84.776,25.222],[84.7954,25.2174],[84.8039,25.2196],[84.827,25.2287],[84.8516,25.2238],[84.8539,25.2227],[84.8615,25.2343],[84.8667,25.2487],[84.8819,25.2554],[84.8824,25.266],[84.8895,25.2825],[84.8957,25.2847],[84.9207,25.2897],[84.9235,25.2692],[84.9298,25.2732],[84.9362,25.2869],[84.9579,25.2896],[84.9714,25.2917],[84.9786,25.3099],[85.0046,25.3205],[85.0072,25.3184],[85.0086,25.3057],[85.019,25.2928],[85.021,25.2674],[85.0334,25.2725],[85.0348,25.2734],[85.0461,25.2823],[85.0531,25.2852],[85.0582,25.2845],[85.0708,25.2836],[85.0785,25.2756],[85.089,25.2837],[85.0887,25.2887],[85.106,25.2802],[85.1091,25.2733],[85.1142,25.2732],[85.1181,25.2816],[85.1171,25.2975],[85.1251,25.3094],[85.1293,25.3169],[85.1518,25.3117],[85.1651,25.3084],[85.1672,25.3092],[85.1737,25.3096],[85.1861,25.3396],[85.1809,25.403],[85.2212,25.4152],[85.2281,25.4051],[85.2999,25.3962],[85.3078,25.4043],[85.354,25.4035],[85.3712,25.4312],[85.3959,25.4369],[85.3986,25.4617],[85.4312,25.4472],[85.4647,25.4417],[85.486,25.4455],[85.4908,25.4293],[85.527,25.4286],[85.5435,25.4215],[85.5711,25.4251],[85.5834,25.3854],[85.6211,25.3816],[85.6433,25.3405],[85.6232,25.325],[85.6533,25.3171],[85.6531,25.337],[85.6845,25.3551],[85.708,25.3561],[85.7474,25.3179],[85.7698,25.3187],[85.7996,25.3092],[85.8036,25.292],[85.8563,25.2973],[85.8737,25.2803],[85.8983,25.2939],[85.8995,25.2985],[85.9052,25.2966],[85.923,25.3028],[85.9255,25.3128],[85.9251,25.3235],[85.9426,25.3235],[85.9835,25.3133],[86.0049,25.2988],[86.0076,25.2999],[86.0101,25.2941],[86.0161,25.2931],[86.0234,25.3038],[86.0301,25.3068],[86.0351,25.3305],[86.0332,25.3333],[86.047,25.3408],[86.0573,25.3343],[86.0596,25.3353],[86.0602,25.3549],[86.0511,25.3665],[86.0447,25.3911],[86.0321,25.3884],[86.0287,25.3745],[86.029,25.3662],[86.0215,25.3593],[86.0146,25.3585],[86.0052,25.3735],[85.9599,25.4045],[85.9485,25.4117],[85.9443,25.4153],[85.9297,25.4119],[85.9127,25.4197],[85.9007,25.4319],[85.882,25.425],[85.8803,25.4234],[85.8654,25.4418],[85.8688,25.4691],[85.8811,25.4685],[85.8906,25.4622],[85.8922,25.4613],[85.8951,25.4685],[85.8872,25.4746],[85.8787,25.5024],[85.8555,25.5098],[85.8312,25.5189],[85.8099,25.5396],[85.7975,25.5475],[85.7487,25.5446],[85.7284,25.5272],[85.712,25.5262],[85.7047,25.5063],[85.6751,25.4797],[85.6523,25.4936],[85.6318,25.464],[85.5849,25.4795],[85.5931,25.4934],[85.5323,25.4895],[85.5312,25.5062],[85.5087,25.5044],[85.5032,25.495],[85.4985,25.4853],[85.4923,25.489],[85.4889,25.4952],[85.4677,25.4987],[85.4585,25.5015],[85.43,25.5155],[85.4225,25.4972],[85.4132,25.5013],[85.3924,25.5074],[85.3859,25.5066],[85.3744,25.5072],[85.3357,25.5127],[85.3115,25.5139],[85.2991,25.5201],[85.2554,25.5817],[85.2437,25.5971],[85.2124,25.6146],[85.187,25.625],[85.1831,25.6256],[85.1545,25.6267],[85.1337,25.6275],[85.1196,25.6369],[85.1093,25.6486],[85.1071,25.6536],[85.0966,25.68],[85.08,25.7124],[85.0618,25.715],[85.0518,25.7183],[85.0227,25.7328],[84.9991,25.7328]]]},"properties":{"NAME_1":"Bihar","NAME_2":"Patna"}},{"type":"Feature","geometry":{"type":"Polygon","coordinates":[[[85.2599,26.756],[85.2341,26.7632],[85.2161,26.7579],[85.1997,26.7693],[85.1792,26.8149],[85.196,26.8417],[85.1913,26.8698],[85.1363,26.8676],[85.1134,26.8722],[85.0916,26.8597],[85.0461,26.8507],[85.031,26.859],[85.0458,26.8911],[85.0061,26.8948],[85.0018,26.9119],[84.9729,26.9168],[84.9805,26.94],[84.9645,26.9603],[84.9128,26.9676],[84.8611,26.9877],[84.8569,27.008],[84.8198,27.0204],[84.7957,26.9956],[84.7748,27.0175],[84.7545,27.0047],[84.7287,26.9552],[84.7087,26.9528],[84.7026,26.9482],[84.6899,26.9394],[84.6889,26.9185],[84.6718,26.9169],[84.6753,26.8931],[84.6811,26.8815],[84.7264,26.8443],[84.7256,26.8258],[84.7362,26.8126],[84.7273,26.7977],[84.7189,26.7981],[84.7117,26.7831],[84.7152,26.7449],[84.6955,26.7342],[84.6946,26.7183],[84.6869,26.7173],[84.6475,26.6818],[84.6308,26.6838],[84.6196,26.6951],[84.5936,26.6837],[84.5843,26.6752],[84.5832,26.6709],[84.5602,26.666],[84.5418,26.6584],[84.5139,26.6279],[84.5183,26.6033],[84.4834,26.6048],[84.4892,26.5725],[84.5061,26.5673],[84.5081,26.5579],[84.5038,26.5355],[84.535,26.5092],[84.5343,26.4879],[84.5594,26.4952],[84.5718,26.4874],[84.5799,26.4623],[84.5835,26.452],[84.6036,26.4485],[84.6284,26.4651],[84.6471,26.4669],[84.6881,26.4365],[84.7036,26.4295],[84.7073,26.418],[84.7057,26.4166],[84.7171,26.4021],[84.7217,26.385],[84.7597,26.3435],[84.7955,26.3219],[84.8026,26.3196],[84.8039,26.2984],[84.821,26.284],[84.8284,26.2873],[84.8417,26.276],[84.8549,26.2666],[84.8631,26.2568],[84.8736,26.2619],[84.876,26.2757],[84.9017,26.3207],[84.9491,26.3265],[84.9745,26.3247],[85.0019,26.3316],[85.0088,26.3242],[85.0158,26.319],[85.0279,26.3332],[85.0555,26.3434],[85.0656,26.3306],[85.0797,26.3258],[85.0897,26.3222],[85.1193,26.3177],[85.1241,26.3169],[85.1265,26.3129],[85.1312,26.3187],[85.1526,26.3206],[85.1641,26.3346],[85.1698,26.3406],[85.1802,26.3345],[85.1832,26.3228],[85.1859,26.3146],[85.1855,26.3258],[85.1939,26.3122],[85.1964,26.3204],[85.192,26.2957],[85.2005,26.3029],[85.194,26.2888],[85.196,26.2865],[85.2049,26.2981],[85.2273,26.304],[85.2235,26.3087],[85.2297,26.3083],[85.2441,26.3004],[85.2509,26.2992],[85.2541,26.2994],[85.2515,26.3049],[85.2487,26.3103],[85.2556,26.3334],[85.2589,26.3307],[85.2654,26.3359],[85.2341,26.3475],[85.2321,26.3523],[85.2256,26.3555],[85.2194,26.3521],[85.2138,26.3556],[85.229,26.3699],[85.2366,26.369],[85.2485,26.3511],[85.2634,26.3526],[85.2746,26.3508],[85.2757,26.3559],[85.275,26.3705],[85.2843,26.38],[85.2807,26.3819],[85.2773,26.3903],[85.2699,26.3889],[85.2584,26.3951],[85.2527,26.4132],[85.2538,26.4146],[85.2392,26.4198],[85.2267,26.4245],[85.2222,26.4181],[85.2185,26.4269],[85.2007,26.448],[85.2076,26.4494],[85.1928,26.4692],[85.1839,26.4745],[85.1728,26.4901],[85.1757,26.4951],[85.2095,26.5028],[85.2132,26.5213],[85.2163,26.5333],[85.2146,26.5498],[85.2161,26.5515],[85.2321,26.5634],[85.2416,26.5779],[85.2551,26.5915],[85.269,26.6328],[85.2604,26.6436],[85.2603,26.6558],[85.2329,26.68],[85.2541,26.696],[85.2457,26.7357],[85.2599,26.756]]]},"properties":{"NAME_1":"Bihar","NAME_2":"Purba Champaran"}},{"type":"Feature","geometry":{"type":"Polygon","coordinates":[[[87.6852,26.1122],[87.6687,26.1079],[87.6758,26.1011],[87.6663,26.0907],[87.6648,26.0831],[87.6517,26.0845],[87.6455,26.0885],[87.632,26.085],[87.6266,26.0855],[87.622,26.0814],[87.6241,26.0754],[87.6163,26.0662],[87.6128,26.0602],[87.6095,26.0597],[87.6117,26.0556],[87.62,26.0461],[87.6187,26.0262],[87.595,26.0222],[87.5877,26.0149],[87.5546,26.0008],[87.554,25.9858],[87.5255,25.9799],[87.5078,25.9774],[87.5109,25.9708],[87.4962,25.9872],[87.4778,25.9743],[87.4607,25.9864],[87.4447,25.9822],[87.4187,25.9908],[87.4079,25.9877],[87.4046,25.9861],[87.3953,25.985],[87.3928,25.967],[87.3895,25.9607],[87.3792,25.9621],[87.3868,25.9556],[87.3851,25.9547],[87.3788,25.9583],[87.3721,25.9667],[87.3682,25.9684],[87.3485,25.979],[87.3425,25.9771],[87.3025,25.9795],[87.2892,25.9619],[87.2747,25.978],[87.2611,25.9842],[87.2386,25.9646],[87.2351,25.9648],[87.2234,25.9515],[87.2229,25.9474],[87.2171,25.943],[87.2129,25.9551],[87.2073,25.958],[87.1913,25.9516],[87.1898,25.9503],[87.17,25.9424],[87.1336,25.9481],[87.1274,25.9545],[87.1084,25.9558],[87.1013,25.9673],[87.0767,25.9622],[87.0748,25.9606],[87.0496,25.9535],[87.045,25.9513],[87.0411,25.9531],[87.0317,25.9577],[87.0193,25.9517],[87.0061,25.944],[86.9928,25.9431],[86.9859,25.934],[86.9988,25.9125],[87.0132,25.8963],[87.0139,25.8924],[87.0216,25.8979],[87.0238,25.8961],[87.0284,25.8773],[87.0276,25.8739],[87.0245,25.8606],[87.0326,25.8317],[87.0275,25.8145],[87.0223,25.8138],[87.0182,25.8166],[87.0136,25.8138],[87.0135,25.8093],[87.0147,25.7915],[87.0069,25.7614],[87.0038,25.7443],[87.0171,25.7208],[87.03,25.7144],[87.0351,25.7097],[87.0415,25.6995],[87.0446,25.6818],[87.0347,25.6668],[87.0238,25.6637],[87.0233,25.6507],[87.0344,25.6291],[87.0391,25.6079],[87.0554,25.5798],[87.0572,25.5651],[87.0517,25.5315],[87.0549,25.5232],[87.062,25.5261],[87.0717,25.5191],[87.0746,25.5209],[87.0908,25.5244],[87.096,25.5143],[87.0955,25.5006],[87.0911,25.4792],[87.0839,25.4764],[87.0788,25.455],[87.0878,25.4456],[87.0954,25.4389],[87.1114,25.4357],[87.1265,25.4362],[87.1546,25.4378],[87.1604,25.4467],[87.1777,25.448],[87.1808,25.4415],[87.1852,25.4407],[87.1961,25.4457],[87.2068,25.4511],[87.2253,25.4513],[87.2227,25.4734],[87.2063,25.4837],[87.2227,25.5366],[87.2618,25.5577],[87.2479,25.5977],[87.2555,25.669],[87.2371,25.6983],[87.2549,25.7169],[87.3333,25.6816],[87.3605,25.6857],[87.409,25.6746],[87.4293,25.6806],[87.4771,25.6818],[87.5345,25.6741],[87.5557,25.6595],[87.5649,25.6815],[87.5891,25.6873],[87.6052,25.6806],[87.633,25.6915],[87.6628,25.6884],[87.6813,25.745],[87.7326,25.7629],[87.7487,25.7507],[87.7982,25.7653],[87.8223,25.7864],[87.8098,25.8292],[87.8183,25.8815],[87.8171,25.8833],[87.8168,25.9049],[87.8107,25.914],[87.8038,25.9121],[87.8075,25.9183],[87.8057,25.9284],[87.8179,25.933],[87.8092,25.9473],[87.8069,25.9591],[87.8145,25.9766],[87.8171,26.0011],[87.8324,26.0218],[87.8386,26.0489],[87.8395,26.0588],[87.8585,26.078],[87.8534,26.0803],[87.8603,26.0932],[87.8549,26.1042],[87.8577,26.1084],[87.8563,26.1133],[87.8502,26.1026],[87.821,26.1063],[87.8117,26.1073],[87.791,26.1091],[87.7822,26.1039],[87.767,26.0984],[87.7662,26.1116],[87.7483,26.1155],[87.7266,26.1126],[87.7126,26.123],[87.6957,26.1167],[87.6852,26.1122]]]},"properties":{"NAME_1":"Bihar","NAME_2":"Purnia"}},{"type":"Feature","geometry":{"type":"Polygon","coordinates":[[[84.2673,25.361],[84.2275,25.3567],[84.2055,25.3662],[84.1319,25.3726],[84.1083,25.3592],[84.0379,25.3756],[84.0439,25.3479],[84.0285,25.343],[84.0519,25.3089],[84.0276,25.2687],[83.9816,25.2658],[83.9584,25.2829],[83.9022,25.2976],[83.8916,25.2949],[83.8903,25.2638],[83.8563,25.2466],[83.827,25.245],[83.8086,25.2013],[83.8175,25.1536],[83.801,25.1152],[83.8161,25.0795],[83.8154,25.038],[83.7923,25.0118],[83.8047,24.9858],[83.804,24.9615],[83.7574,24.9138],[83.7548,24.874],[83.7217,24.8509],[83.7115,24.8337],[83.7243,24.8079],[83.7691,24.7953],[83.7778,24.7604],[83.7748,24.7396],[83.7578,24.7288],[83.725,24.6478],[83.7449,24.6327],[83.7326,24.5896],[83.7413,24.5779],[83.7123,24.5602],[83.7011,24.5433],[83.6743,24.5422],[83.6562,24.5556],[83.6377,24.5452],[83.6003,24.5417],[83.5172,24.5492],[83.4934,24.5421],[83.4982,24.5271],[83.5424,24.5262],[83.6002,24.5132],[83.6825,24.5156],[83.7167,24.5049],[83.7487,24.5105],[83.799,24.5299],[83.8577,24.5376],[83.868,24.5329],[83.9285,24.5479],[83.9724,24.5966],[83.9922,24.638],[84.0817,24.7713],[84.1637,24.8509],[84.2352,24.9334],[84.2502,24.9456],[84.3021,25.0032],[84.3067,25.0173],[84.3369,25.0389],[84.3626,25.0486],[84.4176,25.0796],[84.4402,25.1296],[84.4578,25.1624],[84.4194,25.1885],[84.4,25.1945],[84.3501,25.1932],[84.3131,25.2166],[84.3224,25.2251],[84.3239,25.2542],[84.3165,25.2733],[84.3284,25.299],[84.3011,25.3278],[84.2743,25.3304],[84.2673,25.361]]]},"properties":{"NAME_1":"Bihar","NAME_2":"Rohtas"}},{"type":"Feature","geometry":{"type":"Polygon","coordinates":[[[86.4213,26.0761],[86.4124,26.0593],[86.3937,26.0475],[86.3923,26.0454],[86.3699,26.0448],[86.371,26.0414],[86.3659,26.0369],[86.3698,26.0323],[86.3649,26.028],[86.3655,26.0177],[86.3732,26.0098],[86.3766,25.9966],[86.3719,25.9922],[86.3772,25.9855],[86.374,25.984],[86.3737,25.9805],[86.3784,25.9759],[86.3789,25.956],[86.3731,25.9538],[86.3813,25.9447],[86.382,25.9392],[86.3859,25.9399],[86.3936,25.9368],[86.3964,25.931],[86.3966,25.9277],[86.375,25.9243],[86.3729,25.9328],[86.3672,25.9345],[86.3577,25.9378],[86.3546,25.9299],[86.3519,25.9284],[86.3479,25.9248],[86.3422,25.9145],[86.3399,25.9052],[86.3273,25.8964],[86.3253,25.8921],[86.315,25.8728],[86.3232,25.8559],[86.3259,25.8598],[86.3333,25.8605],[86.3399,25.8617],[86.3459,25.8558],[86.361,25.8509],[86.3642,25.851],[86.362,25.8432],[86.3633,25.8397],[86.3647,25.8356],[86.3714,25.8314],[86.3773,25.8278],[86.376,25.8186],[86.3724,25.8145],[86.3869,25.8132],[86.3964,25.8104],[86.3935,25.804],[86.4073,25.7968],[86.4049,25.7916],[86.4043,25.7883],[86.4063,25.7841],[86.4004,25.7836],[86.3966,25.7757],[86.405,25.7726],[86.4017,25.7691],[86.4059,25.7656],[86.3984,25.7351],[86.4099,25.7286],[86.4323,25.6984],[86.4555,25.6895],[86.4783,25.6568],[86.4736,25.6378],[86.5052,25.6113],[86.5617,25.6016],[86.591,25.621],[86.6552,25.6402],[86.6771,25.6273],[86.6846,25.6433],[86.7273,25.6614],[86.7368,25.6442],[86.7732,25.6233],[86.8013,25.6383],[86.8034,25.6406],[86.8002,25.6492],[86.8002,25.6575],[86.8037,25.6567],[86.8226,25.665],[86.8358,25.6782],[86.8547,25.685],[86.8518,25.6958],[86.8683,25.7217],[86.8633,25.7296],[86.8396,25.7358],[86.8414,25.7454],[86.8536,25.7463],[86.8444,25.7495],[86.8518,25.7625],[86.8465,25.7762],[86.8485,25.781],[86.8542,25.7902],[86.8503,25.7978],[86.8637,25.8185],[86.8471,25.8371],[86.8444,25.845],[86.841,25.8493],[86.8336,25.8676],[86.8355,25.871],[86.8242,25.8697],[86.8184,25.8693],[86.803,25.8753],[86.7856,25.8639],[86.7708,25.8608],[86.7436,25.858],[86.706,25.867],[86.6976,25.8898],[86.6807,25.9072],[86.6746,25.9375],[86.6684,25.9363],[86.6646,25.93],[86.6432,25.923],[86.6366,25.9262],[86.6277,25.9302],[86.6137,25.9436],[86.6107,25.9473],[86.6241,25.9671],[86.6188,25.9668],[86.608,25.9707],[86.6025,25.9923],[86.6037,25.997],[86.6235,26.0171],[86.6115,26.0299],[86.5961,26.0224],[86.5602,26.0307],[86.5449,26.0354],[86.541,26.0338],[86.5207,26.0137],[86.5063,26.0021],[86.4827,26.0277],[86.4941,26.0453],[86.4847,26.0606],[86.4812,26.0553],[86.4552,26.0593],[86.4522,26.0745],[86.4501,26.078],[86.4299,26.0786],[86.4213,26.0761]]]},"properties":{"NAME_1":"Bihar","NAME_2":"Saharsa"}},{"type":"Feature","geometry":{"type":"Polygon","coordinates":[[[85.7071,26.0913],[85.7007,26.0637],[85.6733,26.0279],[85.6582,26.0276],[85.6435,26.0093],[85.6193,26.0061],[85.6143,25.9891],[85.6261,25.9714],[85.6176,25.9555],[85.6256,25.9236],[85.6198,25.9051],[85.6185,25.8899],[85.6186,25.8867],[85.6136,25.8764],[85.6008,25.8668],[85.6014,25.8496],[85.5942,25.8432],[85.5997,25.8423],[85.6072,25.8337],[85.6008,25.8276],[85.6061,25.8168],[85.5978,25.798],[85.6037,25.7912],[85.6024,25.7851],[85.6202,25.7726],[85.618,25.7593],[85.6126,25.7574],[85.6043,25.7292],[85.6075,25.7264],[85.6047,25.7077],[85.5924,25.7],[85.5766,25.6884],[85.5706,25.6839],[85.5645,25.6846],[85.555,25.6573],[85.5502,25.6388],[85.5436,25.6184],[85.5268,25.6024],[85.5333,25.5755],[85.5463,25.5718],[85.547,25.562],[85.5491,25.5594],[85.5458,25.5383],[85.5254,25.5445],[85.5312,25.5062],[85.5323,25.4895],[85.5931,25.4934],[85.5849,25.4795],[85.6318,25.464],[85.6523,25.4936],[85.6751,25.4797],[85.7047,25.5063],[85.712,25.5262],[85.7284,25.5272],[85.7306,25.5391],[85.7382,25.5593],[85.7467,25.5637],[85.7558,25.5696],[85.7642,25.5786],[85.7642,25.5839],[85.7679,25.5888],[85.8064,25.5786],[85.839,25.587],[85.8408,25.5942],[85.8203,25.6184],[85.8226,25.6232],[85.8308,25.6332],[85.835,25.6397],[85.8438,25.6458],[85.8478,25.6424],[85.851,25.6464],[85.8548,25.6453],[85.8622,25.6615],[85.8644,25.6618],[85.8689,25.6667],[85.8731,25.6525],[85.8742,25.6479],[85.8813,25.6517],[85.8879,25.6536],[85.8934,25.6458],[85.8997,25.6425],[85.9153,25.6467],[85.927,25.6494],[85.9332,25.652],[85.9386,25.6532],[85.954,25.6381],[85.9563,25.6333],[85.9626,25.6206],[85.9703,25.6161],[85.9927,25.5999],[86.007,25.5911],[86.019,25.6037],[86.0153,25.6333],[86.0105,25.6491],[86.0224,25.6619],[86.0174,25.6659],[86.0052,25.6614],[86.0058,25.6671],[86.0256,25.69],[86.0072,25.712],[86.0082,25.7199],[86.0144,25.7259],[86.0312,25.7277],[86.0382,25.721],[86.0412,25.7309],[86.05,25.7305],[86.0544,25.7251],[86.0652,25.728],[86.0723,25.7373],[86.0889,25.7448],[86.0981,25.7454],[86.1102,25.7367],[86.1137,25.7382],[86.1129,25.7396],[86.1295,25.7364],[86.1328,25.7462],[86.1248,25.7519],[86.1018,25.7587],[86.1009,25.7758],[86.1297,25.768],[86.1255,25.7622],[86.1263,25.7595],[86.136,25.7659],[86.1442,25.7658],[86.1484,25.7538],[86.1438,25.7481],[86.1452,25.7434],[86.1531,25.7344],[86.1455,25.7292],[86.1677,25.7189],[86.1774,25.6891],[86.1834,25.6681],[86.2012,25.6581],[86.2216,25.6559],[86.2394,25.6528],[86.2467,25.6468],[86.2539,25.6353],[86.2733,25.6324],[86.2858,25.64],[86.2866,25.6557],[86.3208,25.6586],[86.3361,25.6789],[86.3424,25.6918],[86.347,25.6962],[86.3666,25.7066],[86.3778,25.7117],[86.3836,25.7164],[86.4072,25.7217],[86.4099,25.7286],[86.3984,25.7351],[86.4059,25.7656],[86.4017,25.7691],[86.405,25.7726],[86.3966,25.7757],[86.4004,25.7836],[86.4063,25.7841],[86.4043,25.7883],[86.4049,25.7916],[86.4073,25.7968],[86.3935,25.804],[86.3964,25.8104],[86.3869,25.8132],[86.3724,25.8145],[86.376,25.8186],[86.3773,25.8278],[86.3714,25.8314],[86.3647,25.8356],[86.3633,25.8397],[86.362,25.8432],[86.3642,25.851],[86.361,25.8509],[86.3459,25.8558],[86.3399,25.8617],[86.3333,25.8605],[86.3259,25.8598],[86.3232,25.8559],[86.3037,25.8673],[86.2917,25.9024],[86.2599,25.9081],[86.2049,25.8886],[86.188,25.8961],[86.102,25.8946],[86.0548,25.9196],[86.0319,25.9479],[85.9738,25.9374],[85.9673,25.9558],[85.9429,25.9613],[85.9278,25.9538],[85.91,25.9744],[85.866,25.9861],[85.8589,26.023],[85.8174,26.0271],[85.7755,26.0398],[85.7563,26.0542],[85.7218,26.0377],[85.711,26.0483],[85.7071,26.0913]]]},"properties":{"NAME_1":"Bihar","NAME_2":"Samastipur"}},{"type":"Feature","geometry":{"type":"Polygon","coordinates":[[[84.8901,26.2165],[84.8656,26.2199],[84.8037,26.2124],[84.7547,26.2127],[84.7701,26.2],[84.7723,26.178],[84.7554,26.1702],[84.7505,26.143],[84.7108,26.1224],[84.6994,26.0843],[84.6579,26.0766],[84.6074,26.085],[84.5871,26.0737],[84.5821,26.0525],[84.5643,26.035],[84.514,26.0381],[84.4641,26.0295],[84.4075,26.0344],[84.4226,25.9967],[84.4467,25.9947],[84.4319,25.9626],[84.4538,25.95],[84.4594,25.9198],[84.4507,25.8902],[84.4787,25.8884],[84.5065,25.8724],[84.5316,25.8727],[84.5399,25.8604],[84.52,25.8612],[84.527,25.8343],[84.5329,25.8322],[84.5469,25.8413],[84.5565,25.8375],[84.5714,25.8298],[84.5982,25.8097],[84.6202,25.7941],[84.6191,25.789],[84.6101,25.7773],[84.6029,25.7724],[84.6149,25.7528],[84.6223,25.7473],[84.5955,25.7391],[84.6229,25.7071],[84.6532,25.7119],[84.6808,25.7028],[84.7393,25.7092],[84.7719,25.691],[84.8043,25.6998],[84.8456,25.6968],[84.8512,25.6994],[84.863,25.7168],[84.8754,25.7129],[84.891,25.717],[84.9003,25.7099],[84.9159,25.7065],[84.9216,25.7062],[84.9392,25.7046],[84.9707,25.7225],[84.9769,25.7265],[84.9991,25.7328],[85.0227,25.7328],[85.0518,25.7183],[85.0618,25.715],[85.08,25.7124],[85.0966,25.68],[85.1071,25.6536],[85.1093,25.6486],[85.1196,25.6369],[85.1337,25.6275],[85.1545,25.6267],[85.1831,25.6256],[85.187,25.625],[85.1923,25.676],[85.1821,25.7227],[85.1679,25.7546],[85.1739,25.7886],[85.1591,25.834],[85.1171,25.8544],[85.1081,25.8928],[85.0749,25.9261],[85.0613,25.9729],[85.0521,25.9831],[85.0462,25.9906],[85.0144,25.9875],[85.0034,26.0005],[84.9916,26.0144],[84.98,26.006],[84.9723,26.0006],[84.9718,25.9994],[84.9715,25.9988],[84.9708,25.9977],[84.9689,25.9959],[84.9677,25.9953],[84.9658,25.9947],[84.9578,25.9966],[84.9566,25.9976],[84.9547,26.0003],[84.9518,26.0096],[84.9309,26.029],[84.9267,26.0431],[84.9399,26.0546],[84.942,26.074],[84.9386,26.0939],[84.933,26.097],[84.9408,26.1068],[84.9204,26.1336],[84.9134,26.1382],[84.9065,26.1548],[84.9111,26.1662],[84.9097,26.1815],[84.9036,26.1952],[84.8901,26.2165]]]},"properties":{"NAME_1":"Bihar","NAME_2":"Saran"}},{"type":"Feature","geometry":{"type":"Polygon","coordinates":[[[85.9184,25.2441],[85.8993,25.232],[85.8779,25.2296],[85.8669,25.2388],[85.8532,25.242],[85.847,25.2423],[85.832,25.2327],[85.8269,25.2226],[85.8126,25.2197],[85.8056,25.226],[85.7801,25.2179],[85.78,25.2348],[85.7847,25.2513],[85.7637,25.245],[85.7547,25.2655],[85.7385,25.2623],[85.7297,25.2643],[85.7171,25.2765],[85.6947,25.27],[85.6929,25.233],[85.7175,25.2193],[85.7224,25.2011],[85.7138,25.1952],[85.7094,25.1901],[85.6981,25.1904],[85.6884,25.1796],[85.6948,25.1716],[85.6855,25.1596],[85.6804,25.1358],[85.6618,25.126],[85.6483,25.1244],[85.6251,25.1324],[85.5993,25.1293],[85.6018,25.1089],[85.6047,25.1143],[85.6142,25.1162],[85.6337,25.0993],[85.679,25.1132],[85.7173,25.0931],[85.7524,25.1024],[85.7699,25.0935],[85.7603,25.0285],[85.7408,25.0184],[85.7475,24.9943],[85.7762,25.0025],[85.788,24.98],[85.8306,24.9855],[85.8715,24.9903],[85.8807,25.0023],[85.8883,25.0431],[85.9461,25.0719],[85.9493,25.1338],[85.9585,25.1664],[85.9535,25.1809],[85.9254,25.2174],[85.9184,25.2441]]]},"properties":{"NAME_1":"Bihar","NAME_2":"Sheikhpura"}},{"type":"Feature","geometry":{"type":"Polygon","coordinates":[[[85.2757,26.3559],[85.276,26.3478],[85.2914,26.3455],[85.3204,26.3513],[85.3235,26.3325],[85.3302,26.3307],[85.3338,26.3433],[85.3383,26.3458],[85.3463,26.3392],[85.3539,26.3485],[85.3693,26.3267],[85.3851,26.3529],[85.3793,26.3651],[85.3809,26.3723],[85.427,26.3774],[85.4526,26.4109],[85.4533,26.4142],[85.4438,26.422],[85.4248,26.4381],[85.4249,26.4562],[85.458,26.4772],[85.4685,26.4909],[85.4435,26.5396],[85.4261,26.518],[85.4173,26.5163],[85.3957,26.5194],[85.3687,26.5382],[85.382,26.5491],[85.3798,26.572],[85.3614,26.57],[85.3644,26.6256],[85.351,26.6362],[85.3298,26.6469],[85.3059,26.6453],[85.269,26.6328],[85.2551,26.5915],[85.2416,26.5779],[85.2321,26.5634],[85.2161,26.5515],[85.2146,26.5498],[85.2163,26.5333],[85.2132,26.5213],[85.2095,26.5028],[85.1757,26.4951],[85.1728,26.4901],[85.1839,26.4745],[85.1928,26.4692],[85.2076,26.4494],[85.2007,26.448],[85.2185,26.4269],[85.2222,26.4181],[85.2267,26.4245],[85.2392,26.4198],[85.2538,26.4146],[85.2527,26.4132],[85.2584,26.3951],[85.2699,26.3889],[85.2773,26.3903],[85.2807,26.3819],[85.2843,26.38],[85.275,26.3705],[85.2757,26.3559]]]},"properties":{"NAME_1":"Bihar","NAME_2":"Sheohar"}},{"type":"Feature","geometry":{"type":"Polygon","coordinates":[[[85.8183,26.6038],[85.8022,26.6244],[85.7492,26.6396],[85.7258,26.6739],[85.7258,26.6993],[85.7367,26.7956],[85.7233,26.82],[85.6825,26.843],[85.6446,26.8529],[85.6262,26.8734],[85.6092,26.857],[85.5679,26.8407],[85.5451,26.8379],[85.4983,26.7981],[85.4548,26.7817],[85.4096,26.7911],[85.3771,26.7606],[85.3572,26.7602],[85.3363,26.7414],[85.3201,26.7489],[85.2599,26.756],[85.2457,26.7357],[85.2541,26.696],[85.2329,26.68],[85.2603,26.6558],[85.2604,26.6436],[85.3059,26.6453],[85.3298,26.6469],[85.351,26.6362],[85.3644,26.6256],[85.3614,26.57],[85.3798,26.572],[85.382,26.5491],[85.3687,26.5382],[85.3957,26.5194],[85.4173,26.5163],[85.4261,26.518],[85.4435,26.5396],[85.4685,26.4909],[85.458,26.4772],[85.4249,26.4562],[85.4248,26.4381],[85.4438,26.422],[85.4533,26.4142],[85.4526,26.4109],[85.427,26.3774],[85.3809,26.3723],[85.3793,26.3651],[85.3851,26.3529],[85.3693,26.3267],[85.3719,26.3136],[85.3811,26.3096],[85.384,26.3153],[85.3845,26.3237],[85.3944,26.3199],[85.4089,26.3064],[85.3925,26.3032],[85.3967,26.2979],[85.3888,26.2955],[85.3876,26.2809],[85.3971,26.2908],[85.3994,26.2835],[85.4019,26.2774],[85.4039,26.2721],[85.4153,26.2888],[85.4211,26.2934],[85.4151,26.2739],[85.4316,26.2842],[85.4299,26.2744],[85.4504,26.3016],[85.4568,26.3166],[85.4644,26.3294],[85.4624,26.3356],[85.4725,26.3378],[85.4756,26.3502],[85.478,26.3561],[85.4866,26.3574],[85.5014,26.3829],[85.5138,26.3771],[85.5243,26.3802],[85.5268,26.3726],[85.5303,26.3737],[85.5474,26.3816],[85.5624,26.3906],[85.5712,26.3739],[85.5667,26.3657],[85.58,26.3614],[85.59,26.3562],[85.5971,26.3536],[85.6088,26.3475],[85.6268,26.3284],[85.6324,26.3209],[85.6498,26.3218],[85.6561,26.3196],[85.6703,26.3222],[85.6836,26.3197],[85.6942,26.3095],[85.6964,26.3079],[85.717,26.3178],[85.721,26.3289],[85.7237,26.3431],[85.7163,26.3506],[85.7077,26.3527],[85.6925,26.353],[85.6768,26.3516],[85.6816,26.3555],[85.7076,26.3588],[85.7099,26.3626],[85.7034,26.3631],[85.6818,26.4097],[85.6828,26.4162],[85.6986,26.4243],[85.7007,26.4401],[85.7018,26.4473],[85.7095,26.4468],[85.7299,26.4377],[85.7606,26.4369],[85.7482,26.4558],[85.7579,26.4726],[85.7875,26.4573],[85.8056,26.4782],[85.7759,26.4793],[85.7535,26.4918],[85.7716,26.5205],[85.7882,26.4992],[85.8193,26.5438],[85.7997,26.5572],[85.8183,26.6038]]]},"properties":{"NAME_1":"Bihar","NAME_2":"Sitamarhi"}},{"type":"Feature","geometry":{"type":"Polygon","coordinates":[[[84.7547,26.2127],[84.7082,26.2423],[84.6781,26.2408],[84.676,26.2685],[84.6447,26.2796],[84.6479,26.3058],[84.6056,26.3055],[84.5824,26.3253],[84.544,26.3243],[84.5227,26.3393],[84.5042,26.3329],[84.4787,26.3368],[84.4474,26.352],[84.4496,26.3713],[84.4273,26.3764],[84.3973,26.3689],[84.3566,26.3699],[84.3615,26.3391],[84.3559,26.3076],[84.3139,26.332],[84.2704,26.3083],[84.236,26.3179],[84.2089,26.3361],[84.2023,26.3498],[84.1714,26.374],[84.1672,26.3381],[84.1817,26.317],[84.1687,26.2929],[84.171,26.2866],[84.1682,26.2737],[84.1714,26.2677],[84.1637,26.2614],[84.1551,26.2577],[84.1557,26.2525],[84.1573,26.2441],[84.1238,26.2588],[84.1123,26.2566],[84.1127,26.2497],[84.1014,26.2431],[84.0923,26.2402],[84.0795,26.2318],[84.0819,26.2271],[84.0736,26.2249],[84.0584,26.2267],[84.0468,26.2302],[84.0336,26.2321],[84.024,26.2396],[84.0184,26.2388],[84.0115,26.2407],[84.0105,26.2388],[84.0055,26.2341],[84.0082,26.2253],[84.0168,26.2216],[84.0205,26.2236],[84.019,26.2093],[84.0232,26.2045],[84.0236,26.2009],[84.015,26.1974],[84.003,26.1782],[84.0197,26.1641],[84.0229,26.1653],[84.0284,26.1596],[84.0236,26.1541],[84.0336,26.1375],[84.0424,26.1315],[84.0436,26.1172],[84.0451,26.1063],[84.0482,26.1038],[84.0692,26.0991],[84.091,26.0965],[84.1072,26.0817],[84.1279,26.0555],[84.159,26.0322],[84.166,26.0027],[84.1764,25.9978],[84.1947,25.9913],[84.2141,25.9962],[84.2352,25.986],[84.2405,25.9828],[84.2754,25.9613],[84.2963,25.947],[84.3488,25.96],[84.4093,25.9244],[84.4215,25.9022],[84.4507,25.8902],[84.4594,25.9198],[84.4538,25.95],[84.4319,25.9626],[84.4467,25.9947],[84.4226,25.9967],[84.4075,26.0344],[84.4641,26.0295],[84.514,26.0381],[84.5643,26.035],[84.5821,26.0525],[84.5871,26.0737],[84.6074,26.085],[84.6579,26.0766],[84.6994,26.0843],[84.7108,26.1224],[84.7505,26.143],[84.7554,26.1702],[84.7723,26.178],[84.7701,26.2],[84.7547,26.2127]]]},"properties":{"NAME_1":"Bihar","NAME_2":"Siwan"}},{"type":"Feature","geometry":{"type":"Polygon","coordinates":[[[87.0527,26.466],[87.0401,26.4983],[87.0538,26.5386],[87.0359,26.5566],[87.0177,26.5318],[86.9776,26.5197],[86.9351,26.5165],[86.9322,26.4893],[86.8956,26.4873],[86.8976,26.467],[86.8634,26.4572],[86.8358,26.4387],[86.7716,26.4591],[86.7492,26.428],[86.7282,26.4254],[86.7126,26.4358],[86.6872,26.3922],[86.6866,26.3733],[86.6439,26.3711],[86.6225,26.3593],[86.6142,26.3387],[86.5935,26.3446],[86.565,26.3351],[86.5413,26.3105],[86.5268,26.3099],[86.5064,26.2843],[86.4937,26.2824],[86.4885,26.2694],[86.5016,26.2546],[86.504,26.2486],[86.5008,26.226],[86.4855,26.2264],[86.4778,26.2214],[86.4375,26.2193],[86.4264,26.2243],[86.4239,26.2174],[86.4262,26.2105],[86.4184,26.202],[86.3984,26.2029],[86.3944,26.2105],[86.3962,26.1991],[86.3977,26.1905],[86.3916,26.1848],[86.4056,26.1663],[86.417,26.1678],[86.419,26.1711],[86.4219,26.1659],[86.4252,26.163],[86.4382,26.1757],[86.4437,26.1758],[86.4556,26.1586],[86.4556,26.1559],[86.4711,26.1553],[86.4844,26.1627],[86.4985,26.1713],[86.5072,26.1649],[86.517,26.1611],[86.521,26.1548],[86.5142,26.1403],[86.5072,26.1327],[86.4849,26.1288],[86.4779,26.1317],[86.4589,26.1288],[86.4462,26.1135],[86.4246,26.0809],[86.4213,26.0761],[86.4299,26.0786],[86.4501,26.078],[86.4522,26.0745],[86.4552,26.0593],[86.4812,26.0553],[86.4847,26.0606],[86.4941,26.0453],[86.4827,26.0277],[86.5063,26.0021],[86.5207,26.0137],[86.541,26.0338],[86.5449,26.0354],[86.5602,26.0307],[86.5961,26.0224],[86.6115,26.0299],[86.6277,26.0289],[86.6529,26.0226],[86.682,26.0357],[86.6893,26.0684],[86.7144,26.097],[86.7254,26.1197],[86.7752,26.0942],[86.7918,26.1065],[86.82,26.1113],[86.855,26.0938],[86.9281,26.0872],[86.9901,26.0667],[87.0053,26.0773],[87.0543,26.0576],[87.086,26.0554],[87.083,26.063],[87.0893,26.0743],[87.1026,26.0832],[87.104,26.0968],[87.0863,26.0962],[87.0586,26.104],[87.0767,26.1219],[87.0756,26.1358],[87.0929,26.1393],[87.0908,26.1629],[87.103,26.1898],[87.0767,26.1878],[87.0768,26.1915],[87.088,26.2034],[87.0593,26.246],[87.0589,26.2922],[87.0491,26.2987],[87.0394,26.3056],[87.0381,26.3134],[87.0362,26.3224],[87.0388,26.3363],[87.0626,26.3386],[87.0546,26.3647],[87.0656,26.3849],[87.0519,26.3981],[87.0528,26.41],[87.0665,26.4111],[87.0604,26.4201],[87.0511,26.4405],[87.0565,26.4487],[87.0596,26.4619],[87.0527,26.466]]]},"properties":{"NAME_1":"Bihar","NAME_2":"Supaul"}},{"type":"Feature","geometry":{"type":"Polygon","coordinates":[[[85.0613,25.9729],[85.0749,25.9261],[85.1081,25.8928],[85.1171,25.8544],[85.1591,25.834],[85.1739,25.7886],[85.1679,25.7546],[85.1821,25.7227],[85.1923,25.676],[85.187,25.625],[85.2124,25.6146],[85.2437,25.5971],[85.2554,25.5817],[85.2991,25.5201],[85.3115,25.5139],[85.3357,25.5127],[85.3744,25.5072],[85.3859,25.5066],[85.4225,25.4972],[85.43,25.5155],[85.452,25.5025],[85.4585,25.5015],[85.4677,25.4987],[85.4889,25.4952],[85.4923,25.489],[85.4985,25.4853],[85.5032,25.495],[85.5087,25.5044],[85.5312,25.5062],[85.5254,25.5445],[85.5458,25.5383],[85.5491,25.5594],[85.547,25.562],[85.5463,25.5718],[85.5333,25.5755],[85.5268,25.6024],[85.5436,25.6184],[85.5502,25.6388],[85.555,25.6573],[85.5645,25.6846],[85.5706,25.6839],[85.5766,25.6884],[85.5924,25.7],[85.6047,25.7077],[85.6075,25.7264],[85.6043,25.7292],[85.6126,25.7574],[85.618,25.7593],[85.6202,25.7726],[85.6024,25.7851],[85.6037,25.7912],[85.5978,25.798],[85.6061,25.8168],[85.6008,25.8276],[85.6072,25.8337],[85.5997,25.8423],[85.5942,25.8432],[85.6014,25.8496],[85.6008,25.8668],[85.6136,25.8764],[85.6186,25.8867],[85.6185,25.8899],[85.6198,25.9051],[85.6256,25.9236],[85.6111,25.9226],[85.598,25.9248],[85.5873,25.9234],[85.5707,25.9183],[85.5662,25.9212],[85.5532,25.9187],[85.5463,25.9056],[85.5276,25.92],[85.5061,25.9061],[85.4857,25.9065],[85.4636,25.9292],[85.4483,25.9239],[85.4381,25.9239],[85.4275,25.9304],[85.4221,25.9353],[85.3988,25.943],[85.3982,25.9394],[85.384,25.9343],[85.3618,25.9304],[85.3562,25.9392],[85.3256,25.9496],[85.3078,25.9424],[85.2929,25.945],[85.277,25.9516],[85.2797,25.953],[85.2846,25.9704],[85.2851,25.9791],[85.2834,25.9949],[85.2697,26.0106],[85.262,26.0145],[85.2408,26.0129],[85.2275,26.0075],[85.2201,26.0057],[85.2077,26.0031],[85.2025,26.0032],[85.1978,26.0068],[85.1567,26.0103],[85.1514,26.0086],[85.1491,26.0078],[85.1408,25.987],[85.1344,25.9895],[85.0991,25.9876],[85.1022,25.9824],[85.0949,25.978],[85.09,25.9736],[85.0713,25.9699],[85.0613,25.9729]]]},"properties":{"NAME_1":"Bihar","NAME_2":"Vaishali"}}]}