{"type":"FeatureCollection","features":[{"type":"Feature","geometry":{"type":"Polygon","coordinates":[[[76.8198,30.6858],[76.8363,30.7143],[76.8227,30.7401],[76.8282,30.7638],[76.7931,30.7665],[76.8035,30.7776],[76.8022,30.7818],[76.7961,30.7858],[76.7809,30.7739],[76.7727,30.7831],[76.7763,30.784],[76.7676,30.7951],[76.7509,30.7968],[76.7458,30.7946],[76.74,30.7911],[76.7382,30.7899],[76.7352,30.783],[76.7292,30.7763],[76.7183,30.7691],[76.6906,30.7601],[76.6929,30.7574],[76.7099,30.7355],[76.7153,30.715],[76.7152,30.7133],[76.7269,30.7076],[76.7246,30.7038],[76.7329,30.6972],[76.7385,30.6892],[76.7944,30.6693],[76.8059,30.6803],[76.8105,30.685],[76.8198,30.6858]]]},"properties":{"NAME_1":"Chandigarh","NAME_2":"Chandigarh"}}]}