{"type":"FeatureCollection","features":[{"type":"Feature","geometry":{"type":"Polygon","coordinates":[[[81.8094,20.1653],[81.8011,20.1567],[81.7635,20.1529],[81.7468,20.159],[81.7252,20.152],[81.7209,20.1385],[81.6789,20.1257],[81.6377,20.1384],[81.6095,20.1549],[81.5818,20.1901],[81.5513,20.1861],[81.5182,20.1646],[81.4688,20.1544],[81.4456,20.1416],[81.4139,20.1518],[81.3944,20.1102],[81.3987,20.074],[81.3821,20.0424],[81.3528,20.0413],[81.2859,20.0133],[81.2971,19.9717],[81.32,19.9629],[81.3233,19.9315],[81.3935,19.8792],[81.3951,19.8648],[81.3704,19.8481],[81.387,19.8287],[81.3648,19.7986],[81.3734,19.748],[81.3656,19.7409],[81.2858,19.7409],[81.2523,19.7596],[81.2038,19.7521],[81.1964,19.7409],[81.1889,19.6999],[81.1442,19.7036],[81.0808,19.7223],[81.0286,19.7558],[81.0025,19.7856],[81.0025,19.8304],[81.0398,19.9012],[81.0361,19.9385],[80.9951,19.9459],[80.9306,19.943],[80.9172,19.9227],[80.8827,19.9277],[80.856,19.9385],[80.8273,19.9017],[80.8055,19.8959],[80.7901,19.8792],[80.753,19.864],[80.7145,19.8275],[80.7281,19.8105],[80.7717,19.8341],[80.809,19.8257],[80.8149,19.8111],[80.7883,19.8018],[80.7784,19.7816],[80.7597,19.8008],[80.7211,19.7855],[80.7082,19.7712],[80.7051,19.7331],[80.7158,19.7021],[80.6646,19.6908],[80.6561,19.6252],[80.662,19.6087],[80.721,19.6084],[80.7643,19.5848],[80.7664,19.5683],[80.7852,19.5604],[80.8196,19.5654],[80.8335,19.556],[80.8523,19.5242],[80.8791,19.519],[80.8897,19.4993],[80.8921,19.4657],[80.8675,19.4435],[80.8351,19.4424],[80.7879,19.4267],[80.8127,19.3827],[80.8428,19.3661],[80.8264,19.348],[80.8448,19.3375],[80.8849,19.3322],[80.8907,19.3165],[80.9472,19.3126],[80.9595,19.3003],[80.9556,19.2755],[80.9677,19.2468],[80.9624,19.2208],[80.9927,19.2274],[81.0663,19.2274],[81.0631,19.2647],[81.1037,19.2693],[81.1206,19.2522],[81.1376,19.2547],[81.1354,19.2924],[81.1726,19.2603],[81.1879,19.2247],[81.2176,19.2115],[81.2591,19.2297],[81.3029,19.192],[81.2913,19.1721],[81.3107,19.1468],[81.3343,19.1354],[81.364,19.1669],[81.4075,19.1689],[81.4534,19.1331],[81.4871,19.1309],[81.4855,19.0787],[81.4978,19.0656],[81.4958,19.0389],[81.5218,19.0325],[81.5154,19.0104],[81.4627,18.9989],[81.4758,18.9614],[81.471,18.9368],[81.5474,18.9053],[81.5408,18.8815],[81.5666,18.8595],[81.5763,18.8375],[81.5972,18.8453],[81.6116,18.8337],[81.6118,18.8131],[81.6541,18.7921],[81.6751,18.8155],[81.7203,18.8171],[81.7485,18.8049],[81.7671,18.7646],[81.7647,18.737],[81.7419,18.7321],[81.7315,18.6767],[81.7185,18.6666],[81.6515,18.6457],[81.6421,18.6085],[81.6496,18.6019],[81.697,18.6041],[81.7412,18.5951],[81.7804,18.6],[81.8338,18.6298],[81.8854,18.6503],[81.8948,18.652],[81.9049,18.6464],[81.9155,18.6358],[81.9474,18.6288],[81.9483,18.6328],[81.9459,18.6464],[81.9677,18.6906],[81.9919,18.6977],[82.0156,18.7135],[82.0395,18.717],[82.0494,18.7176],[82.058,18.7125],[82.0786,18.7121],[82.0849,18.7327],[82.0913,18.7562],[82.1455,18.7733],[82.1649,18.8302],[82.158,18.852],[82.1708,18.8916],[82.2138,18.9121],[82.2396,18.9105],[82.2225,19.0211],[82.1941,19.0602],[82.2086,19.0785],[82.191,19.1163],[82.1681,19.1338],[82.1788,19.1589],[82.1612,19.2084],[82.1516,19.2236],[82.151,19.2584],[82.1685,19.2907],[82.1701,19.3025],[82.1737,19.3163],[82.1803,19.3322],[82.1775,19.3324],[82.169,19.3372],[82.1423,19.3482],[82.1508,19.3703],[82.174,19.3769],[82.1778,19.4056],[82.1831,19.4176],[82.1705,19.4295],[82.1193,19.4239],[82.0969,19.4611],[82.1018,19.4737],[82.0921,19.5098],[82.0708,19.5159],[82.0598,19.5036],[82.0302,19.5142],[82.041,19.5257],[82.0426,19.558],[82.0378,19.5772],[82.034,19.5907],[82.0373,19.5979],[82.0447,19.6108],[82.0485,19.6158],[82.0508,19.6316],[82.0468,19.6694],[82.0385,19.6928],[82.0416,19.7083],[82.0437,19.7139],[82.0443,19.7291],[82.044,19.7377],[82.0554,19.761],[82.0598,19.7831],[82.0522,19.7913],[82.0029,19.7985],[81.9993,19.7983],[81.9801,19.7958],[81.9702,19.8127],[81.9574,19.836],[81.9604,19.8547],[81.9394,19.8648],[81.8981,19.8785],[81.8584,19.8995],[81.8458,19.9149],[81.8488,19.9386],[81.839,19.9455],[81.8403,19.9551],[81.8516,19.9961],[81.8576,20.0091],[81.8655,20.0339],[81.8661,20.0352],[81.8678,20.0509],[81.8665,20.0536],[81.8648,20.0839],[81.8457,20.101],[81.8404,20.1414],[81.8386,20.1608],[81.8094,20.1653]]]},"properties":{"NAME_1":"Chhattisgarh","NAME_2":"Bastar"}},{"type":"Feature","geometry":{"type":"MultiPolygon","coordinates":[[[[83.0151,22.2354],[82.9992,22.2547],[82.9821,22.2328],[83.0151,22.2354]]],[[[82.2081,22.9428],[82.174,22.9683],[82.1716,22.9898],[82.1789,23.0156],[82.1705,23.0409],[82.1159,23.1038],[82.0859,23.1093],[82.0691,23.1149],[82.0614,23.1159],[82.0457,23.0991],[82.0283,23.0817],[82.0162,23.0793],[82.0022,23.0784],[81.9905,23.0847],[81.9821,23.0862],[81.9693,23.0794],[81.9526,23.0765],[81.9381,23.0778],[81.9261,23.0622],[81.9194,23.0367],[81.9323,23.0174],[81.937,23.0033],[81.9385,23.0008],[81.9412,22.9849],[81.9424,22.9753],[81.9402,22.9571],[81.9234,22.9512],[81.9057,22.9405],[81.9015,22.9331],[81.8865,22.9252],[81.8746,22.9133],[81.86,22.915],[81.8611,22.8939],[81.8264,22.8823],[81.7859,22.8771],[81.7694,22.8735],[81.7609,22.8343],[81.7759,22.8001],[81.7843,22.7666],[81.7466,22.7265],[81.766,22.6761],[81.7489,22.6461],[81.7369,22.6691],[81.7229,22.6762],[81.7196,22.67],[81.7141,22.6556],[81.6989,22.6459],[81.6786,22.6489],[81.6548,22.6216],[81.6435,22.6144],[81.6416,22.5921],[81.6444,22.5834],[81.6487,22.569],[81.6379,22.5621],[81.6236,22.5643],[81.6194,22.5533],[81.6219,22.5438],[81.6158,22.539],[81.5998,22.5357],[81.5832,22.5445],[81.5631,22.551],[81.5472,22.5313],[81.536,22.5332],[81.5191,22.54],[81.5154,22.5368],[81.4901,22.5084],[81.4799,22.4933],[81.4791,22.4591],[81.4902,22.4442],[81.485,22.4108],[81.5099,22.3938],[81.5407,22.3489],[81.5392,22.3238],[81.5151,22.3138],[81.5439,22.2699],[81.5451,22.2398],[81.5276,22.217],[81.5331,22.1935],[81.5207,22.1748],[81.5208,22.1562],[81.508,22.1392],[81.5039,22.1112],[81.517,22.0824],[81.4936,22.0291],[81.497,22.0128],[81.5194,22.0035],[81.5458,22.006],[81.578,21.9841],[81.5979,22.0186],[81.6178,21.9843],[81.6452,21.9893],[81.6573,21.9654],[81.7021,21.9564],[81.7228,21.9424],[81.7527,21.9512],[81.7786,21.9507],[81.7998,21.941],[81.7998,21.9266],[81.8209,21.9153],[81.8138,21.8854],[81.8364,21.8775],[81.8571,21.8952],[81.8912,21.8733],[81.8931,21.8427],[81.9233,21.828],[81.9354,21.8139],[81.9506,21.8447],[81.9709,21.8521],[82.004,21.8533],[82.0211,21.8609],[82.0311,21.8826],[82.0947,21.855],[82.1184,21.8322],[82.1559,21.8447],[82.1822,21.8346],[82.1786,21.8069],[82.1857,21.7717],[82.2105,21.7551],[82.2838,21.7492],[82.2983,21.7238],[82.3251,21.7106],[82.3832,21.7092],[82.4044,21.7144],[82.4335,21.7375],[82.4073,21.7568],[82.3775,21.7573],[82.3481,21.8504],[82.3112,21.8787],[82.3016,21.9026],[82.3064,21.9309],[82.3255,21.9595],[82.3183,22.0022],[82.3279,22.0097],[82.3257,22.0452],[82.3329,22.076],[82.3295,22.1016],[82.3425,22.1236],[82.3662,22.1347],[82.3901,22.1275],[82.4203,22.1365],[82.453,22.1946],[82.4549,22.2122],[82.4325,22.2245],[82.4179,22.2463],[82.3899,22.2613],[82.4127,22.2817],[82.3927,22.303],[82.3726,22.3005],[82.3488,22.3237],[82.3176,22.3194],[82.3009,22.2949],[82.2789,22.2864],[82.2574,22.3005],[82.2608,22.3339],[82.2103,22.3367],[82.2012,22.3151],[82.1739,22.3251],[82.136,22.3293],[82.148,22.3489],[82.149,22.3742],[82.1755,22.4066],[82.1636,22.4392],[82.1387,22.4511],[82.1385,22.4801],[82.1537,22.4999],[82.1594,22.5298],[82.1491,22.5415],[82.1709,22.5561],[82.202,22.5951],[82.228,22.592],[82.2365,22.6555],[82.1707,22.6653],[82.1591,22.7278],[82.1468,22.7392],[82.1544,22.7928],[82.1505,22.8381],[82.1321,22.8521],[82.1542,22.8831],[82.1888,22.9079],[82.2081,22.9428]]]]},"properties":{"NAME_1":"Chhattisgarh","NAME_2":"Bilaspur"}},{"type":"Feature","geometry":{"type":"Polygon","coordinates":[[[80.8264,19.348],[80.7662,19.3081],[80.7492,19.2867],[80.7004,19.2823],[80.6836,19.2869],[80.6853,19.3126],[80.6644,19.3266],[80.6177,19.3048],[80.6039,19.3118],[80.5856,19.353],[80.5839,19.3772],[80.5729,19.3984],[80.5593,19.3976],[80.5315,19.3743],[80.5138,19.3482],[80.4705,19.3289],[80.4454,19.2699],[80.4192,19.2503],[80.3885,19.2433],[80.377,19.2174],[80.3861,19.1956],[80.3811,19.1807],[80.3455,19.1629],[80.3249,19.1415],[80.3209,19.1245],[80.3315,19.1011],[80.3158,19.0646],[80.2888,19.0463],[80.2953,19.0287],[80.2677,18.9873],[80.2641,18.9405],[80.3357,18.8561],[80.3485,18.8239],[80.3462,18.8111],[80.3187,18.796],[80.2994,18.7935],[80.2718,18.7622],[80.2546,18.766],[80.2408,18.7487],[80.2675,18.718],[80.2963,18.6856],[80.3193,18.6217],[80.3367,18.5905],[80.367,18.6047],[80.3816,18.5936],[80.4021,18.6072],[80.4502,18.6264],[80.4884,18.6267],[80.5107,18.6157],[80.532,18.5861],[80.601,18.545],[80.6138,18.5261],[80.6327,18.5188],[80.6368,18.4939],[80.6508,18.4723],[80.6805,18.4536],[80.6953,18.4346],[80.691,18.4193],[80.713,18.4057],[80.7228,18.3613],[80.7444,18.3169],[80.7446,18.3022],[80.7664,18.2782],[80.7843,18.2433],[80.7333,18.2188],[80.7346,18.1717],[80.7624,18.163],[80.7979,18.1663],[80.8187,18.192],[80.8172,18.2252],[80.8242,18.2336],[80.8591,18.226],[80.8675,18.2073],[80.8492,18.2002],[80.8558,18.1429],[80.862,18.1327],[80.9007,18.1347],[80.9737,18.1681],[80.9726,18.1436],[80.9494,18.1232],[80.9484,18.0913],[80.966,18.0435],[80.9623,18.0315],[80.9726,17.9932],[80.9846,17.9229],[80.9943,17.9142],[81.0043,17.8383],[81.0324,17.7897],[81.0736,17.7863],[81.0977,17.8171],[81.1596,17.8526],[81.192,17.8471],[81.254,17.8121],[81.3151,17.8123],[81.385,17.8066],[81.383,17.8206],[81.3844,17.8258],[81.3974,17.8436],[81.3981,17.8468],[81.3895,17.8621],[81.3959,17.8876],[81.399,17.8885],[81.4117,17.8854],[81.4302,17.8747],[81.436,17.8754],[81.4373,17.8759],[81.4427,17.8852],[81.4437,17.8932],[81.4462,17.9103],[81.4459,17.9172],[81.4451,17.9255],[81.4548,17.9466],[81.4757,17.9671],[81.4773,17.97],[81.4731,17.9833],[81.4777,17.9935],[81.4739,18.0285],[81.4949,18.0627],[81.4968,18.0727],[81.5087,18.0924],[81.5158,18.1399],[81.5226,18.1573],[81.5048,18.1838],[81.5088,18.1925],[81.5229,18.2274],[81.528,18.2591],[81.5481,18.2621],[81.574,18.2812],[81.5862,18.2922],[81.592,18.2975],[81.5969,18.3021],[81.6159,18.3008],[81.6276,18.3049],[81.6587,18.3111],[81.6604,18.3158],[81.6494,18.3306],[81.6492,18.331],[81.6581,18.3393],[81.6992,18.3436],[81.7371,18.3442],[81.7461,18.3517],[81.7604,18.3998],[81.7621,18.4113],[81.7976,18.4398],[81.8496,18.489],[81.853,18.5073],[81.863,18.5173],[81.8708,18.5176],[81.8754,18.5214],[81.8826,18.5292],[81.8968,18.5284],[81.8987,18.5362],[81.8998,18.549],[81.9086,18.5642],[81.9132,18.5612],[81.9202,18.5573],[81.9255,18.5577],[81.9362,18.5577],[81.9469,18.5592],[81.9545,18.5867],[81.9385,18.5918],[81.9297,18.5964],[81.913,18.6129],[81.8884,18.621],[81.8878,18.6316],[81.8893,18.6411],[81.8854,18.6503],[81.8338,18.6298],[81.7804,18.6],[81.7412,18.5951],[81.697,18.6041],[81.6496,18.6019],[81.6421,18.6085],[81.6515,18.6457],[81.7185,18.6666],[81.7315,18.6767],[81.7419,18.7321],[81.7647,18.737],[81.7671,18.7646],[81.7485,18.8049],[81.7203,18.8171],[81.6751,18.8155],[81.6541,18.7921],[81.6118,18.8131],[81.6116,18.8337],[81.5972,18.8453],[81.5763,18.8375],[81.5666,18.8595],[81.5408,18.8815],[81.5474,18.9053],[81.471,18.9368],[81.4758,18.9614],[81.4627,18.9989],[81.5154,19.0104],[81.5218,19.0325],[81.4958,19.0389],[81.4978,19.0656],[81.4855,19.0787],[81.4871,19.1309],[81.4534,19.1331],[81.4075,19.1689],[81.364,19.1669],[81.3343,19.1354],[81.3107,19.1468],[81.2913,19.1721],[81.3029,19.192],[81.2591,19.2297],[81.2176,19.2115],[81.1879,19.2247],[81.1726,19.2603],[81.1354,19.2924],[81.1376,19.2547],[81.1206,19.2522],[81.1037,19.2693],[81.0631,19.2647],[81.0663,19.2274],[80.9927,19.2274],[80.9624,19.2208],[80.9677,19.2468],[80.9556,19.2755],[80.9595,19.3003],[80.9472,19.3126],[80.8907,19.3165],[80.8849,19.3322],[80.8448,19.3375],[80.8264,19.348]]]},"properties":{"NAME_1":"Chhattisgarh","NAME_2":"Dantewada"}},{"type":"Feature","geometry":{"type":"Polygon","coordinates":[[[81.6066,21.0237],[81.6131,20.9986],[81.6169,20.9872],[81.6065,20.9779],[81.6063,20.96],[81.6035,20.9571],[81.5681,20.9346],[81.5341,20.925],[81.5137,20.8924],[81.4928,20.8898],[81.4689,20.8685],[81.4728,20.8532],[81.4925,20.8448],[81.4956,20.8272],[81.5034,20.827],[81.5082,20.8273],[81.5108,20.813],[81.5007,20.795],[81.476,20.7707],[81.4784,20.7317],[81.4779,20.7215],[81.4845,20.7128],[81.4903,20.7104],[81.4982,20.7141],[81.5102,20.7097],[81.5066,20.687],[81.5084,20.671],[81.5037,20.6617],[81.4893,20.6559],[81.4903,20.6265],[81.4862,20.6232],[81.4861,20.617],[81.4933,20.6083],[81.5027,20.6166],[81.507,20.6101],[81.4859,20.5992],[81.4831,20.5999],[81.4869,20.5897],[81.4915,20.5911],[81.5067,20.5926],[81.5015,20.5851],[81.484,20.5805],[81.4811,20.5807],[81.4673,20.5867],[81.4643,20.5865],[81.4393,20.587],[81.4306,20.5626],[81.4263,20.5605],[81.4175,20.5493],[81.4047,20.5495],[81.4058,20.5246],[81.418,20.5157],[81.4517,20.5119],[81.4922,20.5168],[81.5006,20.5028],[81.5039,20.4968],[81.5296,20.4954],[81.5381,20.5116],[81.579,20.5154],[81.5969,20.5139],[81.6055,20.5105],[81.6354,20.5016],[81.6432,20.4926],[81.6527,20.4947],[81.6684,20.487],[81.6882,20.4792],[81.6963,20.4786],[81.7298,20.479],[81.7291,20.4677],[81.7356,20.4619],[81.7291,20.4354],[81.7319,20.4172],[81.7607,20.3716],[81.7579,20.3561],[81.7623,20.35],[81.7747,20.3529],[81.7777,20.3525],[81.789,20.3185],[81.7766,20.3173],[81.7578,20.304],[81.7581,20.281],[81.7859,20.2804],[81.7959,20.2546],[81.793,20.2534],[81.7772,20.2433],[81.7701,20.2289],[81.7809,20.2068],[81.7947,20.2097],[81.8068,20.1741],[81.8094,20.1653],[81.8386,20.1608],[81.8404,20.1414],[81.8457,20.101],[81.8648,20.0839],[81.8665,20.0536],[81.8678,20.0509],[81.8738,20.0462],[81.8895,20.0433],[81.9339,20.0993],[81.9442,20.1016],[81.9736,20.0756],[81.9927,20.0478],[82.01,20.0448],[82.0165,20.0501],[82.0165,20.0593],[82.0277,20.0939],[82.0591,20.1016],[82.0721,20.0981],[82.0953,20.1],[82.1033,20.1115],[82.1067,20.1287],[82.1107,20.1316],[82.1138,20.1341],[82.1286,20.1425],[82.1258,20.1515],[82.1275,20.1811],[82.1405,20.2149],[82.1477,20.2183],[82.1527,20.224],[82.155,20.2326],[82.1664,20.2506],[82.1672,20.2551],[82.1496,20.2637],[82.1351,20.2825],[82.1078,20.2832],[82.0885,20.3157],[82.079,20.3312],[82.0729,20.3633],[82.076,20.3996],[82.068,20.4255],[82.0576,20.4327],[82.0564,20.4433],[82.0468,20.4597],[82.0491,20.4692],[82.044,20.4839],[82.0428,20.4938],[82.0341,20.5015],[82.0304,20.5084],[82.0156,20.5226],[82.0131,20.5424],[82.0114,20.5539],[82.0047,20.5877],[81.9931,20.6219],[81.9896,20.6243],[81.9888,20.6315],[81.9967,20.6463],[82.007,20.6664],[82.0056,20.6719],[81.9773,20.6985],[81.978,20.7155],[81.9733,20.7232],[81.9269,20.7379],[81.9194,20.7634],[81.9097,20.7789],[81.9173,20.804],[81.9166,20.816],[81.9005,20.8304],[81.8849,20.8687],[81.8858,20.8824],[81.8818,20.9034],[81.8709,20.9269],[81.8574,20.9551],[81.8424,20.9375],[81.8109,20.9433],[81.8093,20.9468],[81.8078,20.9573],[81.7912,20.962],[81.7684,20.9787],[81.7591,20.9825],[81.754,20.995],[81.7445,21.0079],[81.7131,21.0068],[81.7039,21.0149],[81.6822,20.9988],[81.6748,20.9957],[81.6549,20.9968],[81.6491,20.9986],[81.6265,21.0092],[81.6182,21.0147],[81.6066,21.0237]]]},"properties":{"NAME_1":"Chhattisgarh","NAME_2":"Dhamtari"}},{"type":"Feature","geometry":{"type":"Polygon","coordinates":[[[81.9354,21.8139],[81.9233,21.828],[81.8931,21.8427],[81.8912,21.8733],[81.8571,21.8952],[81.8364,21.8775],[81.8138,21.8854],[81.8209,21.9153],[81.7998,21.9266],[81.7998,21.941],[81.7786,21.9507],[81.7527,21.9512],[81.7228,21.9424],[81.7021,21.9564],[81.6573,21.9654],[81.6452,21.9893],[81.6178,21.9843],[81.5979,22.0186],[81.578,21.9841],[81.5458,22.006],[81.5194,22.0035],[81.497,22.0128],[81.4642,22.0153],[81.4761,21.9928],[81.4657,21.9745],[81.47,21.959],[81.4529,21.9414],[81.4518,21.9155],[81.4028,21.8923],[81.3869,21.8803],[81.397,21.8337],[81.3304,21.8381],[81.3186,21.8256],[81.323,21.7853],[81.3312,21.7643],[81.3075,21.7578],[81.2904,21.7673],[81.2461,21.7466],[81.2192,21.7532],[81.2189,21.7235],[81.2014,21.7094],[81.1693,21.7026],[81.1734,21.6425],[81.1704,21.5963],[81.1477,21.5792],[81.1351,21.5562],[81.1567,21.5261],[81.1887,21.5135],[81.1816,21.4946],[81.1534,21.4998],[81.1542,21.4844],[81.1755,21.4796],[81.166,21.4364],[81.1763,21.3943],[81.1858,21.3895],[81.1805,21.3183],[81.1564,21.2863],[81.1566,21.2355],[81.1445,21.212],[81.1895,21.2202],[81.1907,21.1975],[81.2091,21.1701],[81.1993,21.1012],[81.1824,21.0951],[81.1538,21.0998],[81.1396,21.0566],[81.1129,21.0057],[81.0865,20.9943],[81.0193,20.9913],[80.9801,21.0047],[80.9511,20.9888],[80.9381,20.9451],[80.9566,20.9491],[80.9585,20.9113],[80.9882,20.8784],[80.9453,20.8425],[80.9688,20.8273],[80.9372,20.8025],[80.9305,20.7789],[80.8948,20.7861],[80.8767,20.8023],[80.8632,20.7856],[80.8193,20.7624],[80.7984,20.7185],[80.8068,20.6939],[80.8752,20.6553],[80.902,20.6634],[80.9381,20.6551],[80.9309,20.6298],[80.9817,20.608],[80.9865,20.5743],[80.9714,20.5539],[80.9464,20.5444],[80.9372,20.506],[80.9611,20.4939],[80.9649,20.4698],[80.939,20.459],[80.9389,20.4384],[80.952,20.4328],[80.9933,20.4563],[81.0174,20.4444],[81.0432,20.4186],[81.0656,20.4175],[81.1463,20.375],[81.1698,20.4015],[81.2156,20.4142],[81.2411,20.4371],[81.2587,20.4776],[81.2514,20.4976],[81.2848,20.5105],[81.3087,20.5479],[81.3462,20.5469],[81.3571,20.5343],[81.3816,20.5315],[81.4047,20.5495],[81.4175,20.5493],[81.4263,20.5605],[81.4306,20.5626],[81.4393,20.587],[81.4643,20.5865],[81.4673,20.5867],[81.4811,20.5807],[81.484,20.5805],[81.5015,20.5851],[81.5067,20.5926],[81.4915,20.5911],[81.4869,20.5897],[81.4831,20.5999],[81.4859,20.5992],[81.507,20.6101],[81.5027,20.6166],[81.4933,20.6083],[81.4861,20.617],[81.4862,20.6232],[81.4903,20.6265],[81.4893,20.6559],[81.5037,20.6617],[81.5084,20.671],[81.5066,20.687],[81.5102,20.7097],[81.4982,20.7141],[81.4903,20.7104],[81.4845,20.7128],[81.4779,20.7215],[81.4784,20.7317],[81.476,20.7707],[81.5007,20.795],[81.5108,20.813],[81.5082,20.8273],[81.5034,20.827],[81.4956,20.8272],[81.4925,20.8448],[81.4728,20.8532],[81.4689,20.8685],[81.4928,20.8898],[81.5137,20.8924],[81.5341,20.925],[81.5681,20.9346],[81.6035,20.9571],[81.6063,20.96],[81.6065,20.9779],[81.6169,20.9872],[81.6131,20.9986],[81.6066,21.0237],[81.5939,21.0382],[81.5998,21.0636],[81.5766,21.07],[81.571,21.0928],[81.5769,21.1221],[81.5995,21.1577],[81.6175,21.16],[81.5958,21.2044],[81.5709,21.2205],[81.5562,21.2402],[81.5394,21.2429],[81.5373,21.2779],[81.5285,21.2964],[81.5437,21.3085],[81.546,21.3314],[81.5785,21.3343],[81.5889,21.3587],[81.6322,21.4027],[81.6251,21.4148],[81.6248,21.5049],[81.6384,21.5184],[81.6371,21.5405],[81.6617,21.5444],[81.6616,21.5641],[81.6763,21.5744],[81.6922,21.6161],[81.6568,21.6448],[81.6774,21.6749],[81.7031,21.6816],[81.7184,21.7095],[81.6923,21.7493],[81.7011,21.7623],[81.7295,21.7645],[81.7412,21.7482],[81.7658,21.7678],[81.8002,21.7694],[81.8135,21.7593],[81.8418,21.7566],[81.8856,21.7737],[81.9354,21.8139]]]},"properties":{"NAME_1":"Chhattisgarh","NAME_2":"Durg"}},{"type":"Feature","geometry":{"type":"Polygon","coordinates":[[[82.9336,22.1204],[82.8948,22.1397],[82.8849,22.161],[82.8643,22.17],[82.8451,22.156],[82.816,22.1542],[82.7932,22.1314],[82.7548,22.1178],[82.7471,22.095],[82.7234,22.0848],[82.7332,22.0371],[82.7052,22.0482],[82.6957,22.0839],[82.6658,22.0797],[82.6421,22.0978],[82.6293,22.1223],[82.6527,22.1871],[82.6376,22.2138],[82.6369,22.2365],[82.6073,22.2553],[82.5867,22.2575],[82.5712,22.2211],[82.5347,22.2071],[82.5132,22.2513],[82.4893,22.2456],[82.4549,22.2122],[82.453,22.1946],[82.4203,22.1365],[82.3901,22.1275],[82.3662,22.1347],[82.3425,22.1236],[82.3295,22.1016],[82.3329,22.076],[82.3257,22.0452],[82.3279,22.0097],[82.3183,22.0022],[82.3255,21.9595],[82.3064,21.9309],[82.3016,21.9026],[82.3112,21.8787],[82.3481,21.8504],[82.3775,21.7573],[82.4073,21.7568],[82.4335,21.7375],[82.4469,21.7392],[82.474,21.7243],[82.5343,21.7356],[82.5928,21.7108],[82.6219,21.7274],[82.6506,21.7082],[82.6965,21.7249],[82.7388,21.7171],[82.7881,21.7205],[82.8593,21.6863],[82.8994,21.6956],[82.944,21.7195],[82.9655,21.7181],[83.0208,21.7349],[83.0818,21.7115],[83.1151,21.7168],[83.179,21.7098],[83.2472,21.6934],[83.2987,21.6763],[83.3055,21.6986],[83.2627,21.7097],[83.2625,21.7326],[83.2434,21.7485],[83.2329,21.7874],[83.2187,21.7905],[83.2031,21.8146],[83.2174,21.8309],[83.1769,21.8428],[83.2122,21.8809],[83.2106,21.9005],[83.1949,21.9153],[83.1479,21.9123],[83.1099,21.9293],[83.0863,21.9706],[83.0543,21.9643],[83.0006,21.9615],[82.995,21.9694],[83.0171,22.0058],[83.0007,22.0262],[83.013,22.0517],[83.0077,22.072],[82.9611,22.097],[82.9336,22.1204]]]},"properties":{"NAME_1":"Chhattisgarh","NAME_2":"Janjgir-Champa"}},{"type":"Feature","geometry":{"type":"Polygon","coordinates":[[[84.0338,23.1678],[84.0136,23.1866],[83.9628,23.1796],[83.9417,23.162],[83.8882,23.1818],[83.8748,23.2022],[83.8246,23.2326],[83.7839,23.2445],[83.77,23.2205],[83.7431,23.2369],[83.7184,23.2231],[83.7156,23.2066],[83.6642,23.2258],[83.6187,23.2159],[83.5967,23.1805],[83.5698,23.1883],[83.5472,23.1658],[83.5531,23.1322],[83.53,23.1169],[83.5037,23.0878],[83.5005,23.0583],[83.5185,23.0569],[83.5439,23.0295],[83.5258,22.9985],[83.5085,22.983],[83.5024,22.9551],[83.5319,22.9153],[83.5657,22.8879],[83.5722,22.8717],[83.6413,22.8214],[83.6483,22.7839],[83.6456,22.7379],[83.6272,22.7275],[83.6316,22.7013],[83.6765,22.6803],[83.6813,22.6457],[83.6681,22.6268],[83.6445,22.6535],[83.5967,22.6744],[83.5536,22.6985],[83.5281,22.6797],[83.5059,22.6741],[83.5002,22.6578],[83.4744,22.6678],[83.432,22.6734],[83.4098,22.6582],[83.407,22.6388],[83.389,22.6243],[83.4031,22.6095],[83.4068,22.5801],[83.3995,22.5523],[83.4284,22.539],[83.4632,22.5048],[83.4895,22.4913],[83.4995,22.5063],[83.5366,22.5147],[83.5678,22.5426],[83.5889,22.5312],[83.5815,22.4938],[83.5717,22.4751],[83.5782,22.4538],[83.6106,22.4366],[83.6322,22.4167],[83.6437,22.393],[83.687,22.3762],[83.7339,22.3764],[83.761,22.3224],[83.79,22.309],[83.7975,22.2895],[83.8208,22.296],[83.8225,22.3156],[83.861,22.3438],[83.897,22.3397],[83.9155,22.3597],[83.967,22.3578],[84.0012,22.3697],[84.0144,22.4041],[84.04,22.4329],[84.0416,22.4641],[84.013,22.4852],[83.9761,22.5022],[83.9766,22.5184],[84.0025,22.5209],[84.0049,22.5301],[84.0042,22.5549],[84.011,22.575],[84.02,22.5828],[84.0213,22.5872],[84.0419,22.5922],[84.0481,22.5941],[84.0593,22.6074],[84.0804,22.6366],[84.0976,22.633],[84.1072,22.6367],[84.1499,22.6344],[84.1574,22.6409],[84.1916,22.6603],[84.2016,22.6652],[84.2097,22.663],[84.2206,22.6689],[84.2277,22.698],[84.2294,22.7052],[84.2254,22.7352],[84.2417,22.7484],[84.2516,22.7581],[84.2542,22.763],[84.2601,22.7649],[84.2853,22.7634],[84.2877,22.7709],[84.3035,22.7985],[84.3177,22.8172],[84.3203,22.8494],[84.3479,22.8632],[84.3699,22.8645],[84.37,22.8689],[84.3759,22.8814],[84.3782,22.8879],[84.3767,22.8977],[84.3709,22.9016],[84.3863,22.9168],[84.3891,22.9387],[84.3778,22.9519],[84.3705,22.9751],[84.3482,22.9759],[84.3318,22.9791],[84.3252,22.9793],[84.3145,22.9722],[84.2893,22.9616],[84.2719,22.9709],[84.2714,22.9888],[84.2621,22.98],[84.2546,22.9737],[84.2374,22.9804],[84.2171,22.9765],[84.2149,22.9774],[84.1968,23.0041],[84.1982,23.019],[84.1767,23.0205],[84.1726,23.0072],[84.1731,22.9988],[84.1714,22.9771],[84.148,22.9639],[84.1451,22.9826],[84.1384,22.9985],[84.1373,23.0063],[84.1266,23.026],[84.1234,23.045],[84.1294,23.0815],[84.1124,23.0872],[84.0879,23.1095],[84.0667,23.1071],[84.0589,23.1126],[84.0453,23.1305],[84.0334,23.1427],[84.0303,23.1494],[84.0338,23.1678]]]},"properties":{"NAME_1":"Chhattisgarh","NAME_2":"Jashpur"}},{"type":"Feature","geometry":{"type":"Polygon","coordinates":[[[81.4047,20.5495],[81.3816,20.5315],[81.3571,20.5343],[81.3462,20.5469],[81.3087,20.5479],[81.2848,20.5105],[81.2514,20.4976],[81.2587,20.4776],[81.2411,20.4371],[81.2156,20.4142],[81.1698,20.4015],[81.1463,20.375],[81.0656,20.4175],[81.0432,20.4186],[81.0174,20.4444],[80.9933,20.4563],[80.952,20.4328],[80.9389,20.4384],[80.9172,20.4254],[80.8794,20.3828],[80.8593,20.3828],[80.8423,20.3473],[80.8174,20.3543],[80.8244,20.306],[80.7883,20.2798],[80.7713,20.289],[80.7433,20.2817],[80.7234,20.2645],[80.7316,20.2368],[80.722,20.1999],[80.7079,20.1853],[80.684,20.1886],[80.6605,20.2194],[80.6411,20.2154],[80.6372,20.2001],[80.6177,20.185],[80.5781,20.1728],[80.5648,20.1562],[80.5532,20.1189],[80.5404,20.1098],[80.535,20.0854],[80.5462,20.0657],[80.5325,20.0039],[80.5442,19.9815],[80.5324,19.9671],[80.5204,19.9309],[80.5017,19.9248],[80.4698,19.9337],[80.4437,19.9527],[80.4063,19.9325],[80.4027,19.9096],[80.4444,19.8936],[80.4612,19.9034],[80.4898,19.8937],[80.4975,19.8687],[80.475,19.8571],[80.4603,19.828],[80.4317,19.8103],[80.3975,19.8162],[80.4001,19.7936],[80.4524,19.7929],[80.476,19.828],[80.5178,19.8289],[80.5442,19.8112],[80.5397,19.7746],[80.5705,19.7547],[80.5821,19.7381],[80.6335,19.7185],[80.6646,19.6908],[80.7158,19.7021],[80.7051,19.7331],[80.7082,19.7712],[80.7211,19.7855],[80.7597,19.8008],[80.7784,19.7816],[80.7883,19.8018],[80.8149,19.8111],[80.809,19.8257],[80.7717,19.8341],[80.7281,19.8105],[80.7145,19.8275],[80.753,19.864],[80.7901,19.8792],[80.8055,19.8959],[80.8273,19.9017],[80.856,19.9385],[80.8827,19.9277],[80.9172,19.9227],[80.9306,19.943],[80.9951,19.9459],[81.0361,19.9385],[81.0398,19.9012],[81.0025,19.8304],[81.0025,19.7856],[81.0286,19.7558],[81.0808,19.7223],[81.1442,19.7036],[81.1889,19.6999],[81.1964,19.7409],[81.2038,19.7521],[81.2523,19.7596],[81.2858,19.7409],[81.3656,19.7409],[81.3734,19.748],[81.3648,19.7986],[81.387,19.8287],[81.3704,19.8481],[81.3951,19.8648],[81.3935,19.8792],[81.3233,19.9315],[81.32,19.9629],[81.2971,19.9717],[81.2859,20.0133],[81.3528,20.0413],[81.3821,20.0424],[81.3987,20.074],[81.3944,20.1102],[81.4139,20.1518],[81.4456,20.1416],[81.4688,20.1544],[81.5182,20.1646],[81.5513,20.1861],[81.5818,20.1901],[81.6095,20.1549],[81.6377,20.1384],[81.6789,20.1257],[81.7209,20.1385],[81.7252,20.152],[81.7468,20.159],[81.7635,20.1529],[81.8011,20.1567],[81.8094,20.1653],[81.8068,20.1741],[81.7947,20.2097],[81.7809,20.2068],[81.7701,20.2289],[81.7772,20.2433],[81.793,20.2534],[81.7959,20.2546],[81.7859,20.2804],[81.7581,20.281],[81.7578,20.304],[81.7766,20.3173],[81.789,20.3185],[81.7777,20.3525],[81.7747,20.3529],[81.7623,20.35],[81.7579,20.3561],[81.7607,20.3716],[81.7319,20.4172],[81.7291,20.4354],[81.7356,20.4619],[81.7291,20.4677],[81.7298,20.479],[81.6963,20.4786],[81.6882,20.4792],[81.6684,20.487],[81.6527,20.4947],[81.6432,20.4926],[81.6354,20.5016],[81.6055,20.5105],[81.5969,20.5139],[81.579,20.5154],[81.5381,20.5116],[81.5296,20.4954],[81.5039,20.4968],[81.5006,20.5028],[81.4922,20.5168],[81.4517,20.5119],[81.418,20.5157],[81.4058,20.5246],[81.4047,20.5495]]]},"properties":{"NAME_1":"Chhattisgarh","NAME_2":"Kanker"}},{"type":"Feature","geometry":{"type":"Polygon","coordinates":[[[81.3665,22.5144],[81.3319,22.5224],[81.3194,22.5196],[81.3159,22.4897],[81.304,22.4818],[81.2802,22.4988],[81.2715,22.4958],[81.2404,22.4592],[81.2184,22.4517],[81.1942,22.4621],[81.1926,22.4825],[81.18,22.4902],[81.1578,22.4745],[81.1481,22.4559],[81.1228,22.4476],[81.11,22.4411],[81.1035,22.4221],[81.1047,22.4108],[81.1009,22.3832],[81.1105,22.353],[81.112,22.3346],[81.1147,22.3126],[81.115,22.3032],[81.0968,22.2775],[81.0847,22.2467],[81.0726,22.2417],[81.0628,22.2469],[81.0404,22.2406],[81.0194,22.2292],[81.0258,22.1977],[81.0117,22.184],[81.0191,22.1653],[81.0158,22.1327],[80.9867,22.1309],[80.9903,22.1091],[81.004,22.0945],[80.9992,22.0615],[80.9789,22.0483],[80.9634,22.0584],[80.9655,22.082],[80.9505,22.113],[80.9172,22.1209],[80.8982,22.1013],[80.8912,22.066],[80.879,22.0606],[80.8686,22.0112],[80.8334,21.9466],[80.8359,21.9279],[80.8245,21.9084],[80.8254,21.8867],[80.8396,21.8754],[80.8371,21.8318],[80.8705,21.8229],[80.9191,21.8252],[80.9358,21.8041],[80.9466,21.7647],[80.9931,21.7248],[81.0158,21.7385],[81.0373,21.7366],[81.0501,21.7234],[81.0948,21.7309],[81.1204,21.7073],[81.1535,21.7136],[81.1693,21.7026],[81.2014,21.7094],[81.2189,21.7235],[81.2192,21.7532],[81.2461,21.7466],[81.2904,21.7673],[81.3075,21.7578],[81.3312,21.7643],[81.323,21.7853],[81.3186,21.8256],[81.3304,21.8381],[81.397,21.8337],[81.3869,21.8803],[81.4028,21.8923],[81.4518,21.9155],[81.4529,21.9414],[81.47,21.959],[81.4657,21.9745],[81.4761,21.9928],[81.4642,22.0153],[81.497,22.0128],[81.4936,22.0291],[81.517,22.0824],[81.5039,22.1112],[81.508,22.1392],[81.5208,22.1562],[81.5207,22.1748],[81.5331,22.1935],[81.5276,22.217],[81.5451,22.2398],[81.5439,22.2699],[81.5151,22.3138],[81.5392,22.3238],[81.5407,22.3489],[81.5099,22.3938],[81.485,22.4108],[81.4902,22.4442],[81.4791,22.4591],[81.4799,22.4933],[81.4764,22.4922],[81.47,22.494],[81.4462,22.4959],[81.4381,22.4939],[81.4442,22.487],[81.4391,22.4795],[81.4433,22.4715],[81.448,22.4674],[81.436,22.4695],[81.4244,22.4792],[81.4189,22.4542],[81.4141,22.4485],[81.3966,22.4413],[81.3889,22.4448],[81.3862,22.4512],[81.3848,22.4778],[81.3787,22.5053],[81.3665,22.5144]]]},"properties":{"NAME_1":"Chhattisgarh","NAME_2":"Kawardha"}},{"type":"Feature","geometry":{"type":"Polygon","coordinates":[[[82.5684,22.965],[82.5347,22.9744],[82.5063,22.9675],[82.4383,22.9675],[82.4129,22.9739],[82.4002,22.9923],[82.3649,22.9971],[82.3428,22.9889],[82.3239,22.9669],[82.2877,22.9603],[82.2528,22.9385],[82.2081,22.9428],[82.1888,22.9079],[82.1542,22.8831],[82.1321,22.8521],[82.1505,22.8381],[82.1544,22.7928],[82.1468,22.7392],[82.1591,22.7278],[82.1707,22.6653],[82.2365,22.6555],[82.228,22.592],[82.202,22.5951],[82.1709,22.5561],[82.1491,22.5415],[82.1594,22.5298],[82.1537,22.4999],[82.1385,22.4801],[82.1387,22.4511],[82.1636,22.4392],[82.1755,22.4066],[82.149,22.3742],[82.148,22.3489],[82.136,22.3293],[82.1739,22.3251],[82.2012,22.3151],[82.2103,22.3367],[82.2608,22.3339],[82.2574,22.3005],[82.2789,22.2864],[82.3009,22.2949],[82.3176,22.3194],[82.3488,22.3237],[82.3726,22.3005],[82.3927,22.303],[82.4127,22.2817],[82.3899,22.2613],[82.4179,22.2463],[82.4325,22.2245],[82.4549,22.2122],[82.4893,22.2456],[82.5132,22.2513],[82.5347,22.2071],[82.5712,22.2211],[82.5867,22.2575],[82.6073,22.2553],[82.6369,22.2365],[82.6376,22.2138],[82.6527,22.1871],[82.6293,22.1223],[82.6421,22.0978],[82.6658,22.0797],[82.6957,22.0839],[82.7052,22.0482],[82.7332,22.0371],[82.7234,22.0848],[82.7471,22.095],[82.7548,22.1178],[82.7932,22.1314],[82.816,22.1542],[82.8451,22.156],[82.8643,22.17],[82.8849,22.161],[82.8948,22.1397],[82.9336,22.1204],[82.9395,22.1439],[82.9616,22.1608],[83.0232,22.1673],[83.0457,22.1972],[83.0457,22.2162],[83.0305,22.2477],[83.0544,22.2605],[83.0479,22.2825],[83.0777,22.3164],[83.0825,22.3459],[83.1037,22.3632],[83.1068,22.4222],[83.0883,22.4293],[83.0902,22.457],[83.0817,22.4725],[83.0868,22.4932],[83.1016,22.5099],[83.1015,22.537],[83.0869,22.5745],[83.0988,22.6382],[83.1171,22.6503],[83.1071,22.6759],[83.053,22.6655],[83.0115,22.6389],[82.9843,22.6616],[82.9647,22.6607],[82.9388,22.6734],[82.9126,22.7041],[82.8609,22.7465],[82.8274,22.7427],[82.7705,22.7691],[82.7617,22.7881],[82.7174,22.8284],[82.6893,22.8311],[82.6508,22.8089],[82.5993,22.8291],[82.5659,22.8305],[82.5529,22.8439],[82.5727,22.8939],[82.5706,22.9364],[82.5568,22.9555],[82.5684,22.965]],[[83.0151,22.2354],[82.9821,22.2328],[82.9992,22.2547],[83.0151,22.2354]]]},"properties":{"NAME_1":"Chhattisgarh","NAME_2":"Korba"}},{"type":"Feature","geometry":{"type":"Polygon","coordinates":[[[82.4918,23.7857],[82.4635,23.8108],[82.3882,23.8014],[82.3683,23.8111],[82.347,23.8037],[82.2976,23.8082],[82.2553,23.8219],[82.2315,23.8078],[82.1993,23.8319],[82.1341,23.8182],[82.1175,23.8231],[82.078,23.8171],[82.0454,23.8206],[82.0352,23.8426],[82.0007,23.8631],[81.9507,23.8529],[81.9164,23.873],[81.8941,23.8441],[81.8621,23.8348],[81.8117,23.8095],[81.7726,23.8142],[81.7269,23.841],[81.7209,23.8608],[81.7027,23.8634],[81.6974,23.886],[81.6616,23.9256],[81.6292,23.9077],[81.6144,23.9083],[81.5969,23.889],[81.6149,23.8728],[81.5984,23.8537],[81.6094,23.8358],[81.6257,23.8358],[81.6426,23.8046],[81.6384,23.7779],[81.6693,23.7574],[81.6873,23.7213],[81.6732,23.6934],[81.6495,23.6835],[81.6431,23.6603],[81.6132,23.661],[81.6027,23.6],[81.5697,23.5886],[81.5771,23.5549],[81.6023,23.5537],[81.6052,23.5109],[81.6311,23.4917],[81.6477,23.5024],[81.6545,23.5316],[81.6931,23.5233],[81.7292,23.5651],[81.7564,23.5525],[81.7976,23.5488],[81.8101,23.5226],[81.8272,23.5113],[81.8794,23.5184],[81.9039,23.5351],[81.9164,23.5321],[81.9344,23.5056],[81.9489,23.4967],[81.9503,23.4661],[81.9714,23.4475],[81.9736,23.4176],[81.9761,23.4131],[81.9919,23.4193],[81.9995,23.4128],[82.016,23.4235],[82.0184,23.4211],[82.0199,23.4009],[82.0136,23.3903],[82.0145,23.3879],[82.0457,23.3779],[82.0527,23.3851],[82.0568,23.3935],[82.0631,23.3925],[82.0949,23.3985],[82.0988,23.3947],[82.1008,23.3908],[82.1052,23.3828],[82.1079,23.3585],[82.1144,23.354],[82.1291,23.361],[82.1428,23.3544],[82.1555,23.3355],[82.1581,23.3333],[82.179,23.3271],[82.1875,23.3222],[82.1899,23.3035],[82.1842,23.2753],[82.174,23.2725],[82.1681,23.2674],[82.1665,23.2614],[82.147,23.2319],[82.1425,23.2277],[82.1467,23.2094],[82.1377,23.1881],[82.1401,23.1637],[82.1514,23.1606],[82.1511,23.1417],[82.131,23.129],[82.1292,23.114],[82.1159,23.1038],[82.1705,23.0409],[82.1789,23.0156],[82.1716,22.9898],[82.174,22.9683],[82.2081,22.9428],[82.2528,22.9385],[82.2877,22.9603],[82.3239,22.9669],[82.3428,22.9889],[82.3649,22.9971],[82.4002,22.9923],[82.4129,22.9739],[82.4383,22.9675],[82.5063,22.9675],[82.5347,22.9744],[82.5684,22.965],[82.5942,22.9966],[82.6023,23.0222],[82.5746,23.0576],[82.5674,23.0825],[82.5817,23.1005],[82.577,23.1298],[82.6,23.1423],[82.6365,23.1454],[82.6584,23.2019],[82.6796,23.2213],[82.6898,23.2419],[82.7369,23.253],[82.741,23.2915],[82.7514,23.3027],[82.7507,23.3312],[82.7376,23.3584],[82.6677,23.3722],[82.6452,23.3848],[82.6491,23.4147],[82.6466,23.4619],[82.6343,23.4988],[82.6053,23.5141],[82.5741,23.5427],[82.5771,23.5548],[82.5676,23.6185],[82.5957,23.6672],[82.586,23.6956],[82.5417,23.7543],[82.4913,23.7652],[82.4918,23.7857]]]},"properties":{"NAME_1":"Chhattisgarh","NAME_2":"Koriya"}},{"type":"Feature","geometry":{"type":"Polygon","coordinates":[[[82.9273,21.4917],[82.9128,21.4853],[82.8898,21.5266],[82.8687,21.5479],[82.8305,21.5337],[82.8153,21.5186],[82.821,21.4989],[82.7782,21.5063],[82.7651,21.517],[82.7257,21.4873],[82.6827,21.4788],[82.6916,21.446],[82.6971,21.3693],[82.6918,21.3272],[82.6464,21.3266],[82.6422,21.3389],[82.5874,21.333],[82.5588,21.3111],[82.525,21.3251],[82.4982,21.3108],[82.4582,21.3204],[82.4501,21.2736],[82.4344,21.2793],[82.4348,21.3028],[82.4095,21.3017],[82.3904,21.286],[82.387,21.263],[82.3465,21.2792],[82.3111,21.2874],[82.2934,21.2653],[82.2742,21.27],[82.272,21.2945],[82.2534,21.3066],[82.2498,21.3505],[82.2394,21.3623],[82.2695,21.3983],[82.2343,21.431],[82.1979,21.3813],[82.1868,21.3756],[82.1589,21.3255],[82.1208,21.2936],[82.061,21.2688],[82.0203,21.2303],[82.0123,21.217],[82.0087,21.1588],[81.9952,21.1396],[81.984,21.082],[82.0215,21.0562],[82.0555,21.0607],[82.0782,21.0311],[82.1217,21.0159],[82.1567,21.0107],[82.1685,20.9683],[82.192,20.9379],[82.2173,20.932],[82.2202,20.9472],[82.2636,20.9355],[82.2766,20.9013],[82.3045,20.8914],[82.3326,20.8671],[82.3412,20.8681],[82.3466,20.8838],[82.3592,20.8827],[82.359,20.8665],[82.3828,20.8699],[82.4025,20.858],[82.4074,20.8435],[82.4056,20.8372],[82.4155,20.8265],[82.4365,20.8295],[82.4411,20.8238],[82.4484,20.8222],[82.4625,20.8276],[82.4634,20.8397],[82.4814,20.8615],[82.4847,20.8796],[82.4831,20.8997],[82.4936,20.9093],[82.5031,20.9139],[82.5529,20.9415],[82.5781,20.9789],[82.5821,20.9868],[82.6044,21.0059],[82.6223,21.0366],[82.6091,21.0639],[82.6152,21.0752],[82.6318,21.087],[82.645,21.1019],[82.6359,21.1495],[82.6845,21.1581],[82.7575,21.1586],[82.7821,21.141],[82.8125,21.1586],[82.84,21.1634],[82.8792,21.1491],[82.9023,21.163],[82.9423,21.163],[82.9799,21.1575],[83.0105,21.1454],[83.0406,21.1189],[83.0714,21.1081],[83.1198,21.1011],[83.134,21.1052],[83.1614,21.1315],[83.1927,21.1394],[83.2076,21.2014],[83.2191,21.2237],[83.2141,21.2509],[83.2424,21.2764],[83.2677,21.2686],[83.2727,21.2961],[83.2588,21.3021],[83.255,21.3319],[83.2661,21.3454],[83.27,21.375],[83.2185,21.3785],[83.1986,21.3939],[83.1764,21.3965],[83.1413,21.3604],[83.1264,21.3762],[83.1037,21.4239],[83.0584,21.4296],[83.0469,21.4384],[83.0412,21.4767],[83.0118,21.4838],[83.0098,21.4667],[82.9928,21.4548],[82.9503,21.4886],[82.9273,21.4917]]]},"properties":{"NAME_1":"Chhattisgarh","NAME_2":"Mahasamund"}},{"type":"Feature","geometry":{"type":"Polygon","coordinates":[[[83.407,22.6388],[83.3807,22.6566],[83.3743,22.6932],[83.3868,22.6931],[83.3948,22.7247],[83.3777,22.7418],[83.3453,22.732],[83.335,22.7523],[83.2831,22.7658],[83.2463,22.7682],[83.2299,22.7848],[83.1836,22.7852],[83.1581,22.7717],[83.1475,22.7374],[83.1146,22.7265],[83.117,22.6965],[83.1071,22.6759],[83.1171,22.6503],[83.0988,22.6382],[83.0869,22.5745],[83.1015,22.537],[83.1016,22.5099],[83.0868,22.4932],[83.0817,22.4725],[83.0902,22.457],[83.0883,22.4293],[83.1068,22.4222],[83.1037,22.3632],[83.0825,22.3459],[83.0777,22.3164],[83.0479,22.2825],[83.0544,22.2605],[83.0305,22.2477],[83.0457,22.2162],[83.0457,22.1972],[83.0232,22.1673],[82.9616,22.1608],[82.9395,22.1439],[82.9336,22.1204],[82.9611,22.097],[83.0077,22.072],[83.013,22.0517],[83.0007,22.0262],[83.0171,22.0058],[82.995,21.9694],[83.0006,21.9615],[83.0543,21.9643],[83.0863,21.9706],[83.1099,21.9293],[83.1479,21.9123],[83.1949,21.9153],[83.2106,21.9005],[83.2122,21.8809],[83.1769,21.8428],[83.2174,21.8309],[83.2031,21.8146],[83.2187,21.7905],[83.2329,21.7874],[83.2434,21.7485],[83.2625,21.7326],[83.2627,21.7097],[83.3055,21.6986],[83.2987,21.6763],[83.2472,21.6934],[83.179,21.7098],[83.1151,21.7168],[83.0818,21.7115],[83.0208,21.7349],[82.9655,21.7181],[82.944,21.7195],[82.947,21.684],[82.9616,21.6841],[82.9772,21.6393],[82.9662,21.6142],[82.9232,21.5544],[82.9193,21.5403],[82.9273,21.4917],[82.9503,21.4886],[82.9928,21.4548],[83.0098,21.4667],[83.0118,21.4838],[83.0412,21.4767],[83.0469,21.4384],[83.0584,21.4296],[83.1037,21.4239],[83.1264,21.3762],[83.1413,21.3604],[83.1764,21.3965],[83.1986,21.3939],[83.2185,21.3785],[83.27,21.375],[83.3096,21.3646],[83.3748,21.34],[83.3942,21.3611],[83.3938,21.3994],[83.3701,21.4361],[83.3503,21.444],[83.3421,21.4853],[83.3543,21.5353],[83.3658,21.5497],[83.3623,21.5725],[83.3807,21.6128],[83.4135,21.6363],[83.4412,21.6493],[83.4413,21.6181],[83.463,21.6055],[83.4831,21.6396],[83.4748,21.6412],[83.4408,21.6552],[83.4354,21.6631],[83.4197,21.675],[83.4249,21.689],[83.428,21.6923],[83.4497,21.691],[83.4576,21.6997],[83.4616,21.7063],[83.478,21.728],[83.4754,21.7534],[83.4779,21.7646],[83.4759,21.7738],[83.4743,21.7861],[83.4855,21.8032],[83.4909,21.8145],[83.5061,21.8004],[83.5222,21.7941],[83.5366,21.7939],[83.5387,21.8006],[83.5364,21.8183],[83.5312,21.8319],[83.5485,21.8352],[83.5575,21.8344],[83.5735,21.8297],[83.5841,21.8528],[83.5715,21.8719],[83.6005,21.9108],[83.5878,21.9261],[83.5534,21.9322],[83.5577,21.9439],[83.5352,21.9635],[83.5486,22.0067],[83.534,22.0223],[83.5384,22.0554],[83.5835,22.055],[83.6003,22.0655],[83.5573,22.1],[83.6059,22.1576],[83.6193,22.1964],[83.6458,22.2246],[83.6574,22.2248],[83.693,22.2455],[83.7457,22.2412],[83.7713,22.2573],[83.7975,22.2895],[83.79,22.309],[83.761,22.3224],[83.7339,22.3764],[83.687,22.3762],[83.6437,22.393],[83.6322,22.4167],[83.6106,22.4366],[83.5782,22.4538],[83.5717,22.4751],[83.5815,22.4938],[83.5889,22.5312],[83.5678,22.5426],[83.5366,22.5147],[83.4995,22.5063],[83.4895,22.4913],[83.4632,22.5048],[83.4284,22.539],[83.3995,22.5523],[83.4068,22.5801],[83.4031,22.6095],[83.389,22.6243],[83.407,22.6388]]]},"properties":{"NAME_1":"Chhattisgarh","NAME_2":"Raigarh"}},{"type":"Feature","geometry":{"type":"Polygon","coordinates":[[[82.4335,21.7375],[82.4044,21.7144],[82.3832,21.7092],[82.3251,21.7106],[82.2983,21.7238],[82.2838,21.7492],[82.2105,21.7551],[82.1857,21.7717],[82.1786,21.8069],[82.1822,21.8346],[82.1559,21.8447],[82.1184,21.8322],[82.0947,21.855],[82.0311,21.8826],[82.0211,21.8609],[82.004,21.8533],[81.9709,21.8521],[81.9506,21.8447],[81.9354,21.8139],[81.8856,21.7737],[81.8418,21.7566],[81.8135,21.7593],[81.8002,21.7694],[81.7658,21.7678],[81.7412,21.7482],[81.7295,21.7645],[81.7011,21.7623],[81.6923,21.7493],[81.7184,21.7095],[81.7031,21.6816],[81.6774,21.6749],[81.6568,21.6448],[81.6922,21.6161],[81.6763,21.5744],[81.6616,21.5641],[81.6617,21.5444],[81.6371,21.5405],[81.6384,21.5184],[81.6248,21.5049],[81.6251,21.4148],[81.6322,21.4027],[81.5889,21.3587],[81.5785,21.3343],[81.546,21.3314],[81.5437,21.3085],[81.5285,21.2964],[81.5373,21.2779],[81.5394,21.2429],[81.5562,21.2402],[81.5709,21.2205],[81.5958,21.2044],[81.6175,21.16],[81.5995,21.1577],[81.5769,21.1221],[81.571,21.0928],[81.5766,21.07],[81.5998,21.0636],[81.5939,21.0382],[81.6066,21.0237],[81.6182,21.0147],[81.6265,21.0092],[81.6491,20.9986],[81.6549,20.9968],[81.6748,20.9957],[81.6822,20.9988],[81.7039,21.0149],[81.7131,21.0068],[81.7445,21.0079],[81.754,20.995],[81.7591,20.9825],[81.7684,20.9787],[81.7912,20.962],[81.8078,20.9573],[81.8093,20.9468],[81.8109,20.9433],[81.8424,20.9375],[81.8574,20.9551],[81.8709,20.9269],[81.8818,20.9034],[81.8858,20.8824],[81.8849,20.8687],[81.9005,20.8304],[81.9166,20.816],[81.9173,20.804],[81.9097,20.7789],[81.9194,20.7634],[81.9269,20.7379],[81.9733,20.7232],[81.978,20.7155],[81.9773,20.6985],[82.0056,20.6719],[82.007,20.6664],[81.9967,20.6463],[81.9888,20.6315],[81.9896,20.6243],[81.9931,20.6219],[82.0047,20.5877],[82.0114,20.5539],[82.0131,20.5424],[82.0156,20.5226],[82.0304,20.5084],[82.0341,20.5015],[82.0428,20.4938],[82.044,20.4839],[82.0491,20.4692],[82.0468,20.4597],[82.0564,20.4433],[82.0576,20.4327],[82.068,20.4255],[82.076,20.3996],[82.0729,20.3633],[82.079,20.3312],[82.0885,20.3157],[82.1078,20.2832],[82.1351,20.2825],[82.1496,20.2637],[82.1672,20.2551],[82.1664,20.2506],[82.155,20.2326],[82.1527,20.224],[82.1477,20.2183],[82.1405,20.2149],[82.1275,20.1811],[82.1258,20.1515],[82.1286,20.1425],[82.1138,20.1341],[82.1107,20.1316],[82.1067,20.1287],[82.1033,20.1115],[82.0953,20.1],[82.0721,20.0981],[82.0591,20.1016],[82.0277,20.0939],[82.0165,20.0593],[82.0165,20.0501],[82.0143,20.0364],[82.0148,20.0195],[82.0316,20.0167],[82.031,20.0229],[82.049,20.0352],[82.0579,20.0499],[82.0763,20.044],[82.083,20.0327],[82.0932,20.0327],[82.0977,20.0234],[82.1027,20.0208],[82.1161,20.0104],[82.1214,20.0098],[82.1317,20.0127],[82.1842,19.9812],[82.2106,19.9908],[82.2195,19.9935],[82.2334,19.9959],[82.2617,19.9716],[82.2833,19.9181],[82.2982,19.8835],[82.3213,19.8519],[82.3394,19.83],[82.3574,19.8495],[82.368,19.8545],[82.378,19.8687],[82.3888,19.8818],[82.4209,19.8983],[82.4424,19.903],[82.4681,19.8995],[82.4985,19.8852],[82.5124,19.8841],[82.518,19.8763],[82.5364,19.8769],[82.5443,19.869],[82.5509,19.8746],[82.5667,19.8717],[82.5935,19.8645],[82.5815,19.8405],[82.5742,19.832],[82.5713,19.8224],[82.5718,19.8076],[82.5716,19.802],[82.5793,19.7972],[82.5778,19.7878],[82.5793,19.7847],[82.5813,19.7727],[82.5851,19.771],[82.6189,19.7861],[82.6457,19.8254],[82.6984,19.8269],[82.711,19.8486],[82.7004,19.9066],[82.7094,19.9467],[82.7109,19.9833],[82.698,19.9927],[82.6923,19.9924],[82.681,19.9955],[82.6363,19.9983],[82.6188,19.9916],[82.5984,19.9856],[82.5787,19.9956],[82.5436,20.0121],[82.5242,20.0104],[82.5021,20.0135],[82.4759,20.0301],[82.4319,20.039],[82.4248,20.0435],[82.4062,20.0463],[82.3903,20.0642],[82.3926,20.1082],[82.3907,20.1191],[82.3866,20.1334],[82.3789,20.1446],[82.3833,20.1605],[82.4057,20.179],[82.4076,20.1941],[82.4082,20.2206],[82.4084,20.2417],[82.4123,20.2699],[82.4292,20.283],[82.4224,20.3097],[82.3938,20.3355],[82.398,20.3468],[82.4106,20.3825],[82.4099,20.4027],[82.423,20.4183],[82.4177,20.4383],[82.4194,20.4573],[82.4161,20.4662],[82.4064,20.4661],[82.3896,20.4654],[82.3861,20.4755],[82.3812,20.5018],[82.3699,20.5139],[82.3585,20.5162],[82.3361,20.5432],[82.3264,20.5566],[82.3278,20.562],[82.3372,20.5652],[82.3384,20.5908],[82.3387,20.5943],[82.348,20.6016],[82.3558,20.6035],[82.3663,20.6203],[82.3607,20.6719],[82.3456,20.6949],[82.3394,20.7258],[82.3404,20.7467],[82.3369,20.7793],[82.3331,20.8197],[82.3412,20.8681],[82.3326,20.8671],[82.3045,20.8914],[82.2766,20.9013],[82.2636,20.9355],[82.2202,20.9472],[82.2173,20.932],[82.192,20.9379],[82.1685,20.9683],[82.1567,21.0107],[82.1217,21.0159],[82.0782,21.0311],[82.0555,21.0607],[82.0215,21.0562],[81.984,21.082],[81.9952,21.1396],[82.0087,21.1588],[82.0123,21.217],[82.0203,21.2303],[82.061,21.2688],[82.1208,21.2936],[82.1589,21.3255],[82.1868,21.3756],[82.1979,21.3813],[82.2343,21.431],[82.2695,21.3983],[82.2394,21.3623],[82.2498,21.3505],[82.2534,21.3066],[82.272,21.2945],[82.2742,21.27],[82.2934,21.2653],[82.3111,21.2874],[82.3465,21.2792],[82.387,21.263],[82.3904,21.286],[82.4095,21.3017],[82.4348,21.3028],[82.4344,21.2793],[82.4501,21.2736],[82.4582,21.3204],[82.4982,21.3108],[82.525,21.3251],[82.5588,21.3111],[82.5874,21.333],[82.6422,21.3389],[82.6464,21.3266],[82.6918,21.3272],[82.6971,21.3693],[82.6916,21.446],[82.6827,21.4788],[82.7257,21.4873],[82.7651,21.517],[82.7782,21.5063],[82.821,21.4989],[82.8153,21.5186],[82.8305,21.5337],[82.8687,21.5479],[82.8898,21.5266],[82.9128,21.4853],[82.9273,21.4917],[82.9193,21.5403],[82.9232,21.5544],[82.9662,21.6142],[82.9772,21.6393],[82.9616,21.6841],[82.947,21.684],[82.944,21.7195],[82.8994,21.6956],[82.8593,21.6863],[82.7881,21.7205],[82.7388,21.7171],[82.6965,21.7249],[82.6506,21.7082],[82.6219,21.7274],[82.5928,21.7108],[82.5343,21.7356],[82.474,21.7243],[82.4469,21.7392],[82.4335,21.7375]]]},"properties":{"NAME_1":"Chhattisgarh","NAME_2":"Raipur"}},{"type":"Feature","geometry":{"type":"Polygon","coordinates":[[[81.1693,21.7026],[81.1535,21.7136],[81.1204,21.7073],[81.0948,21.7309],[81.0501,21.7234],[81.0373,21.7366],[81.0158,21.7385],[80.9931,21.7248],[80.9466,21.7647],[80.9358,21.8041],[80.9191,21.8252],[80.8705,21.8229],[80.8371,21.8318],[80.8317,21.8048],[80.8116,21.764],[80.8112,21.7475],[80.7827,21.7396],[80.7621,21.7579],[80.7401,21.7565],[80.7263,21.731],[80.7237,21.6936],[80.7074,21.6716],[80.7191,21.6437],[80.7217,21.6172],[80.7094,21.604],[80.7195,21.5715],[80.7135,21.5557],[80.7307,21.5387],[80.722,21.4956],[80.7302,21.4721],[80.718,21.4454],[80.6975,21.4272],[80.6993,21.4141],[80.6842,21.3726],[80.6565,21.3308],[80.6727,21.3113],[80.6548,21.2895],[80.6387,21.2548],[80.6034,21.2274],[80.5718,21.2169],[80.5612,21.2058],[80.5207,21.2035],[80.5093,21.1835],[80.4749,21.1714],[80.4573,21.1728],[80.4333,21.0972],[80.4485,21.0496],[80.4452,21.0309],[80.4238,21.0096],[80.4381,20.9921],[80.4389,20.9716],[80.4591,20.9282],[80.5352,20.9313],[80.5498,20.8889],[80.5504,20.8457],[80.5559,20.8197],[80.5433,20.7918],[80.5602,20.7118],[80.5749,20.6984],[80.5783,20.6788],[80.5189,20.6618],[80.4896,20.6399],[80.4816,20.6171],[80.5001,20.5869],[80.5195,20.5847],[80.5787,20.6141],[80.6223,20.6039],[80.6129,20.5906],[80.6197,20.5673],[80.6099,20.5563],[80.6034,20.4333],[80.586,20.392],[80.6022,20.3764],[80.6167,20.3257],[80.542,20.3068],[80.5108,20.2696],[80.4945,20.2748],[80.4565,20.2689],[80.4196,20.2516],[80.383,20.2417],[80.4134,20.1875],[80.3946,20.1816],[80.3846,20.1585],[80.3938,20.144],[80.427,20.1302],[80.4513,20.1449],[80.5236,20.1245],[80.5404,20.1098],[80.5532,20.1189],[80.5648,20.1562],[80.5781,20.1728],[80.6177,20.185],[80.6372,20.2001],[80.6411,20.2154],[80.6605,20.2194],[80.684,20.1886],[80.7079,20.1853],[80.722,20.1999],[80.7316,20.2368],[80.7234,20.2645],[80.7433,20.2817],[80.7713,20.289],[80.7883,20.2798],[80.8244,20.306],[80.8174,20.3543],[80.8423,20.3473],[80.8593,20.3828],[80.8794,20.3828],[80.9172,20.4254],[80.9389,20.4384],[80.939,20.459],[80.9649,20.4698],[80.9611,20.4939],[80.9372,20.506],[80.9464,20.5444],[80.9714,20.5539],[80.9865,20.5743],[80.9817,20.608],[80.9309,20.6298],[80.9381,20.6551],[80.902,20.6634],[80.8752,20.6553],[80.8068,20.6939],[80.7984,20.7185],[80.8193,20.7624],[80.8632,20.7856],[80.8767,20.8023],[80.8948,20.7861],[80.9305,20.7789],[80.9372,20.8025],[80.9688,20.8273],[80.9453,20.8425],[80.9882,20.8784],[80.9585,20.9113],[80.9566,20.9491],[80.9381,20.9451],[80.9511,20.9888],[80.9801,21.0047],[81.0193,20.9913],[81.0865,20.9943],[81.1129,21.0057],[81.1396,21.0566],[81.1538,21.0998],[81.1824,21.0951],[81.1993,21.1012],[81.2091,21.1701],[81.1907,21.1975],[81.1895,21.2202],[81.1445,21.212],[81.1566,21.2355],[81.1564,21.2863],[81.1805,21.3183],[81.1858,21.3895],[81.1763,21.3943],[81.166,21.4364],[81.1755,21.4796],[81.1542,21.4844],[81.1534,21.4998],[81.1816,21.4946],[81.1887,21.5135],[81.1567,21.5261],[81.1351,21.5562],[81.1477,21.5792],[81.1704,21.5963],[81.1734,21.6425],[81.1693,21.7026]]]},"properties":{"NAME_1":"Chhattisgarh","NAME_2":"Raj Nandgaon"}},{"type":"Feature","geometry":{"type":"Polygon","coordinates":[[[83.3276,24.0996],[83.3236,24.1013],[83.2924,24.0772],[83.2768,24.0457],[83.2761,24.0233],[83.216,23.9894],[83.2112,23.9604],[83.1896,23.9211],[83.1452,23.9099],[83.1274,23.89],[83.061,23.8752],[83.0364,23.8831],[82.984,23.8796],[82.9536,23.8728],[82.9252,23.8907],[82.8812,23.9103],[82.8489,23.9468],[82.8207,23.965],[82.8078,23.9631],[82.7481,23.9223],[82.7019,23.9249],[82.6819,23.9123],[82.6547,23.9063],[82.6461,23.8887],[82.6602,23.8703],[82.6406,23.858],[82.6295,23.839],[82.6059,23.8362],[82.586,23.8229],[82.5482,23.8269],[82.5445,23.7942],[82.5162,23.7842],[82.4918,23.7857],[82.4913,23.7652],[82.5417,23.7543],[82.586,23.6956],[82.5957,23.6672],[82.5676,23.6185],[82.5771,23.5548],[82.5741,23.5427],[82.6053,23.5141],[82.6343,23.4988],[82.6466,23.4619],[82.6491,23.4147],[82.6452,23.3848],[82.6677,23.3722],[82.7376,23.3584],[82.7507,23.3312],[82.7514,23.3027],[82.741,23.2915],[82.7369,23.253],[82.6898,23.2419],[82.6796,23.2213],[82.6584,23.2019],[82.6365,23.1454],[82.6,23.1423],[82.577,23.1298],[82.5817,23.1005],[82.5674,23.0825],[82.5746,23.0576],[82.6023,23.0222],[82.5942,22.9966],[82.5684,22.965],[82.5568,22.9555],[82.5706,22.9364],[82.5727,22.8939],[82.5529,22.8439],[82.5659,22.8305],[82.5993,22.8291],[82.6508,22.8089],[82.6893,22.8311],[82.7174,22.8284],[82.7617,22.7881],[82.7705,22.7691],[82.8274,22.7427],[82.8609,22.7465],[82.9126,22.7041],[82.9388,22.6734],[82.9647,22.6607],[82.9843,22.6616],[83.0115,22.6389],[83.053,22.6655],[83.1071,22.6759],[83.117,22.6965],[83.1146,22.7265],[83.1475,22.7374],[83.1581,22.7717],[83.1836,22.7852],[83.2299,22.7848],[83.2463,22.7682],[83.2831,22.7658],[83.335,22.7523],[83.3453,22.732],[83.3777,22.7418],[83.3948,22.7247],[83.3868,22.6931],[83.3743,22.6932],[83.3807,22.6566],[83.407,22.6388],[83.4098,22.6582],[83.432,22.6734],[83.4744,22.6678],[83.5002,22.6578],[83.5059,22.6741],[83.5281,22.6797],[83.5536,22.6985],[83.5967,22.6744],[83.6445,22.6535],[83.6681,22.6268],[83.6813,22.6457],[83.6765,22.6803],[83.6316,22.7013],[83.6272,22.7275],[83.6456,22.7379],[83.6483,22.7839],[83.6413,22.8214],[83.5722,22.8717],[83.5657,22.8879],[83.5319,22.9153],[83.5024,22.9551],[83.5085,22.983],[83.5258,22.9985],[83.5439,23.0295],[83.5185,23.0569],[83.5005,23.0583],[83.5037,23.0878],[83.53,23.1169],[83.5531,23.1322],[83.5472,23.1658],[83.5698,23.1883],[83.5967,23.1805],[83.6187,23.2159],[83.6642,23.2258],[83.7156,23.2066],[83.7184,23.2231],[83.7431,23.2369],[83.77,23.2205],[83.7839,23.2445],[83.8246,23.2326],[83.8748,23.2022],[83.8882,23.1818],[83.9417,23.162],[83.9628,23.1796],[84.0136,23.1866],[84.0338,23.1678],[84.044,23.1846],[84.0509,23.1896],[84.0583,23.2036],[84.0536,23.2132],[84.0522,23.2212],[84.0513,23.2466],[84.0591,23.2823],[84.0594,23.3043],[84.0703,23.33],[84.0486,23.3542],[84.0435,23.3697],[84.038,23.3762],[84.0115,23.3634],[83.983,23.3596],[83.9703,23.3694],[83.9658,23.3812],[83.9762,23.4075],[83.9781,23.4141],[83.9778,23.4315],[83.9697,23.4477],[83.9846,23.4756],[83.9927,23.4852],[84.0088,23.4996],[84.0227,23.5442],[84.0251,23.5658],[84.0219,23.5922],[84.0126,23.6055],[84.0036,23.6263],[84.007,23.6323],[83.9755,23.6308],[83.9627,23.6262],[83.9379,23.6224],[83.9296,23.5937],[83.9353,23.563],[83.9147,23.5687],[83.8985,23.5712],[83.8596,23.5783],[83.8376,23.5814],[83.8212,23.5849],[83.8005,23.5832],[83.7861,23.5982],[83.7749,23.5995],[83.7657,23.6175],[83.7478,23.6266],[83.743,23.6405],[83.744,23.6591],[83.7213,23.6737],[83.7151,23.6902],[83.7321,23.7047],[83.7325,23.724],[83.7293,23.7318],[83.7294,23.7547],[83.7124,23.7723],[83.7078,23.795],[83.6956,23.8076],[83.6722,23.8201],[83.6583,23.8278],[83.6496,23.8481],[83.6006,23.8535],[83.5718,23.8631],[83.5762,23.8844],[83.5494,23.8928],[83.5373,23.9146],[83.5389,23.9335],[83.5124,23.967],[83.5077,23.9795],[83.5075,24.0014],[83.5166,24.0106],[83.5012,24.0307],[83.4684,24.0407],[83.4476,24.0425],[83.4292,24.062],[83.4306,24.069],[83.4254,24.0838],[83.4214,24.0838],[83.4007,24.0818],[83.3833,24.0999],[83.362,24.102],[83.3276,24.0996]]]},"properties":{"NAME_1":"Chhattisgarh","NAME_2":"Surguja"}}]}