{"type":"FeatureCollection","features":[{"type":"Feature","geometry":{"type":"Polygon","coordinates":[[[72.9905,20.2921],[72.9878,20.2747],[72.9801,20.2708],[72.9698,20.2747],[72.9508,20.292],[72.9381,20.288],[72.9246,20.2787],[72.9223,20.2744],[72.9437,20.2449],[72.9653,20.2372],[72.9744,20.215],[72.9704,20.2123],[72.986,20.1575],[72.9732,20.1308],[72.9853,20.1135],[73.0043,20.1179],[73.0077,20.1294],[73.0076,20.1325],[73.0175,20.135],[73.0167,20.1305],[73.0102,20.1104],[73.0453,20.0718],[73.0592,20.0679],[73.058,20.0967],[73.0883,20.0945],[73.1052,20.0872],[73.1104,20.0846],[73.1118,20.083],[73.1231,20.0779],[73.1277,20.0782],[73.1367,20.0853],[73.1445,20.0779],[73.1702,20.0656],[73.1754,20.0581],[73.1838,20.0523],[73.1859,20.0529],[73.198,20.0778],[73.2139,20.0906],[73.2177,20.1063],[73.211,20.1236],[73.196,20.1399],[73.1953,20.1509],[73.1992,20.1616],[73.2267,20.1764],[73.2292,20.1843],[73.2099,20.1974],[73.2044,20.1983],[73.1885,20.2006],[73.1802,20.2086],[73.1536,20.2022],[73.1528,20.2028],[73.1498,20.2056],[73.1422,20.2044],[73.146,20.1874],[73.1484,20.1855],[73.1249,20.1567],[73.1168,20.1588],[73.1091,20.1592],[73.0995,20.1726],[73.0979,20.1733],[73.0899,20.1704],[73.0865,20.157],[73.0755,20.1601],[73.0705,20.1974],[73.0666,20.1979],[73.0769,20.2298],[73.0875,20.234],[73.1019,20.2289],[73.1085,20.2386],[73.1133,20.2442],[73.1368,20.2605],[73.1426,20.2686],[73.1463,20.2805],[73.147,20.281],[73.1536,20.277],[73.1552,20.2854],[73.1582,20.2905],[73.1613,20.2918],[73.1668,20.2834],[73.1795,20.2899],[73.1771,20.3076],[73.178,20.3107],[73.1771,20.3123],[73.1473,20.3168],[73.1393,20.3096],[73.1157,20.304],[73.122,20.3329],[73.118,20.3429],[73.1143,20.3528],[73.1114,20.3561],[73.1054,20.3605],[73.1021,20.3585],[73.0974,20.3351],[73.0863,20.3261],[73.0753,20.3296],[73.0667,20.3261],[73.0551,20.3252],[73.0442,20.2911],[73.0373,20.2906],[73.0198,20.3174],[73.0218,20.2927],[72.9905,20.2921]]]},"properties":{"NAME_1":"Dadra and Nagar Haveli","NAME_2":"Dadra and Nagar Haveli"}}]}