{"type":"FeatureCollection","features":[{"type":"Feature","geometry":{"type":"Polygon","coordinates":[[[72.8215,20.3711],[72.8425,20.3992],[72.843,20.4031],[72.8701,20.3912],[72.8755,20.3811],[72.8695,20.404],[72.846,20.4148],[72.839,20.4391],[72.8487,20.4533],[72.8512,20.4549],[72.8426,20.4579],[72.8285,20.4337],[72.8268,20.3857],[72.8215,20.3711]]]},"properties":{"NAME_1":"Daman and Diu","NAME_2":"Daman"}},{"type":"Feature","geometry":{"type":"MultiPolygon","coordinates":[[[[70.9485,20.7337],[70.9297,20.7319],[70.9049,20.7265],[70.8921,20.7082],[70.9176,20.7096],[70.9774,20.7035],[70.9976,20.714],[70.9626,20.7294],[70.9485,20.7337]]],[[[70.768,20.962],[70.7555,20.9738],[70.7417,20.9901],[70.7338,20.9884],[70.7307,20.9601],[70.7194,20.937],[70.7176,20.9121],[70.6942,20.883],[70.679,20.844],[70.6763,20.8188],[70.682,20.8011],[70.683,20.7841],[70.6752,20.7705],[70.6768,20.7686],[70.6893,20.7476],[70.7438,20.7201],[70.7585,20.7226],[70.7937,20.711],[70.8693,20.706],[70.8704,20.7187],[70.8401,20.7303],[70.8546,20.7521],[70.8544,20.7535],[70.8629,20.7818],[70.8939,20.7947],[70.8906,20.8329],[70.8503,20.8315],[70.8405,20.8578],[70.8843,20.8732],[70.9002,20.8857],[70.9016,20.9033],[70.8897,20.9359],[70.8802,20.9554],[70.8621,20.9608],[70.8513,20.9631],[70.846,20.9706],[70.825,20.9604],[70.8079,20.9644],[70.7935,20.9594],[70.7793,20.967],[70.773,20.9612],[70.768,20.962]]]]},"properties":{"NAME_1":"Daman and Diu","NAME_2":"Junagadh"}}]}