{"type":"FeatureCollection","features":[{"type":"Feature","geometry":{"type":"Polygon","coordinates":[[[77.2173,28.8353],[77.2048,28.8629],[77.1869,28.8668],[77.1836,28.8623],[77.1646,28.8606],[77.1507,28.8484],[77.1356,28.8527],[77.1285,28.8654],[77.1097,28.8661],[77.0995,28.8724],[77.0834,28.8746],[77.0498,28.8732],[77.0377,28.8528],[77.0315,28.8368],[76.9835,28.8391],[76.9796,28.8367],[76.958,28.8303],[76.9482,28.8177],[76.9375,28.8035],[76.9466,28.774],[76.9382,28.7596],[76.9503,28.7467],[76.9413,28.717],[76.95,28.6941],[76.9473,28.6772],[76.9426,28.6751],[76.9231,28.6692],[76.9182,28.6533],[76.9103,28.6378],[76.8937,28.6328],[76.8779,28.6376],[76.8548,28.5924],[76.835,28.5914],[76.8329,28.5825],[76.8376,28.557],[76.8592,28.5419],[76.8795,28.524],[76.8794,28.5091],[76.8937,28.5161],[76.9085,28.5149],[76.9332,28.516],[76.9765,28.5238],[77.0055,28.5144],[77.0002,28.542],[77.0157,28.5333],[77.0196,28.5333],[77.057,28.5139],[77.0725,28.5203],[77.0903,28.5055],[77.1077,28.4939],[77.1033,28.4831],[77.1125,28.4502],[77.1314,28.4387],[77.1519,28.4283],[77.1658,28.4085],[77.1952,28.4125],[77.2153,28.4157],[77.2406,28.4289],[77.2433,28.4475],[77.2257,28.464],[77.2324,28.4758],[77.254,28.4855],[77.2781,28.4981],[77.3009,28.4901],[77.3149,28.4946],[77.329,28.5083],[77.3368,28.5157],[77.3305,28.5241],[77.3149,28.5415],[77.3031,28.5505],[77.2936,28.5797],[77.2949,28.5824],[77.3099,28.599],[77.3278,28.6049],[77.3371,28.6219],[77.3112,28.6446],[77.3176,28.6716],[77.3271,28.6852],[77.3217,28.7118],[77.3172,28.7172],[77.2956,28.713],[77.2929,28.7098],[77.2837,28.719],[77.2711,28.7382],[77.2664,28.7393],[77.2562,28.7399],[77.2532,28.7528],[77.2459,28.7574],[77.229,28.7724],[77.2209,28.7779],[77.2247,28.7876],[77.2131,28.7864],[77.2085,28.7872],[77.1969,28.7953],[77.1944,28.8023],[77.2136,28.8135],[77.2173,28.8353]]]},"properties":{"NAME_1":"Delhi","NAME_2":"Delhi"}}]}