{"type":"FeatureCollection","features":[{"type":"Feature","geometry":{"type":"Polygon","coordinates":[[[74.126,15.6503],[74.0806,15.6262],[74.0393,15.6209],[74.0279,15.6046],[74.0024,15.6091],[73.976,15.6289],[73.9713,15.6873],[73.9454,15.7415],[73.9086,15.7423],[73.8802,15.7526],[73.8869,15.7703],[73.8655,15.7975],[73.8204,15.7399],[73.7865,15.7233],[73.7487,15.7306],[73.741,15.7187],[73.7186,15.7216],[73.7066,15.7217],[73.6919,15.7269],[73.6801,15.7244],[73.6876,15.7201],[73.7113,15.6685],[73.7226,15.6301],[73.7326,15.6176],[73.7549,15.6174],[73.7318,15.5893],[73.7549,15.5457],[73.7676,15.491],[73.8054,15.4949],[73.801,15.4607],[73.849,15.4521],[73.8615,15.4285],[73.8901,15.4257],[73.9045,15.4158],[73.9188,15.4207],[73.9272,15.4227],[73.9295,15.4238],[73.9308,15.4281],[73.9363,15.4324],[73.9421,15.4341],[73.9452,15.4315],[73.936,15.4207],[73.9359,15.4201],[73.9345,15.4129],[73.9361,15.4113],[73.947,15.4075],[73.9486,15.4053],[73.9392,15.4032],[73.9316,15.4021],[73.9578,15.3975],[73.9632,15.3868],[73.9675,15.3688],[73.9843,15.3648],[74.013,15.345],[74.0188,15.3061],[74.078,15.2902],[74.11,15.2687],[74.092,15.3237],[74.1111,15.3547],[74.1107,15.3658],[74.08,15.4091],[74.1338,15.4353],[74.193,15.4427],[74.201,15.4607],[74.2563,15.4895],[74.2838,15.5195],[74.2829,15.5416],[74.2543,15.5658],[74.2652,15.5902],[74.2675,15.617],[74.2553,15.6542],[74.2316,15.6665],[74.2241,15.6503],[74.1754,15.6702],[74.1734,15.6521],[74.126,15.6503]]]},"properties":{"NAME_1":"Goa","NAME_2":"North Goa"}},{"type":"Feature","geometry":{"type":"Polygon","coordinates":[[[73.8901,15.4257],[73.8826,15.3985],[73.844,15.4087],[73.8165,15.4043],[73.7826,15.4124],[73.8087,15.3765],[73.8418,15.3601],[73.8735,15.3701],[73.8865,15.3504],[73.9093,15.2901],[73.929,15.224],[73.9482,15.1474],[73.9407,15.1196],[73.9229,15.1101],[73.931,15.0785],[73.9668,15.066],[73.9832,15.0499],[73.9929,15.0182],[74.021,15.0121],[74.0329,14.999],[74.0493,14.9574],[74.0429,14.9185],[74.0974,14.8957],[74.1042,14.9038],[74.1334,14.9159],[74.1457,14.9174],[74.1754,14.9089],[74.1752,14.9162],[74.166,14.9368],[74.1697,14.9422],[74.1699,14.9473],[74.1974,14.9433],[74.2042,14.9379],[74.2031,14.9274],[74.2193,14.9314],[74.2439,14.9575],[74.251,14.9608],[74.2621,14.9576],[74.2666,14.9668],[74.2739,14.9752],[74.2716,14.9977],[74.271,14.9988],[74.2819,15.0156],[74.2898,15.0216],[74.2891,15.0301],[74.3023,15.0399],[74.2872,15.0694],[74.2811,15.1018],[74.2931,15.12],[74.2896,15.1431],[74.3109,15.162],[74.3219,15.1841],[74.3021,15.2281],[74.2635,15.2419],[74.2766,15.2744],[74.3023,15.2859],[74.3341,15.2829],[74.3417,15.2929],[74.3233,15.3296],[74.3284,15.3673],[74.29,15.3812],[74.2756,15.4239],[74.2825,15.4431],[74.2563,15.4895],[74.201,15.4607],[74.193,15.4427],[74.1338,15.4353],[74.08,15.4091],[74.1107,15.3658],[74.1111,15.3547],[74.092,15.3237],[74.11,15.2687],[74.078,15.2902],[74.0188,15.3061],[74.013,15.345],[73.9843,15.3648],[73.9675,15.3688],[73.9632,15.3868],[73.9578,15.3975],[73.9316,15.4021],[73.9392,15.4032],[73.9486,15.4053],[73.947,15.4075],[73.9361,15.4113],[73.9345,15.4129],[73.9359,15.4201],[73.936,15.4207],[73.9452,15.4315],[73.9421,15.4341],[73.9363,15.4324],[73.9308,15.4281],[73.9295,15.4238],[73.9272,15.4227],[73.9188,15.4207],[73.9045,15.4158],[73.8901,15.4257]]]},"properties":{"NAME_1":"Goa","NAME_2":"South Goa"}}]}