{"type":"FeatureCollection","features":[{"type":"Feature","geometry":{"type":"Polygon","coordinates":[[[72.3447,23.1059],[72.3244,23.1002],[72.3148,23.0837],[72.3292,23.0531],[72.3026,23.0387],[72.2945,23.0728],[72.2685,23.0857],[72.2686,23.1026],[72.231,23.1201],[72.2061,23.1146],[72.1988,23.1028],[72.1722,23.1016],[72.1745,23.1375],[72.1962,23.1419],[72.1786,23.1933],[72.1933,23.2132],[72.1872,23.2723],[72.2072,23.2749],[72.2167,23.3064],[72.2487,23.3213],[72.2725,23.3444],[72.2696,23.3681],[72.2958,23.3903],[72.3064,23.4118],[72.2926,23.4371],[72.2704,23.4585],[72.253,23.437],[72.2183,23.4291],[72.1961,23.4108],[72.1801,23.4354],[72.107,23.4567],[72.0619,23.4414],[72.0456,23.4552],[72.0393,23.4827],[72.0434,23.503],[72.0087,23.5013],[71.9991,23.4801],[71.9769,23.4571],[71.9811,23.4282],[71.9686,23.3909],[71.8841,23.3808],[71.9052,23.3303],[71.8848,23.276],[71.8923,23.2554],[71.8864,23.2216],[71.9119,23.2277],[71.9178,23.2625],[71.9431,23.2647],[71.9524,23.2428],[71.996,23.2538],[72.0085,23.2471],[71.9999,23.2134],[71.9617,23.2052],[71.9376,23.184],[71.92,23.1783],[71.9109,23.1079],[71.9251,23.0768],[71.9622,23.0524],[71.9993,23.0664],[72.0226,23.057],[72.0301,22.9899],[71.9996,22.9471],[72.013,22.9212],[71.9979,22.8831],[71.9938,22.8532],[72.0266,22.7913],[72.0605,22.7808],[72.0563,22.766],[72.0672,22.7453],[72.0819,22.7305],[72.1165,22.7186],[72.1001,22.6736],[72.0833,22.6732],[72.0668,22.6915],[72.0398,22.6788],[72.0467,22.6683],[72.0716,22.6488],[72.0737,22.5972],[72.1066,22.6032],[72.1525,22.5853],[72.179,22.5679],[72.1976,22.5426],[72.1807,22.533],[72.1597,22.5191],[72.1602,22.4972],[72.1716,22.4777],[72.1306,22.4611],[72.0952,22.4353],[72.0612,22.4424],[72.0617,22.4704],[72.042,22.5043],[71.9779,22.507],[71.9803,22.526],[71.957,22.5374],[71.9329,22.5188],[71.9194,22.4777],[71.9685,22.4872],[71.9724,22.4672],[71.9344,22.447],[71.945,22.3785],[71.9273,22.3797],[71.9022,22.4164],[71.8625,22.3867],[71.8655,22.3679],[71.8351,22.358],[71.839,22.3904],[71.7919,22.3827],[71.7955,22.3586],[71.7464,22.3578],[71.7152,22.3932],[71.6774,22.379],[71.6555,22.3963],[71.6327,22.3774],[71.6339,22.34],[71.6203,22.335],[71.6224,22.2994],[71.6305,22.2758],[71.6471,22.2721],[71.6623,22.2439],[71.6349,22.2245],[71.6474,22.1991],[71.6693,22.2132],[71.6871,22.1962],[71.705,22.1973],[71.7213,22.18],[71.7467,22.1792],[71.7527,22.1467],[71.7709,22.1303],[71.8125,22.1283],[71.8236,22.1358],[71.8531,22.1285],[71.8491,22.1123],[71.863,22.0929],[71.9094,22.1009],[71.9183,22.1224],[71.9932,22.1026],[72.0327,22.1024],[72.0435,22.1216],[72.066,22.1031],[72.0717,22.1033],[72.07,22.0934],[72.0886,22.0589],[72.099,22.0553],[72.1435,22.0503],[72.1613,22.022],[72.1751,22.0151],[72.179,22.014],[72.1797,22.0155],[72.1747,22.0235],[72.1703,22.0266],[72.1703,22.0275],[72.1734,22.0318],[72.1619,22.0331],[72.1582,22.0413],[72.1605,22.0446],[72.1648,22.0468],[72.1688,22.0474],[72.1709,22.0501],[72.1648,22.0554],[72.1562,22.0671],[72.1546,22.0677],[72.1442,22.0811],[72.1598,22.0705],[72.1803,22.0493],[72.1852,22.0416],[72.1883,22.047],[72.1944,22.0674],[72.1998,22.0828],[72.1918,22.0891],[72.1964,22.0916],[72.2003,22.0891],[72.2044,22.09],[72.1996,22.0642],[72.1986,22.0373],[72.2105,22.0145],[72.2165,22.0121],[72.22,22.0165],[72.2194,22.0281],[72.2057,22.0258],[72.2185,22.0399],[72.2158,22.0599],[72.2215,22.0755],[72.222,22.0901],[72.2232,22.0908],[72.2263,22.0799],[72.2298,22.0741],[72.241,22.0685],[72.2436,22.0695],[72.2456,22.0667],[72.2468,22.0651],[72.2414,22.1076],[72.252,22.1153],[72.2589,22.1322],[72.2653,22.1393],[72.2779,22.1413],[72.2804,22.1433],[72.272,22.1814],[72.2655,22.2085],[72.2719,22.2113],[72.2785,22.2033],[72.284,22.2187],[72.3084,22.2362],[72.3139,22.2317],[72.3169,22.2303],[72.3216,22.2303],[72.3402,22.2495],[72.3416,22.2515],[72.3401,22.26],[72.3461,22.2853],[72.3482,22.303],[72.3373,22.2998],[72.3368,22.3078],[72.3447,22.3079],[72.3472,22.3084],[72.356,22.3109],[72.3633,22.3066],[72.3651,22.305],[72.37,22.3149],[72.379,22.336],[72.4043,22.3515],[72.3815,22.3757],[72.3618,22.3757],[72.3517,22.3841],[72.3773,22.4049],[72.3869,22.4706],[72.4322,22.4807],[72.4497,22.5033],[72.4484,22.5322],[72.4342,22.5595],[72.4793,22.5784],[72.5172,22.6139],[72.5163,22.6235],[72.5241,22.6314],[72.5309,22.6298],[72.5451,22.6295],[72.5424,22.6432],[72.5527,22.6538],[72.5583,22.6708],[72.5397,22.6814],[72.5514,22.6879],[72.5329,22.6964],[72.5275,22.7033],[72.5325,22.7097],[72.5482,22.7098],[72.5365,22.7281],[72.5411,22.7458],[72.5329,22.7521],[72.5367,22.7595],[72.5385,22.7647],[72.5391,22.7716],[72.5289,22.7794],[72.5308,22.7873],[72.5472,22.8034],[72.5587,22.8057],[72.5696,22.8181],[72.5905,22.8202],[72.6186,22.8159],[72.6118,22.8381],[72.6165,22.8845],[72.6407,22.8821],[72.6448,22.8864],[72.6669,22.8938],[72.6803,22.8841],[72.7005,22.8791],[72.7404,22.9128],[72.754,22.9067],[72.7807,22.9086],[72.807,22.9183],[72.8083,22.9304],[72.818,22.9417],[72.8362,22.9535],[72.8504,22.965],[72.8479,22.9928],[72.8399,23.0008],[72.8299,23.0121],[72.8351,23.0162],[72.8195,23.0219],[72.8175,23.0369],[72.8042,23.0531],[72.7895,23.0577],[72.7732,23.062],[72.7862,23.0754],[72.7717,23.0928],[72.7502,23.0953],[72.7424,23.0977],[72.7277,23.0949],[72.7221,23.1011],[72.7153,23.1091],[72.6938,23.0992],[72.6834,23.1041],[72.6785,23.0943],[72.6075,23.0883],[72.6058,23.094],[72.5983,23.0967],[72.5757,23.1069],[72.5758,23.1258],[72.553,23.1306],[72.5499,23.144],[72.5126,23.1485],[72.5048,23.1421],[72.496,23.1434],[72.5067,23.0981],[72.4672,23.0808],[72.4811,23.0698],[72.4808,23.0629],[72.4573,23.0578],[72.4457,23.0421],[72.436,23.0639],[72.3907,23.0599],[72.3909,23.0759],[72.3642,23.0853],[72.3447,23.1059]]]},"properties":{"NAME_1":"Gujarat","NAME_2":"Ahmadabad"}},{"type":"Feature","geometry":{"type":"Polygon","coordinates":[[[71.4068,21.9744],[71.3943,21.9814],[71.359,21.9809],[71.3435,22.0022],[71.3438,22.0217],[71.322,22.038],[71.2895,22.0126],[71.3119,21.97],[71.3085,21.9559],[71.2798,21.9528],[71.267,21.9686],[71.2736,21.996],[71.2628,22.0051],[71.2141,21.9957],[71.2163,21.9694],[71.1391,21.9329],[71.1313,21.9144],[71.075,21.8986],[71.0751,21.8764],[71.051,21.8599],[71.0754,21.8441],[71.1198,21.8651],[71.1251,21.8486],[71.0997,21.8181],[71.0636,21.8183],[71.0589,21.7988],[71.068,21.7827],[71.0634,21.7513],[71.0487,21.7363],[70.9941,21.7248],[70.9817,21.745],[70.952,21.7401],[70.936,21.7572],[70.9113,21.7585],[70.9027,21.7293],[70.8434,21.7377],[70.7978,21.7251],[70.8191,21.7071],[70.8113,21.6597],[70.8262,21.637],[70.8465,21.6281],[70.8798,21.5954],[70.9115,21.5296],[70.9054,21.522],[70.8686,21.5261],[70.8635,21.5061],[70.8227,21.5082],[70.8283,21.4851],[70.8498,21.4867],[70.8501,21.4509],[70.8855,21.4596],[70.9046,21.4362],[70.922,21.4559],[70.9415,21.457],[70.9472,21.424],[70.9634,21.4163],[70.9659,21.392],[70.9319,21.3795],[70.9101,21.3896],[70.8877,21.3692],[70.8914,21.3294],[70.8844,21.3099],[70.8588,21.2994],[70.8419,21.3178],[70.8196,21.3193],[70.815,21.2749],[70.8281,21.2587],[70.8227,21.2263],[70.843,21.1911],[70.8914,21.166],[70.9108,21.1814],[70.9919,21.1603],[71.0224,21.1637],[71.0392,21.1446],[71.0942,21.111],[71.1167,21.0827],[71.1435,21.0723],[71.1655,21.0275],[71.1513,21.0053],[71.1505,20.9823],[71.1445,20.9594],[71.1603,20.9467],[71.1941,20.9625],[71.2074,20.9643],[71.2157,20.9731],[71.2414,20.953],[71.2262,20.9237],[71.1996,20.9112],[71.2127,20.896],[71.2041,20.8723],[71.2237,20.8692],[71.2381,20.8252],[71.2511,20.814],[71.3226,20.8463],[71.3721,20.8535],[71.396,20.8651],[71.4374,20.8685],[71.4485,20.8815],[71.4771,20.8899],[71.4932,20.9179],[71.5082,20.9162],[71.5096,20.944],[71.5301,20.9432],[71.599,20.9649],[71.6365,20.9735],[71.6385,20.9899],[71.689,21.0079],[71.6814,21.0249],[71.6553,21.0287],[71.6442,21.0695],[71.6402,21.1046],[71.6044,21.1418],[71.5737,21.1545],[71.5657,21.1673],[71.5347,21.1786],[71.5378,21.1851],[71.5421,21.1939],[71.5357,21.2118],[71.5477,21.2836],[71.5677,21.281],[71.584,21.2835],[71.6053,21.311],[71.6301,21.319],[71.6546,21.3167],[71.6933,21.3296],[71.7101,21.3816],[71.6738,21.3903],[71.6596,21.3804],[71.6591,21.3348],[71.643,21.3247],[71.6448,21.3836],[71.6248,21.4009],[71.6266,21.4347],[71.614,21.4395],[71.5462,21.4386],[71.539,21.4564],[71.5147,21.457],[71.4933,21.4799],[71.5145,21.5396],[71.552,21.5496],[71.5703,21.5794],[71.5664,21.6122],[71.5922,21.6289],[71.635,21.6261],[71.6311,21.6409],[71.6031,21.6558],[71.6003,21.6701],[71.6111,21.723],[71.5772,21.7362],[71.5535,21.766],[71.5242,21.7778],[71.506,21.7983],[71.4832,21.7952],[71.4708,21.8203],[71.467,21.8618],[71.4427,21.8717],[71.4315,21.8975],[71.4582,21.9019],[71.4785,21.9204],[71.4595,21.9453],[71.4338,21.9405],[71.4125,21.9502],[71.4068,21.9744]]]},"properties":{"NAME_1":"Gujarat","NAME_2":"Amreli"}},{"type":"Feature","geometry":{"type":"MultiPolygon","coordinates":[[[[72.3768,22.2286],[72.4007,22.2015],[72.4165,22.2274],[72.4163,22.2846],[72.411,22.2993],[72.3867,22.299],[72.3865,22.2388],[72.3768,22.2286]]],[[[73.2367,22.6344],[73.2124,22.6551],[73.2107,22.6819],[73.1682,22.6813],[73.1376,22.7218],[73.1052,22.7261],[73.064,22.7169],[73.0606,22.7364],[73.0366,22.733],[73.0116,22.7153],[72.9951,22.6567],[72.9773,22.6345],[72.9408,22.6251],[72.9287,22.5942],[72.8816,22.5808],[72.8823,22.6177],[72.8563,22.5968],[72.8318,22.6052],[72.8039,22.6388],[72.7676,22.6336],[72.7506,22.6437],[72.7338,22.6264],[72.698,22.625],[72.7,22.6039],[72.6805,22.564],[72.6595,22.5468],[72.6539,22.5261],[72.6755,22.5263],[72.6803,22.5043],[72.6646,22.4992],[72.6584,22.5064],[72.6484,22.5017],[72.6357,22.506],[72.6203,22.509],[72.5951,22.4987],[72.5811,22.5208],[72.5759,22.5395],[72.5666,22.5415],[72.5637,22.5653],[72.5426,22.568],[72.5431,22.5844],[72.5222,22.6116],[72.5172,22.6139],[72.4793,22.5784],[72.4342,22.5595],[72.4484,22.5322],[72.4497,22.5033],[72.4322,22.4807],[72.3869,22.4706],[72.3773,22.4049],[72.3517,22.3841],[72.3618,22.3757],[72.394,22.3824],[72.4124,22.3585],[72.4021,22.3276],[72.3876,22.3132],[72.4351,22.3013],[72.4707,22.2426],[72.494,22.2424],[72.4743,22.2007],[72.4876,22.1974],[72.5079,22.2315],[72.5243,22.2454],[72.5413,22.2432],[72.5574,22.2593],[72.5732,22.2546],[72.6085,22.2793],[72.6371,22.2843],[72.6915,22.2371],[72.7593,22.2315],[72.8104,22.2651],[72.8526,22.2818],[72.8668,22.2426],[72.8951,22.246],[72.9193,22.2666],[72.9209,22.2894],[72.9334,22.3045],[72.9599,22.2882],[72.9589,22.2626],[72.9862,22.2478],[73.008,22.2582],[73.0703,22.3136],[73.057,22.3649],[73.081,22.3955],[73.0748,22.4262],[73.1011,22.4581],[73.0963,22.4988],[73.1033,22.51],[73.1461,22.5275],[73.1691,22.5901],[73.2247,22.6201],[73.2367,22.6344]]]]},"properties":{"NAME_1":"Gujarat","NAME_2":"Anand"}},{"type":"Feature","geometry":{"type":"Polygon","coordinates":[[[72.3402,24.623],[72.3151,24.6089],[72.2747,24.6222],[72.2489,24.6208],[72.23,24.6329],[72.2164,24.6202],[72.1859,24.6094],[72.1617,24.6158],[72.1507,24.6341],[72.1165,24.6334],[72.0849,24.6528],[72.0923,24.6748],[72.0853,24.697],[72.0525,24.7058],[72.0409,24.6955],[71.9941,24.6776],[71.9934,24.6567],[71.9674,24.6379],[71.9345,24.6269],[71.9188,24.6462],[71.9259,24.6621],[71.8711,24.6722],[71.8626,24.6495],[71.8687,24.6235],[71.8466,24.6149],[71.8118,24.6218],[71.8129,24.6609],[71.7845,24.6689],[71.7458,24.6543],[71.7163,24.6543],[71.6616,24.6333],[71.6449,24.6525],[71.6166,24.6707],[71.5978,24.6639],[71.5831,24.6765],[71.5514,24.6706],[71.537,24.6789],[71.4883,24.6739],[71.4515,24.6588],[71.4223,24.6381],[71.3807,24.6214],[71.3677,24.6273],[71.3567,24.6541],[71.3265,24.6429],[71.2977,24.6076],[71.3138,24.5877],[71.3233,24.5786],[71.3204,24.5536],[71.3116,24.5466],[71.3031,24.5461],[71.301,24.5421],[71.2699,24.5299],[71.2688,24.5068],[71.277,24.5041],[71.3209,24.5138],[71.3582,24.5128],[71.3579,24.4937],[71.3492,24.4811],[71.3546,24.4747],[71.3528,24.4674],[71.3378,24.4385],[71.3595,24.4303],[71.3571,24.4277],[71.353,24.4205],[71.3394,24.3989],[71.3396,24.3904],[71.3604,24.3885],[71.3789,24.3856],[71.3914,24.3886],[71.3995,24.3601],[71.404,24.347],[71.3885,24.331],[71.3776,24.326],[71.3736,24.323],[71.3577,24.3238],[71.3347,24.3157],[71.3296,24.3124],[71.3154,24.2989],[71.3201,24.2808],[71.3191,24.2756],[71.3189,24.2494],[71.3231,24.2343],[71.3134,24.2342],[71.3089,24.2311],[71.3221,24.2248],[71.3341,24.1978],[71.3507,24.1768],[71.3584,24.1848],[71.366,24.1853],[71.379,24.186],[71.3795,24.1822],[71.3776,24.1704],[71.3708,24.1709],[71.3661,24.1658],[71.3632,24.1633],[71.3428,24.1581],[71.3464,24.1501],[71.333,24.1435],[71.3232,24.1506],[71.3149,24.1617],[71.3029,24.1688],[71.2971,24.1711],[71.2863,24.1568],[71.3,24.1476],[71.2956,24.1438],[71.289,24.1327],[71.3124,24.1288],[71.3249,24.1296],[71.3278,24.1261],[71.3464,24.1286],[71.3538,24.1058],[71.3374,24.0861],[71.3274,24.0677],[71.3265,24.0649],[71.3355,24.05],[71.2966,23.9936],[71.2982,23.9857],[71.3088,23.982],[71.323,23.9819],[71.3264,23.9769],[71.3432,23.9636],[71.3748,23.9618],[71.3835,23.9485],[71.4051,23.9581],[71.4239,23.9219],[71.4546,23.9367],[71.4531,23.9786],[71.473,24.0065],[71.5021,24.0093],[71.4982,23.972],[71.5475,23.9755],[71.5577,23.9923],[71.5952,23.963],[71.6107,23.9397],[71.6782,23.9669],[71.6969,23.9624],[71.7058,23.9312],[71.7257,23.9229],[71.7182,23.8783],[71.7278,23.8618],[71.7624,23.8383],[71.7794,23.8364],[71.8168,23.8516],[71.838,23.8435],[71.8668,23.846],[71.8765,23.8676],[71.9806,23.8895],[71.981,23.9021],[71.9534,23.9192],[71.9374,23.9501],[71.9528,23.9617],[71.9359,23.9758],[71.9388,24.0079],[71.9604,24.0055],[71.9714,23.9908],[71.9923,23.9949],[72.0023,23.9829],[72.0438,23.9801],[72.0549,23.9955],[72.0274,24.016],[72.0228,24.0376],[72.0384,24.0526],[72.0737,24.0183],[72.1054,24.0455],[72.1329,24.038],[72.1716,24.0725],[72.161,24.1123],[72.1254,24.1188],[72.1374,24.1382],[72.1637,24.1358],[72.1665,24.1133],[72.1941,24.1018],[72.2036,24.1183],[72.2337,24.128],[72.2235,24.1022],[72.2377,24.0634],[72.2665,24.0706],[72.2811,24.0461],[72.3057,24.0435],[72.314,24.031],[72.3608,24.0235],[72.3725,23.9695],[72.4161,23.969],[72.4336,23.9776],[72.4783,23.959],[72.4848,23.929],[72.5279,23.9391],[72.572,23.9313],[72.5938,23.9485],[72.593,23.9708],[72.634,23.9898],[72.6509,23.9887],[72.6452,24.0258],[72.6286,24.04],[72.6466,24.0663],[72.6609,24.0533],[72.7406,24.0837],[72.7545,24.0675],[72.7973,24.0813],[72.8268,24.0349],[72.8562,24.0374],[72.8703,24.016],[72.9083,24.022],[72.9349,24.0612],[72.9391,24.0842],[72.9531,24.0975],[72.9529,24.1276],[72.9849,24.1654],[73.0086,24.2258],[73.0222,24.2368],[73.0341,24.2807],[72.9729,24.3031],[72.9654,24.3511],[72.9239,24.3263],[72.9006,24.3514],[72.8681,24.3658],[72.8292,24.365],[72.8153,24.3582],[72.7325,24.3613],[72.7066,24.3913],[72.6935,24.4193],[72.693,24.4602],[72.6586,24.4564],[72.5885,24.4725],[72.5742,24.4881],[72.5421,24.5049],[72.5006,24.4503],[72.51,24.4183],[72.4874,24.4054],[72.4647,24.4071],[72.4562,24.4381],[72.4367,24.4605],[72.4482,24.4933],[72.4211,24.5081],[72.3863,24.5005],[72.3579,24.5525],[72.3324,24.5424],[72.2951,24.5384],[72.2717,24.5502],[72.251,24.5802],[72.2767,24.5992],[72.3003,24.6002],[72.314,24.5854],[72.3422,24.5935],[72.3538,24.6181],[72.3402,24.623]]]},"properties":{"NAME_1":"Gujarat","NAME_2":"Banas Kantha"}},{"type":"Feature","geometry":{"type":"Polygon","coordinates":[[[72.8739,22.2237],[72.8182,22.2476],[72.7988,22.2374],[72.7743,22.1943],[72.7576,22.174],[72.6996,22.1846],[72.6485,22.2168],[72.6012,22.2135],[72.5687,22.1876],[72.5474,22.1499],[72.5268,22.0776],[72.5182,22.0296],[72.5074,21.9943],[72.5024,21.9351],[72.5076,21.8979],[72.5168,21.8893],[72.5232,21.8496],[72.5685,21.824],[72.5521,21.7924],[72.5435,21.7429],[72.5196,21.7132],[72.524,21.6801],[72.5474,21.6585],[72.5974,21.6807],[72.7113,21.6785],[72.7363,21.6896],[72.7618,21.6693],[72.7982,21.6615],[72.7874,21.6451],[72.7515,21.6499],[72.7232,21.6388],[72.7049,21.6521],[72.6726,21.6279],[72.6282,21.6168],[72.606,21.5796],[72.5982,21.5443],[72.6268,21.5021],[72.6746,21.5213],[72.6651,21.4799],[72.6524,21.4621],[72.686,21.4449],[72.7142,21.4636],[72.7487,21.4695],[72.768,21.4496],[72.7909,21.4568],[72.7963,21.423],[72.8235,21.4193],[72.8469,21.4455],[72.8638,21.4496],[72.9192,21.4295],[72.9276,21.4462],[72.9332,21.4592],[72.9634,21.4836],[72.9516,21.5104],[72.9935,21.5194],[73.0055,21.5358],[73.0279,21.5226],[73.0277,21.4904],[73.0508,21.4755],[73.0667,21.4947],[73.0481,21.5242],[73.0641,21.5647],[73.0833,21.5537],[73.0903,21.5306],[73.0886,21.5033],[73.1127,21.505],[73.1294,21.482],[73.1534,21.4959],[73.1827,21.4932],[73.1924,21.5021],[73.2222,21.5023],[73.2359,21.4935],[73.2631,21.4934],[73.2823,21.5059],[73.3146,21.5048],[73.3321,21.4856],[73.3552,21.5108],[73.3959,21.5134],[73.4087,21.5073],[73.432,21.5204],[73.4583,21.5233],[73.448,21.5429],[73.4582,21.5698],[73.4912,21.6107],[73.4946,21.639],[73.4827,21.6559],[73.4987,21.6757],[73.4958,21.7037],[73.4736,21.7195],[73.4181,21.7102],[73.4101,21.7274],[73.4157,21.7474],[73.4011,21.7739],[73.3839,21.7798],[73.3748,21.8011],[73.3463,21.8092],[73.3412,21.8346],[73.309,21.8328],[73.3143,21.8541],[73.3073,21.89],[73.2911,21.9017],[73.2749,21.9303],[73.2581,21.9332],[73.2342,21.9165],[73.2378,21.8927],[73.2595,21.8628],[73.2562,21.8419],[73.236,21.8237],[73.218,21.8202],[73.1929,21.8296],[73.1589,21.8606],[73.1313,21.8764],[73.1017,21.8709],[73.0712,21.8809],[73.0771,21.9227],[73.028,21.9192],[73.0261,21.9408],[73.0595,21.9386],[73.0597,21.976],[73.0783,21.9837],[73.0714,22.0104],[73.0399,21.996],[72.9991,22.0268],[72.9889,22.0473],[72.9582,22.048],[72.944,22.039],[72.9157,22.0664],[72.9093,22.0901],[72.8923,22.0957],[72.8912,22.1195],[72.8766,22.1555],[72.9386,22.1695],[72.9267,22.1906],[72.8952,22.1728],[72.8739,22.2237]]]},"properties":{"NAME_1":"Gujarat","NAME_2":"Bharuch"}},{"type":"Feature","geometry":{"type":"MultiPolygon","coordinates":[[[[72.3867,22.299],[72.37,22.3149],[72.3651,22.305],[72.3633,22.3066],[72.356,22.3109],[72.3472,22.3084],[72.3447,22.3079],[72.3368,22.3078],[72.3373,22.2998],[72.3482,22.303],[72.3461,22.2853],[72.3401,22.26],[72.3416,22.2515],[72.3402,22.2495],[72.3216,22.2303],[72.3169,22.2303],[72.3139,22.2317],[72.3084,22.2362],[72.284,22.2187],[72.2785,22.2033],[72.2719,22.2113],[72.2655,22.2085],[72.272,22.1814],[72.2804,22.1433],[72.2779,22.1413],[72.2653,22.1393],[72.2589,22.1322],[72.252,22.1153],[72.2414,22.1076],[72.2468,22.0651],[72.2456,22.0667],[72.2436,22.0695],[72.241,22.0685],[72.2298,22.0741],[72.2263,22.0799],[72.2232,22.0908],[72.222,22.0901],[72.2215,22.0755],[72.2158,22.0599],[72.2185,22.0399],[72.2057,22.0258],[72.2194,22.0281],[72.22,22.0165],[72.2326,22.0176],[72.2307,22.0487],[72.2393,22.0599],[72.2779,22.0799],[72.2743,22.0926],[72.3018,22.1068],[72.304,22.0768],[72.2865,22.074],[72.2415,22.0496],[72.2607,22.0193],[72.2518,21.9874],[72.2799,21.9674],[72.3151,22.1024],[72.3232,22.1226],[72.3565,22.1515],[72.359,22.176],[72.3871,22.1599],[72.3901,22.1835],[72.3665,22.2001],[72.3601,22.2251],[72.3768,22.2286],[72.3865,22.2388],[72.3867,22.299]]],[[[72.0435,22.1216],[72.0327,22.1024],[71.9932,22.1026],[71.9183,22.1224],[71.9094,22.1009],[71.863,22.0929],[71.8491,22.1123],[71.8531,22.1285],[71.8236,22.1358],[71.8125,22.1283],[71.7709,22.1303],[71.7527,22.1467],[71.7467,22.1792],[71.7213,22.18],[71.705,22.1973],[71.6871,22.1962],[71.6693,22.2132],[71.6474,22.1991],[71.6349,22.2245],[71.6623,22.2439],[71.6471,22.2721],[71.6305,22.2758],[71.6224,22.2994],[71.6203,22.335],[71.6081,22.3469],[71.5706,22.3369],[71.5429,22.3398],[71.5091,22.3044],[71.4531,22.2853],[71.4472,22.2573],[71.4724,22.2427],[71.4714,22.2267],[71.444,22.207],[71.4926,22.1808],[71.4837,22.1335],[71.4996,22.1283],[71.5142,22.1075],[71.5096,22.0704],[71.5183,22.0497],[71.4685,22.0267],[71.4738,22.0027],[71.4068,21.9744],[71.4125,21.9502],[71.4338,21.9405],[71.4595,21.9453],[71.4785,21.9204],[71.4582,21.9019],[71.4315,21.8975],[71.4427,21.8717],[71.467,21.8618],[71.4708,21.8203],[71.4832,21.7952],[71.506,21.7983],[71.5242,21.7778],[71.5535,21.766],[71.5772,21.7362],[71.6111,21.723],[71.6003,21.6701],[71.6031,21.6558],[71.6311,21.6409],[71.635,21.6261],[71.5922,21.6289],[71.5664,21.6122],[71.5703,21.5794],[71.552,21.5496],[71.5145,21.5396],[71.4933,21.4799],[71.5147,21.457],[71.539,21.4564],[71.5462,21.4386],[71.614,21.4395],[71.6266,21.4347],[71.6248,21.4009],[71.6448,21.3836],[71.643,21.3247],[71.6591,21.3348],[71.6596,21.3804],[71.6738,21.3903],[71.7101,21.3816],[71.6933,21.3296],[71.6546,21.3167],[71.6301,21.319],[71.6053,21.311],[71.584,21.2835],[71.5677,21.281],[71.5477,21.2836],[71.5357,21.2118],[71.5421,21.1939],[71.5378,21.1851],[71.5347,21.1786],[71.5657,21.1673],[71.5737,21.1545],[71.6044,21.1418],[71.6402,21.1046],[71.6442,21.0695],[71.6553,21.0287],[71.6814,21.0249],[71.689,21.0079],[71.7207,21.0218],[71.764,21.0212],[71.7882,21.0399],[71.7968,21.0579],[71.916,21.1121],[71.9521,21.1185],[71.9915,21.1426],[71.986,21.1571],[72.0218,21.1818],[72.0101,21.1457],[72.0479,21.1607],[72.0563,21.1724],[72.1154,21.2021],[72.111,21.2193],[72.0888,21.229],[72.0821,21.2457],[72.1107,21.2865],[72.1093,21.3007],[72.1349,21.3418],[72.1668,21.3765],[72.171,21.3899],[72.2243,21.4404],[72.2513,21.494],[72.2651,21.5415],[72.2685,21.5721],[72.306,21.6285],[72.2849,21.6671],[72.2801,21.6899],[72.2479,21.751],[72.2701,21.7571],[72.2601,21.7843],[72.2562,21.8901],[72.2196,21.9482],[72.2315,22.0035],[72.2165,22.0121],[72.2105,22.0145],[72.1986,22.0373],[72.1996,22.0642],[72.2044,22.09],[72.2003,22.0891],[72.1964,22.0916],[72.1918,22.0891],[72.1998,22.0828],[72.1944,22.0674],[72.1883,22.047],[72.1852,22.0416],[72.1803,22.0493],[72.1598,22.0705],[72.1442,22.0811],[72.1546,22.0677],[72.1562,22.0671],[72.1648,22.0554],[72.1709,22.0501],[72.1688,22.0474],[72.1648,22.0468],[72.1605,22.0446],[72.1582,22.0413],[72.1619,22.0331],[72.1734,22.0318],[72.1703,22.0275],[72.1703,22.0266],[72.1747,22.0235],[72.1797,22.0155],[72.179,22.014],[72.1751,22.0151],[72.1613,22.022],[72.1435,22.0503],[72.099,22.0553],[72.0886,22.0589],[72.07,22.0934],[72.0717,22.1033],[72.066,22.1031],[72.0435,22.1216]]]]},"properties":{"NAME_1":"Gujarat","NAME_2":"Bhavnagar"}},{"type":"Feature","geometry":{"type":"Polygon","coordinates":[[[73.9625,23.3814],[73.9473,23.3735],[73.9389,23.3414],[73.8943,23.3371],[73.8949,23.3526],[73.8794,23.3681],[73.8668,23.3958],[73.8269,23.4468],[73.7831,23.4346],[73.7647,23.4586],[73.7261,23.4127],[73.6994,23.3924],[73.7066,23.3752],[73.6962,23.3557],[73.697,23.3275],[73.718,23.2883],[73.7019,23.2703],[73.7233,23.2611],[73.7406,23.2704],[73.7562,23.2357],[73.7351,23.2199],[73.7335,23.1887],[73.7173,23.1625],[73.6989,23.1532],[73.7053,23.1124],[73.6786,23.1049],[73.6578,23.0663],[73.6376,23.045],[73.647,23.0204],[73.7193,23.0529],[73.732,23.0642],[73.7783,23.0771],[73.808,23.1092],[73.8402,23.0924],[73.8641,23.0612],[73.91,23.0487],[73.9147,22.9675],[73.8945,22.9443],[73.9111,22.9356],[73.8882,22.9036],[73.8855,22.8687],[73.8691,22.8413],[73.8445,22.8456],[73.8443,22.8245],[73.8309,22.7905],[73.7842,22.7905],[73.7561,22.7811],[73.7375,22.7549],[73.7468,22.707],[73.7271,22.7001],[73.691,22.7164],[73.687,22.6974],[73.6954,22.6664],[73.666,22.6607],[73.6515,22.6678],[73.64,22.6473],[73.61,22.6206],[73.6215,22.5966],[73.5768,22.5683],[73.5899,22.5463],[73.5866,22.5265],[73.5957,22.4859],[73.6266,22.4782],[73.6502,22.5009],[73.6799,22.4976],[73.6874,22.4661],[73.7343,22.4556],[73.7372,22.5164],[73.7631,22.5475],[73.8198,22.5475],[73.8444,22.5338],[73.8525,22.516],[73.871,22.5058],[73.9126,22.5092],[73.9417,22.5438],[73.9677,22.54],[74.0242,22.5725],[74.0409,22.5718],[74.0667,22.5509],[74.0843,22.5496],[74.1276,22.5244],[74.1533,22.5174],[74.1575,22.5322],[74.2138,22.5674],[74.2367,22.6139],[74.2564,22.6357],[74.2782,22.6477],[74.2946,22.6414],[74.3281,22.6442],[74.364,22.6365],[74.3842,22.6436],[74.3849,22.6696],[74.3969,22.6921],[74.4031,22.7307],[74.4392,22.7856],[74.4392,22.8094],[74.4649,22.8151],[74.4789,22.8586],[74.4628,22.9135],[74.4515,22.924],[74.4187,22.9184],[74.4004,22.8994],[74.3816,22.9099],[74.3416,22.9647],[74.3708,22.9801],[74.3554,23.0031],[74.3492,23.0302],[74.3277,23.0427],[74.3228,23.0627],[74.3102,23.0795],[74.2825,23.095],[74.2881,23.1187],[74.2718,23.156],[74.2498,23.1784],[74.2075,23.1921],[74.1895,23.1718],[74.183,23.1522],[74.1552,23.1578],[74.1457,23.1752],[74.127,23.1789],[74.1247,23.2066],[74.1395,23.2268],[74.1361,23.2647],[74.1139,23.2773],[74.1066,23.2941],[74.0487,23.2951],[74.0301,23.3199],[74.0327,23.3323],[73.9908,23.3376],[73.9835,23.3598],[73.9625,23.3814]]]},"properties":{"NAME_1":"Gujarat","NAME_2":"Dahod"}},{"type":"Feature","geometry":{"type":"Polygon","coordinates":[[[72.733,23.3856],[72.7065,23.3751],[72.6752,23.3909],[72.6482,23.3714],[72.6207,23.3851],[72.6086,23.41],[72.5726,23.406],[72.5622,23.4266],[72.5318,23.4191],[72.5291,23.3999],[72.5123,23.3842],[72.5286,23.3495],[72.495,23.3377],[72.4743,23.2986],[72.4331,23.3005],[72.4227,23.2798],[72.4315,23.2565],[72.4546,23.2515],[72.4379,23.2321],[72.448,23.2043],[72.4255,23.2026],[72.422,23.186],[72.3936,23.1675],[72.413,23.1293],[72.3828,23.1026],[72.3517,23.1236],[72.3447,23.1059],[72.3642,23.0853],[72.3909,23.0759],[72.3907,23.0599],[72.436,23.0639],[72.4457,23.0421],[72.4573,23.0578],[72.4808,23.0629],[72.4811,23.0698],[72.4672,23.0808],[72.5067,23.0981],[72.496,23.1434],[72.5048,23.1421],[72.5126,23.1485],[72.5499,23.144],[72.553,23.1306],[72.5758,23.1258],[72.5757,23.1069],[72.5983,23.0967],[72.6058,23.094],[72.6075,23.0883],[72.6785,23.0943],[72.6834,23.1041],[72.6938,23.0992],[72.7153,23.1091],[72.7221,23.1011],[72.7277,23.0949],[72.7424,23.0977],[72.7502,23.0953],[72.7717,23.0928],[72.7862,23.0754],[72.7732,23.062],[72.7895,23.0577],[72.8042,23.0531],[72.8175,23.0369],[72.8195,23.0219],[72.8351,23.0162],[72.8299,23.0121],[72.8399,23.0008],[72.8479,22.9928],[72.8538,23.0112],[72.8797,23.0074],[72.9041,23.0209],[72.9348,23.0771],[72.9691,23.0743],[72.9875,23.1287],[73.0065,23.1354],[73.0268,23.129],[73.0214,23.1609],[72.9797,23.1668],[72.9913,23.2011],[72.9887,23.2146],[73.0029,23.2583],[73.0205,23.2778],[73.006,23.2968],[72.9843,23.2611],[72.9649,23.2434],[72.9412,23.2421],[72.927,23.264],[72.9134,23.3214],[72.8892,23.3115],[72.8677,23.3123],[72.8448,23.3253],[72.818,23.3159],[72.805,23.3237],[72.7325,23.3258],[72.733,23.3856]]]},"properties":{"NAME_1":"Gujarat","NAME_2":"Gandhinagar"}},{"type":"Feature","geometry":{"type":"MultiPolygon","coordinates":[[[[69.6276,22.4596],[69.594,22.4457],[69.596,22.4246],[69.6365,22.4065],[69.6543,22.4312],[69.6276,22.4596]]],[[[69.3021,22.474],[69.2935,22.4604],[69.3204,22.451],[69.3279,22.4635],[69.3021,22.474]]],[[[69.9187,22.5532],[69.8999,22.5451],[69.8951,22.5124],[69.9157,22.5118],[69.9415,22.5179],[69.9318,22.5454],[69.9187,22.5532]]],[[[70.009,22.5932],[69.9665,22.5785],[69.9568,22.5607],[69.9638,22.5454],[70.0079,22.554],[70.0271,22.5679],[70.0249,22.5862],[70.009,22.5932]]],[[[70.5072,22.9578],[70.4757,22.9587],[70.4685,22.9578],[70.4546,22.96],[70.4365,22.9638],[70.4224,22.9324],[70.3851,22.9099],[70.3415,22.8485],[70.339,22.8304],[70.3015,22.7715],[70.3012,22.7576],[70.2546,22.7262],[70.2551,22.7065],[70.2387,22.6963],[70.2454,22.6699],[70.2196,22.6301],[70.1993,22.6174],[70.1929,22.5865],[70.1629,22.5515],[70.1376,22.5482],[70.066,22.5476],[70.0471,22.5549],[69.9832,22.5438],[69.946,22.5285],[69.9435,22.5118],[69.9349,22.5126],[69.9126,22.4882],[69.911,22.4682],[69.8943,22.4654],[69.8754,22.4479],[69.841,22.456],[69.8285,22.4515],[69.8229,22.4274],[69.8071,22.4049],[69.7926,22.4035],[69.7618,22.4326],[69.7462,22.429],[69.741,22.4574],[69.7204,22.4618],[69.691,22.4513],[69.7021,22.434],[69.6924,22.4212],[69.699,22.3957],[69.664,22.3938],[69.6546,22.359],[69.6001,22.3487],[69.5757,22.3685],[69.5599,22.3668],[69.551,22.4043],[69.5229,22.4265],[69.516,22.3951],[69.5212,22.3793],[69.4901,22.3557],[69.4887,22.3382],[69.4549,22.3354],[69.4226,22.3165],[69.3665,22.3221],[69.3401,22.3304],[69.334,22.3043],[69.291,22.2757],[69.2387,22.2593],[69.2065,22.2643],[69.1604,22.3065],[69.1787,22.376],[69.2004,22.3907],[69.1913,22.4221],[69.1707,22.4221],[69.1485,22.4026],[69.124,22.3999],[69.1096,22.4099],[69.0826,22.3924],[69.0693,22.3957],[69.044,22.4312],[69.0749,22.4543],[69.0799,22.479],[69.0079,22.4399],[68.9846,22.4143],[68.9568,22.3665],[68.9551,22.3351],[68.936,22.3121],[68.9565,22.2607],[68.9526,22.2485],[68.981,22.2118],[69.0579,22.1257],[69.0896,22.0976],[69.1257,22.0549],[69.2115,21.9638],[69.2588,21.9176],[69.3521,21.8388],[69.3763,21.826],[69.3962,21.8018],[69.4091,21.8056],[69.4162,21.8554],[69.4359,21.8669],[69.4609,21.8622],[69.4736,21.8398],[69.5139,21.844],[69.5123,21.8828],[69.5297,21.8889],[69.5595,21.8806],[69.5676,21.9121],[69.6046,21.9344],[69.641,21.9303],[69.6525,21.9118],[69.6571,21.9077],[69.6802,21.9116],[69.6749,21.9443],[69.707,21.9484],[69.7123,21.9674],[69.7394,21.9645],[69.7421,21.9251],[69.7318,21.9221],[69.7307,21.9165],[69.7051,21.9153],[69.6943,21.9145],[69.6915,21.8822],[69.6708,21.8601],[69.6559,21.8586],[69.6501,21.8577],[69.6349,21.8531],[69.6332,21.8247],[69.6372,21.8197],[69.6374,21.7969],[69.6402,21.7924],[69.6569,21.7974],[69.6606,21.8223],[69.6807,21.8242],[69.7001,21.8087],[69.7114,21.8087],[69.7194,21.7981],[69.7302,21.7854],[69.7374,21.7831],[69.7485,21.8085],[69.7582,21.8183],[69.763,21.8217],[69.7905,21.8108],[69.8217,21.8136],[69.8379,21.8131],[69.833,21.7579],[69.8399,21.7353],[69.8693,21.7212],[69.883,21.7232],[69.8862,21.7259],[69.8901,21.7453],[69.9037,21.7582],[69.9555,21.7714],[69.9682,21.7846],[70.0123,21.7994],[70.0316,21.7923],[70.0304,21.7487],[70.0414,21.7364],[70.0431,21.6994],[70.0622,21.6887],[70.0776,21.6933],[70.0966,21.7241],[70.0883,21.7426],[70.0517,21.7828],[70.0795,21.791],[70.1111,21.7918],[70.1044,21.8113],[70.1186,21.8394],[70.1482,21.8569],[70.1602,21.8857],[70.1653,21.9328],[70.1873,21.9283],[70.1985,21.8864],[70.2156,21.8852],[70.2356,21.8999],[70.2359,21.9571],[70.2717,21.96],[70.2787,21.9864],[70.2971,21.9893],[70.3181,22.0051],[70.3458,22.0102],[70.3482,22.0412],[70.3926,22.039],[70.434,22.0216],[70.4716,22.0302],[70.4726,22.0437],[70.5135,22.0477],[70.5454,22.0387],[70.5368,22.0119],[70.5191,22.0103],[70.518,21.9907],[70.5538,21.999],[70.5863,22.0293],[70.566,22.0414],[70.5744,22.0886],[70.6013,22.0972],[70.5795,22.1367],[70.6025,22.1614],[70.602,22.203],[70.5927,22.2316],[70.5643,22.2234],[70.5396,22.2387],[70.51,22.2898],[70.487,22.3154],[70.5152,22.3149],[70.5455,22.3335],[70.5243,22.3545],[70.4919,22.3688],[70.5212,22.4198],[70.4864,22.4172],[70.4776,22.4321],[70.4973,22.4458],[70.5169,22.4463],[70.513,22.4675],[70.5518,22.4502],[70.5584,22.4706],[70.6029,22.4794],[70.5923,22.5031],[70.5522,22.4883],[70.5436,22.5053],[70.5539,22.5221],[70.5798,22.5233],[70.5874,22.5133],[70.6161,22.5216],[70.5964,22.5422],[70.5746,22.5333],[70.5667,22.5646],[70.5885,22.6098],[70.5907,22.6246],[70.6182,22.6309],[70.6312,22.6465],[70.6277,22.6815],[70.6592,22.7022],[70.6398,22.7206],[70.631,22.758],[70.664,22.7802],[70.6583,22.816],[70.6771,22.8279],[70.6616,22.8526],[70.6387,22.8707],[70.6205,22.8737],[70.5954,22.9082],[70.5499,22.9244],[70.5402,22.9466],[70.5512,22.9546],[70.5267,22.9539],[70.5072,22.9578]]]]},"properties":{"NAME_1":"Gujarat","NAME_2":"Jamnagar"}},{"type":"Feature","geometry":{"type":"MultiPolygon","coordinates":[[[[70.8704,20.7187],[70.8546,20.7521],[70.8401,20.7303],[70.8704,20.7187]]],[[[70.1693,21.6538],[70.1433,21.6709],[70.1118,21.6376],[70.0764,21.627],[70.0548,21.6267],[70.0681,21.5861],[70.0416,21.5842],[70.015,21.5696],[70.0084,21.5919],[69.9898,21.5833],[70.0256,21.5346],[70.0037,21.5218],[70.0227,21.4642],[70.0646,21.4642],[70.073,21.4461],[70.0525,21.4262],[70.0409,21.4338],[70.0057,21.4266],[69.9732,21.3745],[69.966,21.3602],[69.9765,21.3399],[69.9803,21.3342],[69.9972,21.3279],[70.0049,21.2852],[70.0232,21.2831],[70.0325,21.2729],[70.0512,21.2668],[70.0348,21.2535],[70.025,21.233],[70.0095,21.2236],[69.9988,21.2074],[70.0604,21.1424],[70.0996,21.1046],[70.2582,20.9726],[70.3649,20.9007],[70.3935,20.8943],[70.4254,20.8629],[70.501,20.8235],[70.5504,20.8046],[70.5854,20.7815],[70.6451,20.7632],[70.6768,20.7686],[70.6752,20.7705],[70.683,20.7841],[70.682,20.8011],[70.6763,20.8188],[70.679,20.844],[70.6942,20.883],[70.7176,20.9121],[70.7194,20.937],[70.7307,20.9601],[70.7338,20.9884],[70.7417,20.9901],[70.7555,20.9738],[70.768,20.962],[70.773,20.9612],[70.7793,20.967],[70.7935,20.9594],[70.8079,20.9644],[70.825,20.9604],[70.846,20.9706],[70.8513,20.9631],[70.8621,20.9608],[70.8802,20.9554],[70.8897,20.9359],[70.9016,20.9033],[70.9002,20.8857],[70.8843,20.8732],[70.8405,20.8578],[70.8503,20.8315],[70.8906,20.8329],[70.8939,20.7947],[70.8629,20.7818],[70.8544,20.7535],[70.8737,20.7271],[70.8737,20.7098],[70.8885,20.709],[70.8921,20.7082],[70.9049,20.7265],[70.9297,20.7319],[70.9485,20.7337],[70.9626,20.7294],[70.9912,20.746],[71.0349,20.7393],[71.0512,20.7318],[71.0804,20.7382],[71.086,20.7562],[71.1118,20.7607],[71.149,20.7574],[71.161,20.781],[71.2021,20.7885],[71.2107,20.8026],[71.2508,20.8137],[71.251,20.8139],[71.2511,20.814],[71.2381,20.8252],[71.2237,20.8692],[71.2041,20.8723],[71.2127,20.896],[71.1996,20.9112],[71.2262,20.9237],[71.2414,20.953],[71.2157,20.9731],[71.2074,20.9643],[71.1941,20.9625],[71.1603,20.9467],[71.1445,20.9594],[71.1505,20.9823],[71.1513,21.0053],[71.1655,21.0275],[71.1435,21.0723],[71.1167,21.0827],[71.0942,21.111],[71.0392,21.1446],[71.0224,21.1637],[70.9919,21.1603],[70.9108,21.1814],[70.8914,21.166],[70.843,21.1911],[70.8227,21.2263],[70.8281,21.2587],[70.815,21.2749],[70.8196,21.3193],[70.8419,21.3178],[70.8588,21.2994],[70.8844,21.3099],[70.8914,21.3294],[70.8877,21.3692],[70.9101,21.3896],[70.9319,21.3795],[70.9659,21.392],[70.9634,21.4163],[70.9472,21.424],[70.9415,21.457],[70.922,21.4559],[70.9046,21.4362],[70.8855,21.4596],[70.8501,21.4509],[70.8498,21.4867],[70.8283,21.4851],[70.8227,21.5082],[70.8635,21.5061],[70.8686,21.5261],[70.9054,21.522],[70.9115,21.5296],[70.8798,21.5954],[70.8465,21.6281],[70.8262,21.637],[70.8113,21.6597],[70.7951,21.6561],[70.7876,21.6383],[70.7503,21.635],[70.7392,21.6048],[70.713,21.6003],[70.7013,21.628],[70.66,21.6445],[70.6547,21.6302],[70.6302,21.6185],[70.5974,21.624],[70.5851,21.6132],[70.5633,21.6379],[70.5617,21.6682],[70.5257,21.6579],[70.5109,21.6411],[70.4775,21.6418],[70.4567,21.6517],[70.4114,21.641],[70.3875,21.6298],[70.3866,21.5907],[70.3222,21.5798],[70.3123,21.559],[70.315,21.5388],[70.2797,21.5187],[70.2662,21.5582],[70.2899,21.5695],[70.283,21.6055],[70.2655,21.6056],[70.2385,21.628],[70.1841,21.6039],[70.1603,21.6041],[70.1486,21.6293],[70.1718,21.6395],[70.1693,21.6538]]]]},"properties":{"NAME_1":"Gujarat","NAME_2":"Junagadh"}},{"type":"Feature","geometry":{"type":"MultiPolygon","coordinates":[[[[70.4485,23.0521],[70.4132,23.0165],[70.4246,22.9996],[70.4485,23.0521]]],[[[68.5582,23.3138],[68.541,23.2851],[68.5404,23.2665],[68.5724,23.261],[68.6149,23.2738],[68.6071,23.2985],[68.5646,23.3021],[68.5582,23.3138]]],[[[68.589,23.3743],[68.5707,23.3738],[68.5943,23.3388],[68.6165,23.3471],[68.589,23.3743]]],[[[68.4729,23.4804],[68.444,23.4665],[68.4618,23.4535],[68.4668,23.406],[68.4854,23.4046],[68.4946,23.4574],[68.4729,23.4804]]],[[[68.4821,23.5968],[68.4679,23.5915],[68.451,23.5651],[68.4343,23.5546],[68.4421,23.5349],[68.4662,23.5515],[68.4854,23.5751],[68.4821,23.5968]]],[[[68.4563,23.6249],[68.441,23.6035],[68.4665,23.6021],[68.4563,23.6249]]],[[[68.3585,23.8051],[68.3349,23.7588],[68.339,23.7329],[68.3146,23.7143],[68.3124,23.7024],[68.2813,23.6699],[68.2693,23.6499],[68.2074,23.6418],[68.1882,23.6285],[68.1874,23.611],[68.2198,23.5912],[68.264,23.6024],[68.2949,23.5788],[68.3468,23.5982],[68.3587,23.6276],[68.3907,23.6549],[68.4185,23.7288],[68.4157,23.7535],[68.426,23.796],[68.3979,23.7849],[68.3585,23.8051]]],[[[68.3079,23.8237],[68.2946,23.8193],[68.2976,23.8037],[68.2779,23.7968],[68.2643,23.7599],[68.2688,23.7515],[68.2654,23.7268],[68.2574,23.716],[68.2676,23.7049],[68.2999,23.7285],[68.3243,23.7343],[68.3154,23.7646],[68.3218,23.8032],[68.3126,23.8215],[68.3079,23.8237]]],[[[68.4965,23.831],[68.4576,23.8174],[68.4476,23.806],[68.4563,23.774],[68.4371,23.7432],[68.4876,23.7371],[68.5171,23.7551],[68.5221,23.7751],[68.5157,23.7793],[68.5124,23.7887],[68.5229,23.8037],[68.4965,23.831]]],[[[68.3957,23.8782],[68.3426,23.8365],[68.3538,23.8107],[68.4001,23.7896],[68.4249,23.8101],[68.4388,23.8343],[68.4168,23.8707],[68.3957,23.8782]]],[[[68.2482,23.8804],[68.2168,23.8676],[68.216,23.8476],[68.2335,23.8424],[68.251,23.8621],[68.2482,23.8804]]],[[[68.4493,23.9385],[68.4274,23.9335],[68.4201,23.921],[68.3863,23.9063],[68.356,23.9029],[68.3504,23.8913],[68.3557,23.8599],[68.3957,23.8796],[68.4171,23.8724],[68.4274,23.8651],[68.4521,23.8818],[68.4485,23.8929],[68.456,23.9343],[68.4493,23.9385]]],[[[68.5354,23.946],[68.5304,23.9171],[68.4868,23.891],[68.4904,23.8674],[68.5207,23.8568],[68.5393,23.8685],[68.5879,23.9215],[68.5615,23.9226],[68.5585,23.9232],[68.559,23.9285],[68.5571,23.9318],[68.5424,23.9338],[68.5354,23.946]]],[[[68.4821,23.9926],[68.4476,23.9807],[68.4282,23.9379],[68.4476,23.9396],[68.4607,23.9335],[68.4557,23.9288],[68.4538,23.8818],[68.4313,23.8532],[68.444,23.8485],[68.4729,23.8629],[68.4854,23.899],[68.5185,23.9243],[68.5174,23.9421],[68.4957,23.9596],[68.5018,23.9726],[68.4821,23.9926]]],[[[68.4301,23.9954],[68.3999,23.9676],[68.3743,23.9843],[68.3476,23.9629],[68.3424,23.9246],[68.3262,23.9143],[68.2835,23.9204],[68.2754,23.8985],[68.2585,23.8804],[68.2543,23.8587],[68.2346,23.836],[68.216,23.8363],[68.2093,23.811],[68.226,23.7626],[68.2057,23.7549],[68.1926,23.731],[68.2076,23.7068],[68.2385,23.681],[68.256,23.6796],[68.2671,23.6957],[68.2554,23.7118],[68.2657,23.7457],[68.2621,23.7601],[68.2743,23.7974],[68.2957,23.8043],[68.294,23.8207],[68.3063,23.8251],[68.3146,23.824],[68.3376,23.8193],[68.3363,23.8388],[68.3474,23.8596],[68.3424,23.8899],[68.3504,23.9085],[68.4026,23.9207],[68.4187,23.934],[68.4321,23.9596],[68.4301,23.9954]]],[[[71.3116,24.5466],[71.3204,24.5536],[71.3233,24.5786],[71.3138,24.5877],[71.2977,24.6076],[71.261,24.6205],[71.2415,24.6266],[71.2073,24.6395],[71.1716,24.6489],[71.1193,24.6686],[71.1071,24.6807],[71.085,24.6614],[71.0461,24.6388],[71.0205,24.6305],[71.0006,24.5992],[71.0034,24.5665],[70.9983,24.5413],[71.0153,24.5228],[71.0076,24.4422],[71.0286,24.4334],[71.0931,24.4359],[71.1189,24.431],[71.1341,24.4138],[71.1221,24.3909],[71.0883,24.3815],[71.0678,24.3571],[71.0472,24.3473],[71.013,24.3469],[70.9984,24.3606],[70.9597,24.3462],[70.9249,24.3172],[70.8851,24.2908],[70.8941,24.2571],[70.8537,24.2474],[70.8058,24.2227],[70.7258,24.2209],[70.6553,24.2251],[70.6138,24.2394],[70.5936,24.2403],[70.5724,24.2649],[70.5878,24.2854],[70.5735,24.2982],[70.5812,24.316],[70.5721,24.3445],[70.592,24.3586],[70.6115,24.4015],[70.5749,24.4203],[70.5316,24.41],[70.4831,24.3908],[70.4596,24.387],[70.3703,24.3535],[70.2969,24.3399],[70.2371,24.3173],[70.1505,24.3006],[70.1101,24.2849],[70.0773,24.2156],[70.0489,24.1835],[70.0241,24.1694],[69.9787,24.1651],[69.9123,24.1642],[69.8253,24.1675],[69.7246,24.1751],[69.6812,24.2051],[69.6007,24.2778],[69.5797,24.2704],[69.5012,24.255],[69.4316,24.2737],[69.3619,24.2662],[69.3103,24.2767],[69.2749,24.2688],[69.229,24.2512],[69.1998,24.2352],[69.0854,24.2683],[69.0137,24.2291],[68.9863,24.2263],[68.9706,24.2375],[68.9472,24.2766],[68.922,24.2586],[68.8979,24.1989],[68.8784,24.1969],[68.8477,24.2084],[68.8403,24.2282],[68.8264,24.3084],[68.7727,24.2941],[68.7641,24.2841],[68.7596,24.0358],[68.7509,24],[68.7492,23.962],[68.5471,23.9632],[68.5379,23.9454],[68.5446,23.9351],[68.5576,23.9329],[68.5599,23.9304],[68.5596,23.9238],[68.5796,23.9243],[68.5885,23.9224],[68.6076,23.9354],[68.6196,23.9163],[68.6135,23.9032],[68.5718,23.8801],[68.5507,23.8401],[68.5229,23.8171],[68.5254,23.8004],[68.5174,23.7938],[68.5163,23.7832],[68.5268,23.7712],[68.5251,23.759],[68.5346,23.7565],[68.5646,23.7979],[68.5746,23.8213],[68.5971,23.8396],[68.6451,23.8379],[68.6718,23.8615],[68.729,23.8549],[68.7271,23.8293],[68.6849,23.8204],[68.6532,23.7965],[68.6307,23.759],[68.604,23.7485],[68.5951,23.7318],[68.5565,23.7171],[68.5462,23.6968],[68.5279,23.6885],[68.5174,23.6621],[68.5007,23.6571],[68.4893,23.6351],[68.4865,23.596],[68.4951,23.5562],[68.4899,23.5396],[68.5049,23.4896],[68.5074,23.4626],[68.5313,23.4479],[68.5343,23.4235],[68.5587,23.4204],[68.5674,23.3785],[68.5915,23.3743],[68.6371,23.3438],[68.6315,23.296],[68.6407,23.2665],[68.6132,23.2279],[68.5851,23.2218],[68.6265,23.1868],[68.6524,23.1551],[68.7135,23.1185],[68.7624,23.0788],[68.8121,23.0607],[68.8846,23.0154],[68.9057,23.0065],[68.9876,22.956],[69.0446,22.9296],[69.1974,22.8385],[69.2668,22.824],[69.3187,22.8324],[69.3468,22.8204],[69.389,22.8143],[69.4465,22.7801],[69.4737,22.7735],[69.5235,22.7904],[69.5526,22.7857],[69.5682,22.7704],[69.5974,22.7596],[69.6215,22.7674],[69.6735,22.7571],[69.7113,22.7382],[69.7151,22.7515],[69.7468,22.7938],[69.7526,22.8199],[69.7979,22.8504],[69.8168,22.8521],[69.8657,22.8727],[69.9057,22.8662],[69.9512,22.8929],[69.9896,22.8999],[70.106,22.909],[70.1321,22.9246],[70.1393,22.9407],[70.1762,22.9513],[70.2087,22.9518],[70.2293,22.9771],[70.2518,22.9726],[70.2874,22.9454],[70.3046,22.9513],[70.3451,22.9304],[70.3838,22.9446],[70.3935,22.9632],[70.3971,23.026],[70.4293,23.0565],[70.4463,23.0651],[70.4935,23.0751],[70.4715,23.0124],[70.4365,22.9638],[70.4546,22.96],[70.4685,22.9578],[70.4757,22.9587],[70.5072,22.9578],[70.5267,22.9539],[70.5512,22.9546],[70.558,22.9683],[70.5628,22.9988],[70.5694,23.0156],[70.5772,23.0289],[70.5928,23.0331],[70.62,23.0577],[70.6382,23.0604],[70.6429,23.0629],[70.6471,23.0715],[70.656,23.0772],[70.6927,23.0929],[70.6993,23.0972],[70.7002,23.0971],[70.7,23.0989],[70.7122,23.1084],[70.7159,23.1103],[70.7207,23.1148],[70.7203,23.1172],[70.7467,23.131],[70.7659,23.1376],[70.7706,23.1332],[70.7784,23.1456],[70.786,23.1612],[70.7965,23.1547],[70.8048,23.1551],[70.8037,23.1438],[70.8139,23.1529],[70.8309,23.1524],[70.8264,23.1407],[70.8295,23.1297],[70.8442,23.1227],[70.8379,23.1035],[70.8412,23.0974],[70.8375,23.09],[70.8368,23.0786],[70.8421,23.0732],[70.8496,23.0919],[70.8479,23.104],[70.851,23.1047],[70.8553,23.1042],[70.8706,23.1225],[70.842,23.1432],[70.8486,23.1447],[70.8784,23.1324],[70.8891,23.1315],[70.8853,23.1169],[70.8926,23.1163],[70.8938,23.1198],[70.897,23.1277],[70.9037,23.1248],[70.9087,23.1244],[70.9024,23.1354],[70.9042,23.1444],[70.9041,23.1534],[70.9429,23.1543],[70.9537,23.1494],[70.9436,23.1303],[70.9577,23.1309],[70.963,23.1274],[70.9655,23.1329],[70.9691,23.1312],[70.9774,23.1343],[70.9659,23.1377],[70.9697,23.1438],[70.9628,23.151],[70.9643,23.1615],[70.9756,23.1681],[70.9749,23.1615],[70.9736,23.1514],[70.9842,23.1562],[70.9915,23.156],[70.997,23.1675],[71.0029,23.1677],[71.0135,23.1655],[71.0356,23.1697],[71.0583,23.1657],[71.087,23.1777],[71.1204,23.1965],[71.1263,23.1977],[71.1368,23.1983],[71.1587,23.1973],[71.171,23.1784],[71.2059,23.1861],[71.2226,23.171],[71.2265,23.152],[71.2496,23.1507],[71.2864,23.1566],[71.2937,23.1506],[71.2917,23.1636],[71.3013,23.1683],[71.3135,23.1784],[71.3171,23.1674],[71.3334,23.1831],[71.3466,23.1691],[71.3534,23.1654],[71.3578,23.1709],[71.3812,23.1612],[71.4005,23.1545],[71.4102,23.1517],[71.4599,23.1437],[71.4804,23.1424],[71.5068,23.1524],[71.5232,23.1553],[71.5452,23.1623],[71.5954,23.1374],[71.6051,23.134],[71.636,23.1417],[71.638,23.1471],[71.632,23.1588],[71.6417,23.1661],[71.6677,23.1617],[71.6992,23.1503],[71.7206,23.1473],[71.7273,23.1637],[71.7251,23.1739],[71.708,23.1813],[71.6951,23.1688],[71.68,23.1728],[71.6568,23.1803],[71.637,23.2011],[71.6291,23.226],[71.6431,23.2525],[71.6685,23.2789],[71.6759,23.2806],[71.6745,23.2906],[71.6592,23.2878],[71.6525,23.3147],[71.6554,23.3289],[71.6525,23.3351],[71.6354,23.354],[71.6282,23.3587],[71.6138,23.3535],[71.5989,23.3552],[71.5946,23.3859],[71.604,23.4109],[71.6053,23.4336],[71.597,23.4489],[71.5935,23.4522],[71.5743,23.4626],[71.5421,23.4628],[71.5393,23.4672],[71.5433,23.4777],[71.5207,23.4815],[71.527,23.4978],[71.5304,23.5035],[71.5309,23.5195],[71.5213,23.5196],[71.4902,23.4931],[71.4641,23.4693],[71.457,23.4764],[71.4601,23.5349],[71.467,23.5583],[71.4328,23.5631],[71.4304,23.5666],[71.4296,23.5809],[71.4319,23.5938],[71.4326,23.6235],[71.4044,23.5996],[71.393,23.6312],[71.3888,23.6455],[71.354,23.6503],[71.3145,23.642],[71.2844,23.6457],[71.2646,23.6477],[71.2342,23.656],[71.2323,23.6677],[71.2315,23.6806],[71.2348,23.689],[71.2313,23.6999],[71.2354,23.7081],[71.2209,23.7275],[71.2126,23.7298],[71.1999,23.7329],[71.1708,23.7241],[71.1583,23.7206],[71.1595,23.7122],[71.1739,23.714],[71.1864,23.7082],[71.1857,23.6996],[71.1686,23.6859],[71.1621,23.6724],[71.1535,23.6605],[71.1491,23.6345],[71.1511,23.6237],[71.086,23.597],[71.0754,23.6103],[71.0718,23.6139],[71.0498,23.6312],[71.0493,23.6603],[71.0804,23.6799],[71.0793,23.6884],[71.0711,23.7033],[71.0762,23.7146],[71.0765,23.7218],[71.081,23.7282],[71.0731,23.7353],[71.0671,23.7459],[71.0691,23.798],[71.0766,23.8055],[71.0785,23.8116],[71.0804,23.8182],[71.076,23.8344],[71.0829,23.8398],[71.1115,23.8954],[71.1414,23.9021],[71.1554,23.9044],[71.1923,23.9187],[71.2027,23.9142],[71.2169,23.9231],[71.2504,23.9127],[71.2592,23.9239],[71.2711,23.9198],[71.2751,23.9167],[71.2825,23.9184],[71.3014,23.9212],[71.3095,23.9241],[71.3096,23.9276],[71.3014,23.9442],[71.3131,23.9482],[71.3076,23.9601],[71.323,23.9819],[71.3088,23.982],[71.2982,23.9857],[71.2966,23.9936],[71.3355,24.05],[71.3265,24.0649],[71.3274,24.0677],[71.3374,24.0861],[71.3538,24.1058],[71.3464,24.1286],[71.3278,24.1261],[71.3249,24.1296],[71.3124,24.1288],[71.289,24.1327],[71.2956,24.1438],[71.3,24.1476],[71.2863,24.1568],[71.2971,24.1711],[71.3029,24.1688],[71.3149,24.1617],[71.3232,24.1506],[71.333,24.1435],[71.3464,24.1501],[71.3428,24.1581],[71.3632,24.1633],[71.3661,24.1658],[71.3708,24.1709],[71.3776,24.1704],[71.3795,24.1822],[71.379,24.186],[71.366,24.1853],[71.3584,24.1848],[71.3507,24.1768],[71.3341,24.1978],[71.3221,24.2248],[71.3089,24.2311],[71.3134,24.2342],[71.3231,24.2343],[71.3189,24.2494],[71.3191,24.2756],[71.3201,24.2808],[71.3154,24.2989],[71.3296,24.3124],[71.3347,24.3157],[71.3577,24.3238],[71.3736,24.323],[71.3776,24.326],[71.3885,24.331],[71.404,24.347],[71.3995,24.3601],[71.3914,24.3886],[71.3789,24.3856],[71.3604,24.3885],[71.3396,24.3904],[71.3394,24.3989],[71.353,24.4205],[71.3571,24.4277],[71.3595,24.4303],[71.3378,24.4385],[71.3528,24.4674],[71.3546,24.4747],[71.3492,24.4811],[71.3579,24.4937],[71.3582,24.5128],[71.3209,24.5138],[71.277,24.5041],[71.2688,24.5068],[71.2699,24.5299],[71.301,24.5421],[71.3031,24.5461],[71.3116,24.5466]]]]},"properties":{"NAME_1":"Gujarat","NAME_2":"Kachchh"}},{"type":"Feature","geometry":{"type":"Polygon","coordinates":[[[73.5306,23.2866],[73.4805,23.272],[73.4577,23.2837],[73.3994,23.2527],[73.3803,23.238],[73.3884,23.2213],[73.3488,23.2016],[73.3549,23.1834],[73.3814,23.1735],[73.3789,23.1392],[73.3461,23.1297],[73.3483,23.0996],[73.3345,23.0831],[73.3017,23.0822],[73.2793,23.0594],[73.2517,23.0718],[73.2306,23.1061],[73.2187,23.1103],[73.2117,23.1451],[73.1795,23.1424],[73.1645,23.1594],[73.1631,23.1898],[73.1431,23.2056],[73.1249,23.186],[73.0747,23.1614],[73.0214,23.1609],[73.0268,23.129],[73.0065,23.1354],[72.9875,23.1287],[72.9691,23.0743],[72.9348,23.0771],[72.9041,23.0209],[72.8797,23.0074],[72.8538,23.0112],[72.8479,22.9928],[72.8504,22.965],[72.8362,22.9535],[72.818,22.9417],[72.8083,22.9304],[72.807,22.9183],[72.7807,22.9086],[72.754,22.9067],[72.7404,22.9128],[72.7005,22.8791],[72.6803,22.8841],[72.6669,22.8938],[72.6448,22.8864],[72.6407,22.8821],[72.6165,22.8845],[72.6118,22.8381],[72.6186,22.8159],[72.5905,22.8202],[72.5696,22.8181],[72.5587,22.8057],[72.5472,22.8034],[72.5308,22.7873],[72.5289,22.7794],[72.5391,22.7716],[72.5385,22.7647],[72.5367,22.7595],[72.5329,22.7521],[72.5411,22.7458],[72.5365,22.7281],[72.5482,22.7098],[72.5325,22.7097],[72.5275,22.7033],[72.5329,22.6964],[72.5514,22.6879],[72.5397,22.6814],[72.5583,22.6708],[72.5527,22.6538],[72.5424,22.6432],[72.5451,22.6295],[72.5309,22.6298],[72.5241,22.6314],[72.5163,22.6235],[72.5222,22.6116],[72.5431,22.5844],[72.5426,22.568],[72.5637,22.5653],[72.5666,22.5415],[72.5759,22.5395],[72.5811,22.5208],[72.5951,22.4987],[72.6203,22.509],[72.6357,22.506],[72.6484,22.5017],[72.6584,22.5064],[72.6646,22.4992],[72.6803,22.5043],[72.6755,22.5263],[72.6539,22.5261],[72.6595,22.5468],[72.6805,22.564],[72.7,22.6039],[72.698,22.625],[72.7338,22.6264],[72.7506,22.6437],[72.7676,22.6336],[72.8039,22.6388],[72.8318,22.6052],[72.8563,22.5968],[72.8823,22.6177],[72.8816,22.5808],[72.9287,22.5942],[72.9408,22.6251],[72.9773,22.6345],[72.9951,22.6567],[73.0116,22.7153],[73.0366,22.733],[73.0606,22.7364],[73.064,22.7169],[73.1052,22.7261],[73.1376,22.7218],[73.1682,22.6813],[73.2107,22.6819],[73.2124,22.6551],[73.2367,22.6344],[73.2691,22.6577],[73.2751,22.6753],[73.2597,22.7159],[73.2654,22.7629],[73.2872,22.7795],[73.3264,22.7811],[73.3569,22.79],[73.3927,22.8522],[73.3741,22.8868],[73.3775,22.9002],[73.4249,22.9371],[73.457,22.9692],[73.4419,23.0016],[73.4409,23.0286],[73.42,23.03],[73.422,23.0811],[73.4294,23.1],[73.3804,23.1091],[73.3885,23.1337],[73.4351,23.1567],[73.503,23.1534],[73.5489,23.1929],[73.5722,23.1938],[73.5486,23.2259],[73.581,23.2504],[73.5763,23.2747],[73.5575,23.2725],[73.5401,23.2507],[73.5285,23.2693],[73.5306,23.2866]]]},"properties":{"NAME_1":"Gujarat","NAME_2":"Kheda"}},{"type":"Feature","geometry":{"type":"Polygon","coordinates":[[[72.8703,24.016],[72.8562,24.0374],[72.8268,24.0349],[72.7973,24.0813],[72.7545,24.0675],[72.7406,24.0837],[72.6609,24.0533],[72.6466,24.0663],[72.6286,24.04],[72.6452,24.0258],[72.6509,23.9887],[72.634,23.9898],[72.593,23.9708],[72.5938,23.9485],[72.572,23.9313],[72.5279,23.9391],[72.4848,23.929],[72.477,23.892],[72.4882,23.8537],[72.5336,23.8487],[72.5175,23.8019],[72.5225,23.7885],[72.4997,23.7661],[72.4729,23.764],[72.461,23.775],[72.4403,23.7699],[72.4331,23.7318],[72.4108,23.7425],[72.3913,23.731],[72.3528,23.7334],[72.3298,23.7074],[72.3478,23.6876],[72.34,23.6734],[72.3161,23.6676],[72.3082,23.6331],[72.2805,23.6339],[72.2391,23.6263],[72.2206,23.6034],[72.201,23.6067],[72.1891,23.6742],[72.1749,23.6807],[72.1553,23.6676],[72.1488,23.6502],[72.1488,23.6024],[72.1249,23.5893],[72.1042,23.5686],[72.0835,23.5708],[72.0683,23.6002],[72.0541,23.6121],[72.0324,23.6067],[72.0073,23.5839],[71.9672,23.5738],[71.9786,23.529],[71.9917,23.5085],[72.0087,23.5013],[72.0434,23.503],[72.0393,23.4827],[72.0456,23.4552],[72.0619,23.4414],[72.107,23.4567],[72.1801,23.4354],[72.1961,23.4108],[72.2183,23.4291],[72.253,23.437],[72.2704,23.4585],[72.2926,23.4371],[72.3064,23.4118],[72.2958,23.3903],[72.2696,23.3681],[72.2725,23.3444],[72.2487,23.3213],[72.2167,23.3064],[72.2072,23.2749],[72.1872,23.2723],[72.1933,23.2132],[72.1786,23.1933],[72.1962,23.1419],[72.1745,23.1375],[72.1722,23.1016],[72.1988,23.1028],[72.2061,23.1146],[72.231,23.1201],[72.2686,23.1026],[72.2685,23.0857],[72.2945,23.0728],[72.3026,23.0387],[72.3292,23.0531],[72.3148,23.0837],[72.3244,23.1002],[72.3447,23.1059],[72.3517,23.1236],[72.3828,23.1026],[72.413,23.1293],[72.3936,23.1675],[72.422,23.186],[72.4255,23.2026],[72.448,23.2043],[72.4379,23.2321],[72.4546,23.2515],[72.4315,23.2565],[72.4227,23.2798],[72.4331,23.3005],[72.4743,23.2986],[72.495,23.3377],[72.5286,23.3495],[72.5123,23.3842],[72.5291,23.3999],[72.5318,23.4191],[72.5622,23.4266],[72.5726,23.406],[72.6086,23.41],[72.6207,23.3851],[72.6482,23.3714],[72.6752,23.3909],[72.7065,23.3751],[72.733,23.3856],[72.7386,23.3975],[72.8027,23.4226],[72.8245,23.4609],[72.8216,23.4781],[72.8362,23.54],[72.8174,23.5553],[72.8134,23.5821],[72.8467,23.6022],[72.8236,23.6333],[72.8393,23.6693],[72.8034,23.7394],[72.8008,23.7616],[72.8142,23.7924],[72.7955,23.8175],[72.7938,23.8327],[72.8078,23.879],[72.806,23.9073],[72.8278,23.9225],[72.8211,23.9444],[72.8576,23.9787],[72.8599,24.0088],[72.8703,24.016]]]},"properties":{"NAME_1":"Gujarat","NAME_2":"Mahesana"}},{"type":"Feature","geometry":{"type":"Polygon","coordinates":[[[73.9492,21.8703],[73.9384,21.8901],[73.923,21.8929],[73.8982,21.9256],[73.8786,21.9224],[73.8644,21.9512],[73.8139,21.9284],[73.7851,21.9466],[73.7905,21.9605],[73.7574,21.9622],[73.729,21.9811],[73.6814,21.9659],[73.6922,21.9481],[73.6897,21.9159],[73.6599,21.9077],[73.6284,21.9095],[73.6118,21.898],[73.5994,21.9249],[73.5982,21.945],[73.5538,21.979],[73.514,21.9636],[73.4777,21.9779],[73.4582,21.9768],[73.4498,21.9603],[73.4527,21.9361],[73.4401,21.9148],[73.4094,21.9114],[73.3737,21.9283],[73.3596,21.9162],[73.3605,21.8829],[73.3336,21.8749],[73.3073,21.89],[73.3143,21.8541],[73.309,21.8328],[73.3412,21.8346],[73.3463,21.8092],[73.3748,21.8011],[73.3839,21.7798],[73.4011,21.7739],[73.4157,21.7474],[73.4101,21.7274],[73.4181,21.7102],[73.4736,21.7195],[73.4958,21.7037],[73.4987,21.6757],[73.4827,21.6559],[73.4946,21.639],[73.4912,21.6107],[73.4582,21.5698],[73.448,21.5429],[73.4583,21.5233],[73.4866,21.4937],[73.5453,21.476],[73.5689,21.4727],[73.6024,21.4836],[73.6225,21.4716],[73.6612,21.4788],[73.6829,21.4736],[73.7028,21.4262],[73.7027,21.3985],[73.7521,21.4106],[73.7886,21.4125],[73.8242,21.4009],[73.847,21.4246],[73.8906,21.4515],[73.9241,21.4483],[73.9513,21.4603],[73.9769,21.4616],[73.9875,21.5224],[73.9376,21.5207],[73.8608,21.4958],[73.8499,21.511],[73.8338,21.5535],[73.8245,21.5983],[73.8068,21.6024],[73.7876,21.625],[73.829,21.6398],[73.8452,21.6332],[73.8856,21.6451],[73.8981,21.6673],[73.8902,21.7106],[73.8464,21.742],[73.8312,21.7629],[73.8429,21.7721],[73.8276,21.8119],[73.8105,21.8233],[73.8415,21.8385],[73.8796,21.8386],[73.8995,21.8545],[73.9219,21.8566],[73.9492,21.8703]]]},"properties":{"NAME_1":"Gujarat","NAME_2":"Narmada"}},{"type":"Feature","geometry":{"type":"Polygon","coordinates":[[[73.507,20.8187],[73.4961,20.8148],[73.4832,20.8177],[73.4627,20.8132],[73.4034,20.8286],[73.393,20.8249],[73.3632,20.8461],[73.353,20.8622],[73.3201,20.8818],[73.3134,20.8591],[73.3113,20.817],[73.2663,20.8176],[73.2582,20.8486],[73.2069,20.8601],[73.1943,20.8842],[73.1738,20.9008],[73.1347,20.8971],[73.1358,20.9205],[73.1032,20.9363],[73.0946,20.9668],[73.0813,20.9712],[73.0522,21.0053],[73.0226,21.0175],[73.0275,21.0583],[72.9604,21.0642],[72.9362,21.0427],[72.9175,21.0432],[72.9015,21.0586],[72.8531,21.0274],[72.8177,21.032],[72.8014,21.0422],[72.7606,21.0262],[72.7421,21.0493],[72.7237,21.0362],[72.754,20.9429],[72.7857,20.9221],[72.7918,20.8965],[72.8388,20.7988],[72.8346,20.7818],[72.8568,20.766],[72.874,20.7343],[72.9062,20.7352],[72.941,20.734],[72.9652,20.7189],[72.9736,20.7242],[72.9782,20.7424],[72.9831,20.7424],[73.0099,20.7274],[73.0462,20.7027],[73.0581,20.6601],[73.0847,20.6514],[73.0763,20.6303],[73.0842,20.5998],[73.1651,20.6059],[73.21,20.5907],[73.2248,20.6036],[73.255,20.5936],[73.2693,20.5813],[73.2878,20.5844],[73.3262,20.6024],[73.3931,20.6137],[73.416,20.6262],[73.4036,20.6524],[73.4399,20.6648],[73.4565,20.6934],[73.4587,20.7143],[73.4752,20.7217],[73.4748,20.7409],[73.4831,20.7482],[73.4975,20.755],[73.5009,20.7603],[73.4964,20.7826],[73.5002,20.803],[73.504,20.8099],[73.507,20.8187]]]},"properties":{"NAME_1":"Gujarat","NAME_2":"Navsari"}},{"type":"Feature","geometry":{"type":"Polygon","coordinates":[[[73.7261,23.4127],[73.7172,23.4188],[73.7042,23.4558],[73.6687,23.4519],[73.6532,23.4405],[73.6328,23.4524],[73.6377,23.425],[73.6185,23.3916],[73.6006,23.3836],[73.5709,23.3484],[73.5597,23.3186],[73.5306,23.2866],[73.5285,23.2693],[73.5401,23.2507],[73.5575,23.2725],[73.5763,23.2747],[73.581,23.2504],[73.5486,23.2259],[73.5722,23.1938],[73.5489,23.1929],[73.503,23.1534],[73.4351,23.1567],[73.3885,23.1337],[73.3804,23.1091],[73.4294,23.1],[73.422,23.0811],[73.42,23.03],[73.4409,23.0286],[73.4419,23.0016],[73.457,22.9692],[73.4249,22.9371],[73.3775,22.9002],[73.3741,22.8868],[73.3927,22.8522],[73.3569,22.79],[73.3679,22.7686],[73.386,22.7575],[73.392,22.8076],[73.4275,22.7833],[73.4328,22.7591],[73.3921,22.7392],[73.3906,22.7161],[73.3984,22.6846],[73.4103,22.6852],[73.4217,22.6599],[73.3951,22.6413],[73.3778,22.6465],[73.3714,22.6252],[73.3921,22.6232],[73.3794,22.5539],[73.4264,22.5483],[73.4132,22.5066],[73.4298,22.4925],[73.4371,22.4572],[73.4286,22.4273],[73.4527,22.4112],[73.4461,22.3984],[73.4668,22.3789],[73.472,22.3584],[73.4914,22.3467],[73.556,22.3425],[73.5716,22.3277],[73.636,22.3238],[73.6242,22.3603],[73.6492,22.3855],[73.6886,22.3728],[73.7096,22.3585],[73.7005,22.3377],[73.6642,22.3358],[73.653,22.2999],[73.6677,22.286],[73.7046,22.2865],[73.73,22.3138],[73.7346,22.3361],[73.7591,22.3465],[73.7761,22.3876],[73.7433,22.3908],[73.7379,22.4144],[73.7471,22.4394],[73.7343,22.4556],[73.6874,22.4661],[73.6799,22.4976],[73.6502,22.5009],[73.6266,22.4782],[73.5957,22.4859],[73.5866,22.5265],[73.5899,22.5463],[73.5768,22.5683],[73.6215,22.5966],[73.61,22.6206],[73.64,22.6473],[73.6515,22.6678],[73.666,22.6607],[73.6954,22.6664],[73.687,22.6974],[73.691,22.7164],[73.7271,22.7001],[73.7468,22.707],[73.7375,22.7549],[73.7561,22.7811],[73.7842,22.7905],[73.8309,22.7905],[73.8443,22.8245],[73.8445,22.8456],[73.8691,22.8413],[73.8855,22.8687],[73.8882,22.9036],[73.9111,22.9356],[73.8945,22.9443],[73.9147,22.9675],[73.91,23.0487],[73.8641,23.0612],[73.8402,23.0924],[73.808,23.1092],[73.7783,23.0771],[73.732,23.0642],[73.7193,23.0529],[73.647,23.0204],[73.6376,23.045],[73.6578,23.0663],[73.6786,23.1049],[73.7053,23.1124],[73.6989,23.1532],[73.7173,23.1625],[73.7335,23.1887],[73.7351,23.2199],[73.7562,23.2357],[73.7406,23.2704],[73.7233,23.2611],[73.7019,23.2703],[73.718,23.2883],[73.697,23.3275],[73.6962,23.3557],[73.7066,23.3752],[73.6994,23.3924],[73.7261,23.4127]]]},"properties":{"NAME_1":"Gujarat","NAME_2":"Panch Mahals"}},{"type":"Feature","geometry":{"type":"Polygon","coordinates":[[[72.4848,23.929],[72.4783,23.959],[72.4336,23.9776],[72.4161,23.969],[72.3725,23.9695],[72.3608,24.0235],[72.314,24.031],[72.3057,24.0435],[72.2811,24.0461],[72.2665,24.0706],[72.2377,24.0634],[72.2235,24.1022],[72.2337,24.128],[72.2036,24.1183],[72.1941,24.1018],[72.1665,24.1133],[72.1637,24.1358],[72.1374,24.1382],[72.1254,24.1188],[72.161,24.1123],[72.1716,24.0725],[72.1329,24.038],[72.1054,24.0455],[72.0737,24.0183],[72.0384,24.0526],[72.0228,24.0376],[72.0274,24.016],[72.0549,23.9955],[72.0438,23.9801],[72.0023,23.9829],[71.9923,23.9949],[71.9714,23.9908],[71.9604,24.0055],[71.9388,24.0079],[71.9359,23.9758],[71.9528,23.9617],[71.9374,23.9501],[71.9534,23.9192],[71.981,23.9021],[71.9806,23.8895],[71.8765,23.8676],[71.8668,23.846],[71.838,23.8435],[71.8168,23.8516],[71.7794,23.8364],[71.7624,23.8383],[71.7278,23.8618],[71.7182,23.8783],[71.7257,23.9229],[71.7058,23.9312],[71.6969,23.9624],[71.6782,23.9669],[71.6107,23.9397],[71.5952,23.963],[71.5577,23.9923],[71.5475,23.9755],[71.4982,23.972],[71.5021,24.0093],[71.473,24.0065],[71.4531,23.9786],[71.4546,23.9367],[71.4239,23.9219],[71.4051,23.9581],[71.3835,23.9485],[71.3748,23.9618],[71.3432,23.9636],[71.3264,23.9769],[71.3231,23.9729],[71.3101,23.9629],[71.3076,23.9601],[71.3131,23.9482],[71.3014,23.9442],[71.3096,23.9276],[71.3095,23.9241],[71.3014,23.9212],[71.2825,23.9184],[71.2751,23.9167],[71.2711,23.9198],[71.2592,23.9239],[71.2504,23.9127],[71.2169,23.9231],[71.2027,23.9142],[71.1923,23.9187],[71.1554,23.9044],[71.1414,23.9021],[71.1115,23.8954],[71.0829,23.8398],[71.076,23.8344],[71.0804,23.8182],[71.0785,23.8116],[71.0766,23.8055],[71.0691,23.798],[71.0671,23.7459],[71.0731,23.7353],[71.081,23.7282],[71.0765,23.7218],[71.0762,23.7146],[71.0711,23.7033],[71.0793,23.6884],[71.0804,23.6799],[71.0493,23.6603],[71.0498,23.6312],[71.0718,23.6139],[71.0754,23.6103],[71.086,23.597],[71.1511,23.6237],[71.1491,23.6345],[71.1535,23.6605],[71.1621,23.6724],[71.1686,23.6859],[71.1857,23.6996],[71.1864,23.7082],[71.1739,23.714],[71.1595,23.7122],[71.1583,23.7206],[71.1708,23.7241],[71.1999,23.7329],[71.2126,23.7298],[71.2209,23.7275],[71.2354,23.7081],[71.2313,23.6999],[71.2348,23.689],[71.2315,23.6806],[71.2323,23.6677],[71.2342,23.656],[71.2646,23.6477],[71.2844,23.6457],[71.3145,23.642],[71.354,23.6503],[71.3888,23.6455],[71.393,23.6312],[71.4044,23.5996],[71.4326,23.6235],[71.4319,23.5938],[71.4296,23.5809],[71.4304,23.5666],[71.4328,23.5631],[71.467,23.5583],[71.4601,23.5349],[71.457,23.4764],[71.4641,23.4693],[71.4902,23.4931],[71.5213,23.5196],[71.5309,23.5195],[71.5304,23.5035],[71.527,23.4978],[71.5207,23.4815],[71.5433,23.4777],[71.5756,23.4946],[71.6209,23.5001],[71.6502,23.4926],[71.7167,23.4847],[71.7401,23.4727],[71.7776,23.4675],[71.7881,23.4547],[71.7703,23.415],[71.7783,23.4016],[71.8082,23.3974],[71.845,23.419],[71.8586,23.4358],[71.8731,23.4723],[71.9202,23.4954],[71.9512,23.5044],[71.954,23.5175],[71.9786,23.529],[71.9672,23.5738],[72.0073,23.5839],[72.0324,23.6067],[72.0541,23.6121],[72.0683,23.6002],[72.0835,23.5708],[72.1042,23.5686],[72.1249,23.5893],[72.1488,23.6024],[72.1488,23.6502],[72.1553,23.6676],[72.1749,23.6807],[72.1891,23.6742],[72.201,23.6067],[72.2206,23.6034],[72.2391,23.6263],[72.2805,23.6339],[72.3082,23.6331],[72.3161,23.6676],[72.34,23.6734],[72.3478,23.6876],[72.3298,23.7074],[72.3528,23.7334],[72.3913,23.731],[72.4108,23.7425],[72.4331,23.7318],[72.4403,23.7699],[72.461,23.775],[72.4729,23.764],[72.4997,23.7661],[72.5225,23.7885],[72.5175,23.8019],[72.5336,23.8487],[72.4882,23.8537],[72.477,23.892],[72.4848,23.929]]]},"properties":{"NAME_1":"Gujarat","NAME_2":"Patan"}},{"type":"Feature","geometry":{"type":"Polygon","coordinates":[[[69.7307,21.9165],[69.7318,21.9221],[69.7421,21.9251],[69.7394,21.9645],[69.7123,21.9674],[69.707,21.9484],[69.6749,21.9443],[69.6802,21.9116],[69.6571,21.9077],[69.6525,21.9118],[69.641,21.9303],[69.6046,21.9344],[69.5676,21.9121],[69.5595,21.8806],[69.5297,21.8889],[69.5123,21.8828],[69.5139,21.844],[69.4736,21.8398],[69.4609,21.8622],[69.4359,21.8669],[69.4162,21.8554],[69.4091,21.8056],[69.3962,21.8018],[69.4343,21.7657],[69.4707,21.741],[69.5315,21.6818],[69.584,21.6379],[69.6021,21.6374],[69.6732,21.5651],[69.7063,21.5387],[69.7249,21.5699],[69.7046,21.5896],[69.7124,21.6099],[69.6915,21.6296],[69.6976,21.6443],[69.7246,21.6324],[69.7438,21.636],[69.7643,21.5788],[69.7129,21.5285],[69.7699,21.4671],[69.9988,21.2074],[70.0095,21.2236],[70.025,21.233],[70.0348,21.2535],[70.0512,21.2668],[70.0325,21.2729],[70.0232,21.2831],[70.0049,21.2852],[69.9972,21.3279],[69.9803,21.3342],[69.9765,21.3399],[69.966,21.3602],[69.9732,21.3745],[70.0057,21.4266],[70.0409,21.4338],[70.0525,21.4262],[70.073,21.4461],[70.0646,21.4642],[70.0227,21.4642],[70.0037,21.5218],[70.0256,21.5346],[69.9898,21.5833],[70.0084,21.5919],[70.015,21.5696],[70.0416,21.5842],[70.0681,21.5861],[70.0548,21.6267],[70.0764,21.627],[70.1118,21.6376],[70.1433,21.6709],[70.1693,21.6538],[70.1658,21.6733],[70.1406,21.6973],[70.1109,21.6949],[70.0966,21.7241],[70.0776,21.6933],[70.0622,21.6887],[70.0431,21.6994],[70.0414,21.7364],[70.0304,21.7487],[70.0316,21.7923],[70.0123,21.7994],[69.9682,21.7846],[69.9555,21.7714],[69.9037,21.7582],[69.8901,21.7453],[69.8862,21.7259],[69.883,21.7232],[69.8693,21.7212],[69.8399,21.7353],[69.833,21.7579],[69.8379,21.8131],[69.8217,21.8136],[69.7905,21.8108],[69.763,21.8217],[69.7582,21.8183],[69.7485,21.8085],[69.7374,21.7831],[69.7302,21.7854],[69.7194,21.7981],[69.7114,21.8087],[69.7001,21.8087],[69.6807,21.8242],[69.6606,21.8223],[69.6569,21.7974],[69.6402,21.7924],[69.6374,21.7969],[69.6372,21.8197],[69.6332,21.8247],[69.6349,21.8531],[69.6501,21.8577],[69.6559,21.8586],[69.6708,21.8601],[69.6915,21.8822],[69.6943,21.9145],[69.7051,21.9153],[69.7307,21.9165]]]},"properties":{"NAME_1":"Gujarat","NAME_2":"Porbandar"}},{"type":"Feature","geometry":{"type":"Polygon","coordinates":[[[71.0583,23.1657],[71.0356,23.1697],[71.0135,23.1655],[71.0029,23.1677],[70.997,23.1675],[70.9915,23.156],[70.9842,23.1562],[70.9736,23.1514],[70.9749,23.1615],[70.9756,23.1681],[70.9643,23.1615],[70.9628,23.151],[70.9697,23.1438],[70.9659,23.1377],[70.9774,23.1343],[70.9691,23.1312],[70.9655,23.1329],[70.963,23.1274],[70.9577,23.1309],[70.9436,23.1303],[70.9537,23.1494],[70.9429,23.1543],[70.9041,23.1534],[70.9042,23.1444],[70.9024,23.1354],[70.9087,23.1244],[70.9037,23.1248],[70.897,23.1277],[70.8938,23.1198],[70.8926,23.1163],[70.8853,23.1169],[70.8891,23.1315],[70.8784,23.1324],[70.8486,23.1447],[70.842,23.1432],[70.8706,23.1225],[70.8553,23.1042],[70.851,23.1047],[70.8479,23.104],[70.8496,23.0919],[70.8421,23.0732],[70.8368,23.0786],[70.8375,23.09],[70.8412,23.0974],[70.8379,23.1035],[70.8442,23.1227],[70.8295,23.1297],[70.8264,23.1407],[70.8309,23.1524],[70.8139,23.1529],[70.8037,23.1438],[70.8048,23.1551],[70.7965,23.1547],[70.786,23.1612],[70.7784,23.1456],[70.7706,23.1332],[70.7659,23.1376],[70.7467,23.131],[70.7203,23.1172],[70.7207,23.1148],[70.7159,23.1103],[70.7122,23.1084],[70.7,23.0989],[70.7002,23.0971],[70.6993,23.0972],[70.6927,23.0929],[70.656,23.0772],[70.6471,23.0715],[70.6429,23.0629],[70.6382,23.0604],[70.62,23.0577],[70.5928,23.0331],[70.5772,23.0289],[70.5694,23.0156],[70.5628,22.9988],[70.558,22.9683],[70.5512,22.9546],[70.5402,22.9466],[70.5499,22.9244],[70.5954,22.9082],[70.6205,22.8737],[70.6387,22.8707],[70.6616,22.8526],[70.6771,22.8279],[70.6583,22.816],[70.664,22.7802],[70.631,22.758],[70.6398,22.7206],[70.6592,22.7022],[70.6277,22.6815],[70.6312,22.6465],[70.6182,22.6309],[70.5907,22.6246],[70.5885,22.6098],[70.5667,22.5646],[70.5746,22.5333],[70.5964,22.5422],[70.6161,22.5216],[70.5874,22.5133],[70.5798,22.5233],[70.5539,22.5221],[70.5436,22.5053],[70.5522,22.4883],[70.5923,22.5031],[70.6029,22.4794],[70.5584,22.4706],[70.5518,22.4502],[70.513,22.4675],[70.5169,22.4463],[70.4973,22.4458],[70.4776,22.4321],[70.4864,22.4172],[70.5212,22.4198],[70.4919,22.3688],[70.5243,22.3545],[70.5455,22.3335],[70.5152,22.3149],[70.487,22.3154],[70.51,22.2898],[70.5396,22.2387],[70.5643,22.2234],[70.5927,22.2316],[70.602,22.203],[70.6025,22.1614],[70.5795,22.1367],[70.6013,22.0972],[70.5744,22.0886],[70.566,22.0414],[70.5863,22.0293],[70.5538,21.999],[70.518,21.9907],[70.5191,22.0103],[70.5368,22.0119],[70.5454,22.0387],[70.5135,22.0477],[70.4726,22.0437],[70.4716,22.0302],[70.434,22.0216],[70.3926,22.039],[70.3482,22.0412],[70.3458,22.0102],[70.3181,22.0051],[70.2971,21.9893],[70.2787,21.9864],[70.2717,21.96],[70.2359,21.9571],[70.2356,21.8999],[70.2156,21.8852],[70.1985,21.8864],[70.1873,21.9283],[70.1653,21.9328],[70.1602,21.8857],[70.1482,21.8569],[70.1186,21.8394],[70.1044,21.8113],[70.1111,21.7918],[70.0795,21.791],[70.0517,21.7828],[70.0883,21.7426],[70.0966,21.7241],[70.1109,21.6949],[70.1406,21.6973],[70.1658,21.6733],[70.1693,21.6538],[70.1718,21.6395],[70.1486,21.6293],[70.1603,21.6041],[70.1841,21.6039],[70.2385,21.628],[70.2655,21.6056],[70.283,21.6055],[70.2899,21.5695],[70.2662,21.5582],[70.2797,21.5187],[70.315,21.5388],[70.3123,21.559],[70.3222,21.5798],[70.3866,21.5907],[70.3875,21.6298],[70.4114,21.641],[70.4567,21.6517],[70.4775,21.6418],[70.5109,21.6411],[70.5257,21.6579],[70.5617,21.6682],[70.5633,21.6379],[70.5851,21.6132],[70.5974,21.624],[70.6302,21.6185],[70.6547,21.6302],[70.66,21.6445],[70.7013,21.628],[70.713,21.6003],[70.7392,21.6048],[70.7503,21.635],[70.7876,21.6383],[70.7951,21.6561],[70.8113,21.6597],[70.8191,21.7071],[70.7978,21.7251],[70.8434,21.7377],[70.9027,21.7293],[70.9113,21.7585],[70.936,21.7572],[70.952,21.7401],[70.9817,21.745],[70.9941,21.7248],[71.0487,21.7363],[71.0634,21.7513],[71.068,21.7827],[71.0589,21.7988],[71.0636,21.8183],[71.0997,21.8181],[71.1251,21.8486],[71.1198,21.8651],[71.0754,21.8441],[71.051,21.8599],[71.0751,21.8764],[71.075,21.8986],[71.1313,21.9144],[71.1391,21.9329],[71.2163,21.9694],[71.2141,21.9957],[71.2628,22.0051],[71.2736,21.996],[71.267,21.9686],[71.2798,21.9528],[71.3085,21.9559],[71.3119,21.97],[71.2895,22.0126],[71.322,22.038],[71.3438,22.0217],[71.3435,22.0022],[71.359,21.9809],[71.3943,21.9814],[71.4068,21.9744],[71.4738,22.0027],[71.4685,22.0267],[71.5183,22.0497],[71.5096,22.0704],[71.5142,22.1075],[71.4996,22.1283],[71.4837,22.1335],[71.4926,22.1808],[71.444,22.207],[71.4714,22.2267],[71.4724,22.2427],[71.4472,22.2573],[71.4349,22.2288],[71.403,22.2188],[71.4017,22.2716],[71.3842,22.2705],[71.3561,22.2553],[71.3211,22.277],[71.307,22.2486],[71.2862,22.2696],[71.2466,22.2724],[71.2414,22.2459],[71.2246,22.2382],[71.2335,22.2165],[71.2594,22.2183],[71.2973,22.2065],[71.3118,22.1771],[71.3041,22.1595],[71.2802,22.1569],[71.2415,22.1624],[71.2256,22.1815],[71.2035,22.169],[71.1905,22.1403],[71.1393,22.1179],[71.1286,22.1281],[71.1417,22.1478],[71.1709,22.1618],[71.1734,22.1771],[71.1555,22.1865],[71.1285,22.2235],[71.1202,22.2435],[71.0962,22.2518],[71.0759,22.2726],[71.077,22.2986],[71.0377,22.3244],[71.0276,22.3486],[71.0347,22.3734],[71.055,22.3812],[71.0267,22.4051],[70.9995,22.4107],[71.0394,22.4331],[71.0715,22.4305],[71.0917,22.3991],[71.112,22.4004],[71.1163,22.4282],[71.137,22.4307],[71.1458,22.4736],[71.1773,22.4774],[71.1778,22.4963],[71.1492,22.5375],[71.1289,22.5411],[71.1159,22.5077],[71.0886,22.5217],[71.0903,22.5517],[71.1146,22.5727],[71.1084,22.596],[71.1246,22.6346],[71.176,22.676],[71.1809,22.6955],[71.1636,22.7079],[71.1376,22.7512],[71.0891,22.7669],[71.057,22.7666],[71.0573,22.787],[71.0429,22.7946],[71.0022,22.7866],[70.9888,22.828],[70.9934,22.8415],[71.019,22.8532],[71.0323,22.868],[71.029,22.8912],[71.0142,22.9008],[71.008,22.9267],[71.01,22.9625],[70.9924,22.9726],[70.9734,23.0181],[70.9927,23.0473],[71.0138,23.0982],[71.05,23.0897],[71.0771,23.0897],[71.0658,23.1191],[71.0583,23.1657]]]},"properties":{"NAME_1":"Gujarat","NAME_2":"Rajkot"}},{"type":"Feature","geometry":{"type":"Polygon","coordinates":[[[73.3704,23.8144],[73.3598,23.8546],[73.3865,23.9058],[73.4201,23.9234],[73.4215,23.9747],[73.4106,23.9983],[73.4138,24.0511],[73.3966,24.0725],[73.3696,24.088],[73.3696,24.1125],[73.3352,24.1151],[73.3345,24.0826],[73.3266,24.0625],[73.3068,24.0515],[73.291,24.0274],[73.2753,24.028],[73.2525,24.0111],[73.2006,24.0452],[73.2238,24.0982],[73.1717,24.1113],[73.1234,24.1403],[73.0827,24.185],[73.0917,24.2209],[73.1161,24.2626],[73.1389,24.2801],[73.145,24.3079],[73.1733,24.3011],[73.1848,24.3091],[73.187,24.3349],[73.2111,24.3342],[73.2315,24.3647],[73.211,24.3754],[73.1802,24.3507],[73.162,24.3527],[73.1274,24.3688],[73.1112,24.3868],[73.085,24.3945],[73.1062,24.4203],[73.1072,24.4568],[73.0944,24.4947],[73.051,24.4653],[73.0219,24.4651],[73.0128,24.4824],[72.981,24.451],[72.9906,24.4209],[72.9642,24.3922],[72.9915,24.364],[72.9654,24.3511],[72.9729,24.3031],[73.0341,24.2807],[73.0222,24.2368],[73.0086,24.2258],[72.9849,24.1654],[72.9529,24.1276],[72.9531,24.0975],[72.9391,24.0842],[72.9349,24.0612],[72.9083,24.022],[72.8703,24.016],[72.8599,24.0088],[72.8576,23.9787],[72.8211,23.9444],[72.8278,23.9225],[72.806,23.9073],[72.8078,23.879],[72.7938,23.8327],[72.7955,23.8175],[72.8142,23.7924],[72.8008,23.7616],[72.8034,23.7394],[72.8393,23.6693],[72.8236,23.6333],[72.8467,23.6022],[72.8134,23.5821],[72.8174,23.5553],[72.8362,23.54],[72.8216,23.4781],[72.8245,23.4609],[72.8027,23.4226],[72.7386,23.3975],[72.733,23.3856],[72.7325,23.3258],[72.805,23.3237],[72.818,23.3159],[72.8448,23.3253],[72.8677,23.3123],[72.8892,23.3115],[72.9134,23.3214],[72.927,23.264],[72.9412,23.2421],[72.9649,23.2434],[72.9843,23.2611],[73.006,23.2968],[73.0205,23.2778],[73.0029,23.2583],[72.9887,23.2146],[72.9913,23.2011],[72.9797,23.1668],[73.0214,23.1609],[73.0747,23.1614],[73.1249,23.186],[73.1431,23.2056],[73.1631,23.1898],[73.1645,23.1594],[73.1795,23.1424],[73.2117,23.1451],[73.2187,23.1103],[73.2306,23.1061],[73.2517,23.0718],[73.2793,23.0594],[73.3017,23.0822],[73.3345,23.0831],[73.3483,23.0996],[73.3461,23.1297],[73.3789,23.1392],[73.3814,23.1735],[73.3549,23.1834],[73.3488,23.2016],[73.3884,23.2213],[73.3803,23.238],[73.3994,23.2527],[73.4577,23.2837],[73.4805,23.272],[73.5306,23.2866],[73.5597,23.3186],[73.5709,23.3484],[73.6006,23.3836],[73.6185,23.3916],[73.6377,23.425],[73.6328,23.4524],[73.6438,23.4968],[73.6584,23.5142],[73.637,23.5311],[73.6383,23.5625],[73.6498,23.5753],[73.65,23.6077],[73.6607,23.6229],[73.619,23.6514],[73.5707,23.6535],[73.5267,23.6106],[73.5014,23.6354],[73.5104,23.697],[73.4793,23.709],[73.4508,23.7526],[73.4205,23.7793],[73.4,23.784],[73.3759,23.7667],[73.3611,23.7917],[73.3704,23.8144]]]},"properties":{"NAME_1":"Gujarat","NAME_2":"Sabar Kantha"}},{"type":"Feature","geometry":{"type":"MultiPolygon","coordinates":[[[[72.6765,21.1557],[72.6649,21.1485],[72.6757,21.1051],[72.6985,21.1082],[72.7032,21.1462],[72.6765,21.1557]]],[[[73.8572,20.9977],[73.8164,20.9961],[73.8077,21.0226],[73.7847,21.0196],[73.7661,21.0401],[73.7476,21.04],[73.7441,21.0817],[73.7358,21.1032],[73.709,21.1123],[73.6934,21.101],[73.6577,21.121],[73.6287,21.1201],[73.6115,21.1545],[73.6375,21.1531],[73.6364,21.1327],[73.6813,21.1521],[73.7132,21.1505],[73.7367,21.1383],[73.7416,21.1671],[73.7797,21.1646],[73.7963,21.1817],[73.8225,21.1719],[73.8201,21.2219],[73.8363,21.2423],[73.8321,21.2675],[73.8584,21.27],[73.892,21.2624],[73.9485,21.2976],[73.957,21.3445],[73.9553,21.3743],[73.9619,21.3931],[74.0095,21.4134],[74.0516,21.4263],[74.0572,21.4557],[74.08,21.4572],[74.1208,21.4497],[74.1408,21.4625],[74.1605,21.4534],[74.1855,21.467],[74.2226,21.459],[74.2632,21.4657],[74.2722,21.4756],[74.3078,21.4801],[74.3277,21.4958],[74.3355,21.5402],[74.3148,21.5447],[74.3118,21.5651],[74.2917,21.5588],[74.2716,21.5364],[74.2381,21.5501],[74.2069,21.5298],[74.1863,21.5596],[74.1361,21.5567],[74.0682,21.5594],[74.0471,21.5497],[74.0256,21.5526],[73.9875,21.5224],[73.9769,21.4616],[73.9513,21.4603],[73.9241,21.4483],[73.8906,21.4515],[73.847,21.4246],[73.8242,21.4009],[73.7886,21.4125],[73.7521,21.4106],[73.7027,21.3985],[73.7028,21.4262],[73.6829,21.4736],[73.6612,21.4788],[73.6225,21.4716],[73.6024,21.4836],[73.5689,21.4727],[73.5453,21.476],[73.4866,21.4937],[73.4583,21.5233],[73.432,21.5204],[73.4087,21.5073],[73.3959,21.5134],[73.3552,21.5108],[73.3321,21.4856],[73.3146,21.5048],[73.2823,21.5059],[73.2631,21.4934],[73.2359,21.4935],[73.2222,21.5023],[73.1924,21.5021],[73.1827,21.4932],[73.1534,21.4959],[73.1294,21.482],[73.1127,21.505],[73.0886,21.5033],[73.0903,21.5306],[73.0833,21.5537],[73.0641,21.5647],[73.0481,21.5242],[73.0667,21.4947],[73.0508,21.4755],[73.0277,21.4904],[73.0279,21.5226],[73.0055,21.5358],[72.9935,21.5194],[72.9516,21.5104],[72.9634,21.4836],[72.9332,21.4592],[72.9276,21.4462],[72.9192,21.4295],[72.8638,21.4496],[72.8469,21.4455],[72.8235,21.4193],[72.7963,21.423],[72.7909,21.4568],[72.768,21.4496],[72.7487,21.4695],[72.7142,21.4636],[72.686,21.4449],[72.6649,21.4274],[72.6229,21.3751],[72.6221,21.3457],[72.5932,21.3121],[72.5904,21.2776],[72.5971,21.2501],[72.6188,21.2229],[72.621,21.1429],[72.6263,21.0899],[72.6515,21.0768],[72.659,21.0879],[72.6599,21.1388],[72.6651,21.1535],[72.6813,21.1585],[72.716,21.1407],[72.7001,21.101],[72.706,21.0735],[72.7521,21.0621],[72.7421,21.0493],[72.7606,21.0262],[72.8014,21.0422],[72.8177,21.032],[72.8531,21.0274],[72.9015,21.0586],[72.9175,21.0432],[72.9362,21.0427],[72.9604,21.0642],[73.0275,21.0583],[73.0226,21.0175],[73.0522,21.0053],[73.0813,20.9712],[73.0946,20.9668],[73.1032,20.9363],[73.1358,20.9205],[73.1347,20.8971],[73.1738,20.9008],[73.1943,20.8842],[73.2069,20.8601],[73.2582,20.8486],[73.2663,20.8176],[73.3113,20.817],[73.3134,20.8591],[73.3201,20.8818],[73.353,20.8622],[73.3632,20.8461],[73.393,20.8249],[73.4034,20.8286],[73.4627,20.8132],[73.4832,20.8177],[73.4961,20.8148],[73.507,20.8187],[73.509,20.8301],[73.5089,20.8344],[73.5098,20.8483],[73.5062,20.8609],[73.5057,20.8732],[73.5006,20.889],[73.5009,20.9129],[73.5101,20.9232],[73.5387,20.9366],[73.5512,20.9735],[73.5544,21.0013],[73.5639,21.0117],[73.5772,21.012],[73.6009,20.9978],[73.5934,20.9693],[73.62,20.9817],[73.6236,20.9948],[73.6392,20.978],[73.6486,20.9738],[73.6562,20.9919],[73.6669,21.0064],[73.6704,21.0067],[73.6808,21.0014],[73.6944,21.0054],[73.738,21.0045],[73.7442,21.0014],[73.7531,21.0047],[73.7573,21.0046],[73.7672,20.997],[73.7945,20.9874],[73.7993,20.979],[73.8026,20.9585],[73.8214,20.9504],[73.8644,20.9481],[73.8824,20.9281],[73.8963,20.933],[73.9064,20.9832],[73.8792,20.9865],[73.8572,20.9977]]]]},"properties":{"NAME_1":"Gujarat","NAME_2":"Surat"}},{"type":"Feature","geometry":{"type":"Polygon","coordinates":[[[72.0087,23.5013],[71.9917,23.5085],[71.9786,23.529],[71.954,23.5175],[71.9512,23.5044],[71.9202,23.4954],[71.8731,23.4723],[71.8586,23.4358],[71.845,23.419],[71.8082,23.3974],[71.7783,23.4016],[71.7703,23.415],[71.7881,23.4547],[71.7776,23.4675],[71.7401,23.4727],[71.7167,23.4847],[71.6502,23.4926],[71.6209,23.5001],[71.5756,23.4946],[71.5433,23.4777],[71.5393,23.4672],[71.5421,23.4628],[71.5743,23.4626],[71.5935,23.4522],[71.597,23.4489],[71.6053,23.4336],[71.604,23.4109],[71.5946,23.3859],[71.5989,23.3552],[71.6138,23.3535],[71.6282,23.3587],[71.6354,23.354],[71.6525,23.3351],[71.6554,23.3289],[71.6525,23.3147],[71.6592,23.2878],[71.6745,23.2906],[71.6759,23.2806],[71.6685,23.2789],[71.6431,23.2525],[71.6291,23.226],[71.637,23.2011],[71.6568,23.1803],[71.68,23.1728],[71.6951,23.1688],[71.708,23.1813],[71.7251,23.1739],[71.7273,23.1637],[71.7206,23.1473],[71.6992,23.1503],[71.6677,23.1617],[71.6417,23.1661],[71.632,23.1588],[71.638,23.1471],[71.636,23.1417],[71.6051,23.134],[71.5954,23.1374],[71.5452,23.1623],[71.5232,23.1553],[71.5068,23.1524],[71.4804,23.1424],[71.4599,23.1437],[71.4102,23.1517],[71.4005,23.1545],[71.3812,23.1612],[71.3578,23.1709],[71.3534,23.1654],[71.3466,23.1691],[71.3334,23.1831],[71.3171,23.1674],[71.3135,23.1784],[71.3013,23.1683],[71.2917,23.1636],[71.2937,23.1506],[71.2864,23.1566],[71.2496,23.1507],[71.2265,23.152],[71.2226,23.171],[71.2059,23.1861],[71.171,23.1784],[71.1587,23.1973],[71.1368,23.1983],[71.1263,23.1977],[71.1204,23.1965],[71.087,23.1777],[71.0583,23.1657],[71.0658,23.1191],[71.0771,23.0897],[71.05,23.0897],[71.0138,23.0982],[70.9927,23.0473],[70.9734,23.0181],[70.9924,22.9726],[71.01,22.9625],[71.008,22.9267],[71.0142,22.9008],[71.029,22.8912],[71.0323,22.868],[71.019,22.8532],[70.9934,22.8415],[70.9888,22.828],[71.0022,22.7866],[71.0429,22.7946],[71.0573,22.787],[71.057,22.7666],[71.0891,22.7669],[71.1376,22.7512],[71.1636,22.7079],[71.1809,22.6955],[71.176,22.676],[71.1246,22.6346],[71.1084,22.596],[71.1146,22.5727],[71.0903,22.5517],[71.0886,22.5217],[71.1159,22.5077],[71.1289,22.5411],[71.1492,22.5375],[71.1778,22.4963],[71.1773,22.4774],[71.1458,22.4736],[71.137,22.4307],[71.1163,22.4282],[71.112,22.4004],[71.0917,22.3991],[71.0715,22.4305],[71.0394,22.4331],[70.9995,22.4107],[71.0267,22.4051],[71.055,22.3812],[71.0347,22.3734],[71.0276,22.3486],[71.0377,22.3244],[71.077,22.2986],[71.0759,22.2726],[71.0962,22.2518],[71.1202,22.2435],[71.1285,22.2235],[71.1555,22.1865],[71.1734,22.1771],[71.1709,22.1618],[71.1417,22.1478],[71.1286,22.1281],[71.1393,22.1179],[71.1905,22.1403],[71.2035,22.169],[71.2256,22.1815],[71.2415,22.1624],[71.2802,22.1569],[71.3041,22.1595],[71.3118,22.1771],[71.2973,22.2065],[71.2594,22.2183],[71.2335,22.2165],[71.2246,22.2382],[71.2414,22.2459],[71.2466,22.2724],[71.2862,22.2696],[71.307,22.2486],[71.3211,22.277],[71.3561,22.2553],[71.3842,22.2705],[71.4017,22.2716],[71.403,22.2188],[71.4349,22.2288],[71.4472,22.2573],[71.4531,22.2853],[71.5091,22.3044],[71.5429,22.3398],[71.5706,22.3369],[71.6081,22.3469],[71.6203,22.335],[71.6339,22.34],[71.6327,22.3774],[71.6555,22.3963],[71.6774,22.379],[71.7152,22.3932],[71.7464,22.3578],[71.7955,22.3586],[71.7919,22.3827],[71.839,22.3904],[71.8351,22.358],[71.8655,22.3679],[71.8625,22.3867],[71.9022,22.4164],[71.9273,22.3797],[71.945,22.3785],[71.9344,22.447],[71.9724,22.4672],[71.9685,22.4872],[71.9194,22.4777],[71.9329,22.5188],[71.957,22.5374],[71.9803,22.526],[71.9779,22.507],[72.042,22.5043],[72.0617,22.4704],[72.0612,22.4424],[72.0952,22.4353],[72.1306,22.4611],[72.1716,22.4777],[72.1602,22.4972],[72.1597,22.5191],[72.1807,22.533],[72.1976,22.5426],[72.179,22.5679],[72.1525,22.5853],[72.1066,22.6032],[72.0737,22.5972],[72.0716,22.6488],[72.0467,22.6683],[72.0398,22.6788],[72.0668,22.6915],[72.0833,22.6732],[72.1001,22.6736],[72.1165,22.7186],[72.0819,22.7305],[72.0672,22.7453],[72.0563,22.766],[72.0605,22.7808],[72.0266,22.7913],[71.9938,22.8532],[71.9979,22.8831],[72.013,22.9212],[71.9996,22.9471],[72.0301,22.9899],[72.0226,23.057],[71.9993,23.0664],[71.9622,23.0524],[71.9251,23.0768],[71.9109,23.1079],[71.92,23.1783],[71.9376,23.184],[71.9617,23.2052],[71.9999,23.2134],[72.0085,23.2471],[71.996,23.2538],[71.9524,23.2428],[71.9431,23.2647],[71.9178,23.2625],[71.9119,23.2277],[71.8864,23.2216],[71.8923,23.2554],[71.8848,23.276],[71.9052,23.3303],[71.8841,23.3808],[71.9686,23.3909],[71.9811,23.4282],[71.9769,23.4571],[71.9991,23.4801],[72.0087,23.5013]]]},"properties":{"NAME_1":"Gujarat","NAME_2":"Surendranagar"}},{"type":"Feature","geometry":{"type":"Polygon","coordinates":[[[73.8963,20.933],[73.8824,20.9281],[73.8644,20.9481],[73.8214,20.9504],[73.8026,20.9585],[73.7993,20.979],[73.7945,20.9874],[73.7672,20.997],[73.7573,21.0046],[73.7531,21.0047],[73.7442,21.0014],[73.738,21.0045],[73.6944,21.0054],[73.6808,21.0014],[73.6704,21.0067],[73.6669,21.0064],[73.6562,20.9919],[73.6486,20.9738],[73.6392,20.978],[73.6236,20.9948],[73.62,20.9817],[73.5934,20.9693],[73.6009,20.9978],[73.5772,21.012],[73.5639,21.0117],[73.5544,21.0013],[73.5512,20.9735],[73.5387,20.9366],[73.5101,20.9232],[73.5009,20.9129],[73.5006,20.889],[73.5057,20.8732],[73.5062,20.8609],[73.5098,20.8483],[73.5089,20.8344],[73.509,20.8301],[73.507,20.8187],[73.504,20.8099],[73.5002,20.803],[73.4964,20.7826],[73.5009,20.7603],[73.4975,20.755],[73.4831,20.7482],[73.4748,20.7409],[73.4752,20.7217],[73.4842,20.7091],[73.4934,20.6943],[73.4874,20.6756],[73.4895,20.6696],[73.4934,20.6656],[73.5009,20.6527],[73.5123,20.663],[73.5252,20.6671],[73.5384,20.6739],[73.5629,20.6474],[73.5742,20.6511],[73.5912,20.6451],[73.6073,20.6363],[73.6295,20.6123],[73.6368,20.5793],[73.6433,20.5772],[73.6471,20.5775],[73.6619,20.5657],[73.6707,20.5623],[73.6814,20.5677],[73.7096,20.5745],[73.7243,20.5758],[73.7377,20.574],[73.7482,20.5674],[73.7639,20.5833],[73.78,20.5919],[73.7871,20.6023],[73.806,20.6015],[73.8254,20.614],[73.8339,20.6141],[73.8464,20.6235],[73.8435,20.6503],[73.8415,20.6751],[73.8254,20.6736],[73.8287,20.6965],[73.8428,20.7021],[73.8636,20.6943],[73.8736,20.7077],[73.8773,20.7213],[73.9088,20.7252],[73.9351,20.7346],[73.9485,20.7467],[73.9475,20.7525],[73.9383,20.7608],[73.9381,20.7897],[73.9402,20.8089],[73.9476,20.8251],[73.9451,20.8401],[73.9337,20.845],[73.9317,20.8647],[73.9312,20.8766],[73.931,20.8859],[73.9244,20.9028],[73.9122,20.9179],[73.8963,20.933]]]},"properties":{"NAME_1":"Gujarat","NAME_2":"The Dangs"}},{"type":"Feature","geometry":{"type":"Polygon","coordinates":[[[73.7343,22.4556],[73.7471,22.4394],[73.7379,22.4144],[73.7433,22.3908],[73.7761,22.3876],[73.7591,22.3465],[73.7346,22.3361],[73.73,22.3138],[73.7046,22.2865],[73.6677,22.286],[73.653,22.2999],[73.6642,22.3358],[73.7005,22.3377],[73.7096,22.3585],[73.6886,22.3728],[73.6492,22.3855],[73.6242,22.3603],[73.636,22.3238],[73.5716,22.3277],[73.556,22.3425],[73.4914,22.3467],[73.472,22.3584],[73.4668,22.3789],[73.4461,22.3984],[73.4527,22.4112],[73.4286,22.4273],[73.4371,22.4572],[73.4298,22.4925],[73.4132,22.5066],[73.4264,22.5483],[73.3794,22.5539],[73.3921,22.6232],[73.3714,22.6252],[73.3778,22.6465],[73.3951,22.6413],[73.4217,22.6599],[73.4103,22.6852],[73.3984,22.6846],[73.3906,22.7161],[73.3921,22.7392],[73.4328,22.7591],[73.4275,22.7833],[73.392,22.8076],[73.386,22.7575],[73.3679,22.7686],[73.3569,22.79],[73.3264,22.7811],[73.2872,22.7795],[73.2654,22.7629],[73.2597,22.7159],[73.2751,22.6753],[73.2691,22.6577],[73.2367,22.6344],[73.2247,22.6201],[73.1691,22.5901],[73.1461,22.5275],[73.1033,22.51],[73.0963,22.4988],[73.1011,22.4581],[73.0748,22.4262],[73.081,22.3955],[73.057,22.3649],[73.0703,22.3136],[73.008,22.2582],[72.9862,22.2478],[72.9589,22.2626],[72.9599,22.2882],[72.9334,22.3045],[72.9209,22.2894],[72.9193,22.2666],[72.8993,22.2321],[72.8739,22.2237],[72.8952,22.1728],[72.9267,22.1906],[72.9386,22.1695],[72.8766,22.1555],[72.8912,22.1195],[72.8923,22.0957],[72.9093,22.0901],[72.9157,22.0664],[72.944,22.039],[72.9582,22.048],[72.9889,22.0473],[72.9991,22.0268],[73.0399,21.996],[73.0714,22.0104],[73.0783,21.9837],[73.0597,21.976],[73.0595,21.9386],[73.0261,21.9408],[73.028,21.9192],[73.0771,21.9227],[73.0712,21.8809],[73.1017,21.8709],[73.1313,21.8764],[73.1589,21.8606],[73.1929,21.8296],[73.218,21.8202],[73.236,21.8237],[73.2562,21.8419],[73.2595,21.8628],[73.2378,21.8927],[73.2342,21.9165],[73.2581,21.9332],[73.2749,21.9303],[73.2911,21.9017],[73.3073,21.89],[73.3336,21.8749],[73.3605,21.8829],[73.3596,21.9162],[73.3737,21.9283],[73.4094,21.9114],[73.4401,21.9148],[73.4527,21.9361],[73.4498,21.9603],[73.4582,21.9768],[73.4777,21.9779],[73.514,21.9636],[73.5538,21.979],[73.5982,21.945],[73.5994,21.9249],[73.6118,21.898],[73.6284,21.9095],[73.6599,21.9077],[73.6897,21.9159],[73.6922,21.9481],[73.6814,21.9659],[73.729,21.9811],[73.7574,21.9622],[73.7905,21.9605],[73.7851,21.9466],[73.8139,21.9284],[73.8644,21.9512],[73.8786,21.9224],[73.8982,21.9256],[73.923,21.8929],[73.9384,21.8901],[73.9492,21.8703],[74.023,21.906],[74.0467,21.9228],[74.146,21.9541],[74.1538,21.9864],[74.1003,22.0016],[74.1012,22.0183],[74.1378,22.0535],[74.163,22.0606],[74.1702,22.1013],[74.1326,22.0963],[74.1266,22.1321],[74.1228,22.2129],[74.0758,22.2219],[74.0783,22.2682],[74.0592,22.2857],[74.072,22.3602],[74.112,22.3716],[74.1291,22.3527],[74.1343,22.3323],[74.1911,22.3219],[74.1983,22.343],[74.227,22.3585],[74.2402,22.3768],[74.2739,22.393],[74.2641,22.4246],[74.2373,22.4393],[74.2046,22.4372],[74.2045,22.4667],[74.1827,22.4645],[74.1867,22.4442],[74.156,22.4399],[74.1407,22.4539],[74.123,22.4208],[74.1051,22.4334],[74.1002,22.4692],[74.0781,22.4656],[74.0853,22.5085],[74.0436,22.5168],[74.0446,22.5421],[74.0667,22.5509],[74.0409,22.5718],[74.0242,22.5725],[73.9677,22.54],[73.9417,22.5438],[73.9126,22.5092],[73.871,22.5058],[73.8525,22.516],[73.8444,22.5338],[73.8198,22.5475],[73.7631,22.5475],[73.7372,22.5164],[73.7343,22.4556]]]},"properties":{"NAME_1":"Gujarat","NAME_2":"Vadodara"}},{"type":"Feature","geometry":{"type":"Polygon","coordinates":[[[72.874,20.7343],[72.8549,20.721],[72.8746,20.6535],[72.8868,20.6415],[72.8976,20.5743],[72.886,20.5504],[72.8838,20.4982],[72.8618,20.4785],[72.8512,20.4549],[72.8487,20.4533],[72.839,20.4391],[72.846,20.4148],[72.8695,20.404],[72.8755,20.3811],[72.8701,20.3912],[72.843,20.4031],[72.8425,20.3992],[72.8215,20.3711],[72.8074,20.3524],[72.789,20.3499],[72.7757,20.3335],[72.7746,20.3038],[72.7557,20.2921],[72.7499,20.2554],[72.741,20.2446],[72.7465,20.1996],[72.7376,20.1365],[72.7876,20.1301],[72.8021,20.1485],[72.8288,20.1566],[72.8336,20.1836],[72.8503,20.2079],[72.872,20.2082],[72.8843,20.2266],[72.9284,20.2234],[72.9704,20.2123],[72.9744,20.215],[72.9653,20.2372],[72.9437,20.2449],[72.9223,20.2744],[72.9246,20.2787],[72.9381,20.288],[72.9508,20.292],[72.9698,20.2747],[72.9801,20.2708],[72.9878,20.2747],[72.9905,20.2921],[73.0218,20.2927],[73.0198,20.3174],[73.0373,20.2906],[73.0442,20.2911],[73.0551,20.3252],[73.0667,20.3261],[73.0753,20.3296],[73.0863,20.3261],[73.0974,20.3351],[73.1021,20.3585],[73.1054,20.3605],[73.1114,20.3561],[73.1143,20.3528],[73.118,20.3429],[73.122,20.3329],[73.1157,20.304],[73.1393,20.3096],[73.1473,20.3168],[73.1771,20.3123],[73.178,20.3107],[73.1771,20.3076],[73.1795,20.2899],[73.1668,20.2834],[73.1613,20.2918],[73.1582,20.2905],[73.1552,20.2854],[73.1536,20.277],[73.147,20.281],[73.1463,20.2805],[73.1426,20.2686],[73.1368,20.2605],[73.1133,20.2442],[73.1085,20.2386],[73.1019,20.2289],[73.0875,20.234],[73.0769,20.2298],[73.0666,20.1979],[73.0705,20.1974],[73.0755,20.1601],[73.0865,20.157],[73.0899,20.1704],[73.0979,20.1733],[73.0995,20.1726],[73.1091,20.1592],[73.1168,20.1588],[73.1249,20.1567],[73.1484,20.1855],[73.146,20.1874],[73.1422,20.2044],[73.1498,20.2056],[73.1528,20.2028],[73.1536,20.2022],[73.1802,20.2086],[73.1885,20.2006],[73.2044,20.1983],[73.2099,20.1974],[73.2292,20.1843],[73.2267,20.1764],[73.1992,20.1616],[73.1953,20.1509],[73.196,20.1399],[73.211,20.1236],[73.2163,20.122],[73.2367,20.1297],[73.2595,20.1246],[73.2685,20.1393],[73.2936,20.1539],[73.2941,20.1939],[73.3111,20.2072],[73.3759,20.195],[73.4268,20.2016],[73.4204,20.257],[73.4369,20.2821],[73.4253,20.3207],[73.4148,20.3816],[73.3977,20.3992],[73.4229,20.4143],[73.449,20.4667],[73.4759,20.495],[73.4723,20.514],[73.4818,20.5434],[73.4808,20.5836],[73.4404,20.5951],[73.4276,20.6245],[73.416,20.6262],[73.3931,20.6137],[73.3262,20.6024],[73.2878,20.5844],[73.2693,20.5813],[73.255,20.5936],[73.2248,20.6036],[73.21,20.5907],[73.1651,20.6059],[73.0842,20.5998],[73.0763,20.6303],[73.0847,20.6514],[73.0581,20.6601],[73.0462,20.7027],[73.0099,20.7274],[72.9831,20.7424],[72.9782,20.7424],[72.9736,20.7242],[72.9652,20.7189],[72.941,20.734],[72.9062,20.7352],[72.874,20.7343]]]},"properties":{"NAME_1":"Gujarat","NAME_2":"Valsad"}}]}