{"type":"FeatureCollection","features":[{"type":"Feature","geometry":{"type":"Polygon","coordinates":[[[77.1238,30.5727],[77.0936,30.5861],[77.0685,30.5856],[77.0454,30.6112],[77.0335,30.6238],[77.0227,30.6366],[77.0197,30.6241],[77.0126,30.6153],[76.9989,30.6046],[76.993,30.5951],[76.9667,30.5688],[76.9501,30.5356],[76.9201,30.5247],[76.9124,30.4937],[76.8939,30.4896],[76.8899,30.4367],[76.9093,30.4033],[76.9273,30.3886],[76.8978,30.3626],[76.8647,30.4088],[76.8325,30.4339],[76.8085,30.4119],[76.7489,30.4266],[76.7252,30.4204],[76.7265,30.405],[76.7001,30.3936],[76.7385,30.3596],[76.6977,30.3249],[76.6709,30.3192],[76.6513,30.2993],[76.6144,30.2753],[76.5458,30.2586],[76.5477,30.2344],[76.5759,30.2559],[76.5903,30.2541],[76.6119,30.2256],[76.6389,30.2059],[76.6393,30.1852],[76.6227,30.1703],[76.6276,30.1551],[76.6649,30.1731],[76.6737,30.1887],[76.7373,30.1986],[76.7954,30.2162],[76.8193,30.253],[76.8533,30.2481],[76.8515,30.232],[76.8904,30.193],[76.9049,30.2035],[76.9479,30.1961],[76.931,30.181],[76.9491,30.1583],[76.9694,30.1716],[76.9877,30.1689],[77.0293,30.1356],[77.0528,30.127],[77.0658,30.1706],[77.082,30.1582],[77.0987,30.1802],[77.096,30.1867],[77.088,30.1919],[77.0713,30.1972],[77.0629,30.2019],[77.0724,30.2199],[77.0921,30.2292],[77.0985,30.2288],[77.1168,30.2343],[77.1313,30.2239],[77.1411,30.249],[77.1241,30.2473],[77.1232,30.2735],[77.1496,30.2976],[77.1573,30.3018],[77.1738,30.322],[77.1704,30.3281],[77.1849,30.3333],[77.2028,30.3559],[77.2304,30.3566],[77.259,30.375],[77.2704,30.3918],[77.2686,30.4025],[77.2655,30.4117],[77.2798,30.4258],[77.2848,30.4323],[77.3006,30.4366],[77.3107,30.4536],[77.2636,30.4667],[77.2518,30.4844],[77.2268,30.4886],[77.2026,30.4803],[77.1997,30.5066],[77.1853,30.5259],[77.1376,30.5386],[77.1223,30.5482],[77.1238,30.5727]]]},"properties":{"NAME_1":"Haryana","NAME_2":"Ambala"}},{"type":"Feature","geometry":{"type":"Polygon","coordinates":[[[76.2232,28.9912],[76.1989,29.0049],[76.209,29.0191],[76.2005,29.0503],[76.1881,29.0607],[76.1362,29.0466],[76.0994,29.0588],[76.0611,29.0302],[76.0452,29.0425],[76.0434,29.065],[76.0089,29.063],[75.9701,29.0818],[75.9597,29.057],[75.9752,29.0151],[75.971,28.9986],[75.9473,29.0042],[75.9277,29.0216],[75.9057,29.0257],[75.8883,29.0117],[75.8839,28.989],[75.8491,28.9656],[75.8426,28.9312],[75.8227,28.9167],[75.7874,28.9307],[75.7677,28.9227],[75.7593,28.9046],[75.6967,28.9092],[75.6714,28.9164],[75.626,28.9593],[75.6286,28.9671],[75.5925,28.9961],[75.5366,28.9736],[75.5165,28.9754],[75.4976,28.9415],[75.4689,28.938],[75.4671,28.9263],[75.4884,28.8983],[75.488,28.8596],[75.5134,28.8366],[75.4985,28.7877],[75.5161,28.7722],[75.5309,28.7328],[75.5396,28.6489],[75.5557,28.6146],[75.6093,28.6059],[75.619,28.5887],[75.6291,28.546],[75.6655,28.5333],[75.6639,28.5209],[75.6901,28.4991],[75.7365,28.4872],[75.735,28.4726],[75.7782,28.4576],[75.7851,28.4392],[75.7654,28.4208],[75.7876,28.4044],[75.8026,28.4142],[75.8351,28.3977],[75.8892,28.3937],[75.8977,28.4336],[75.9914,28.4443],[76.0082,28.4364],[76.0133,28.3946],[76.0703,28.3986],[76.1084,28.4551],[76.1367,28.4535],[76.1464,28.4669],[76.1779,28.4362],[76.2063,28.4538],[76.2116,28.4716],[76.2343,28.4652],[76.2386,28.4474],[76.2819,28.4393],[76.2868,28.4632],[76.2784,28.4892],[76.2925,28.5037],[76.3179,28.4984],[76.3386,28.5693],[76.3441,28.616],[76.3966,28.5989],[76.3989,28.5589],[76.4169,28.5625],[76.429,28.6074],[76.4555,28.6161],[76.4359,28.6462],[76.4406,28.6645],[76.3966,28.671],[76.3965,28.6858],[76.3712,28.7136],[76.3913,28.7377],[76.3963,28.756],[76.3763,28.7841],[76.3251,28.8171],[76.2853,28.8134],[76.2897,28.834],[76.2811,28.8556],[76.2906,28.9089],[76.2625,28.9067],[76.2303,28.9157],[76.2397,28.9435],[76.2092,28.9632],[76.2232,28.9912]]]},"properties":{"NAME_1":"Haryana","NAME_2":"Bhiwani"}},{"type":"Feature","geometry":{"type":"Polygon","coordinates":[[[77.47,28.0837],[77.4731,28.1037],[77.4994,28.1226],[77.4989,28.163],[77.5318,28.1703],[77.5379,28.1909],[77.5156,28.2298],[77.5123,28.2543],[77.4673,28.2697],[77.4927,28.2806],[77.4958,28.307],[77.4664,28.3412],[77.4942,28.3583],[77.4695,28.3943],[77.4746,28.4135],[77.436,28.4316],[77.4258,28.4545],[77.3978,28.4586],[77.3605,28.4979],[77.3377,28.509],[77.329,28.5083],[77.3149,28.4946],[77.3009,28.4901],[77.2781,28.4981],[77.254,28.4855],[77.2324,28.4758],[77.2257,28.464],[77.2433,28.4475],[77.2406,28.4289],[77.2153,28.4157],[77.1952,28.4125],[77.1658,28.4085],[77.1424,28.3918],[77.1406,28.3395],[77.1446,28.322],[77.1835,28.2969],[77.2158,28.2952],[77.23,28.2743],[77.205,28.2656],[77.1873,28.245],[77.191,28.2313],[77.171,28.2165],[77.1877,28.1989],[77.1838,28.186],[77.1565,28.1886],[77.1532,28.1676],[77.1237,28.1363],[77.1358,28.1272],[77.1225,28.078],[77.0914,28.0694],[77.1063,28.0517],[77.0933,28.0107],[77.0656,27.9916],[77.1118,27.9662],[77.1376,27.9688],[77.1525,27.9484],[77.1858,27.9461],[77.2245,27.9001],[77.2497,27.8828],[77.2788,27.8772],[77.288,27.8964],[77.3129,27.8805],[77.3292,27.852],[77.3739,27.8637],[77.4124,27.8591],[77.4016,27.8819],[77.4222,27.8945],[77.4422,27.8785],[77.4698,27.8947],[77.4687,27.9329],[77.5192,27.9319],[77.5361,27.9493],[77.5359,27.9655],[77.5096,27.9733],[77.5352,27.9933],[77.4776,28.0491],[77.4829,28.0607],[77.47,28.0837]]]},"properties":{"NAME_1":"Haryana","NAME_2":"Faridabad"}},{"type":"Feature","geometry":{"type":"Polygon","coordinates":[[[75.9387,29.7335],[75.9139,29.7388],[75.8972,29.7555],[75.8638,29.7523],[75.8436,29.776],[75.82,29.8154],[75.7961,29.8071],[75.7716,29.8254],[75.7484,29.8121],[75.7327,29.8113],[75.726,29.8115],[75.7099,29.8123],[75.6974,29.7552],[75.6783,29.7571],[75.6662,29.7727],[75.6254,29.7732],[75.6226,29.7536],[75.5631,29.7442],[75.5564,29.7658],[75.5302,29.7727],[75.5063,29.7741],[75.4443,29.8078],[75.4346,29.7803],[75.41,29.7753],[75.3972,29.761],[75.3909,29.7386],[75.3822,29.7271],[75.3788,29.7113],[75.3586,29.7058],[75.3412,29.6952],[75.346,29.6714],[75.3468,29.6589],[75.3301,29.6723],[75.3177,29.6707],[75.3117,29.6488],[75.3075,29.6326],[75.2879,29.6198],[75.2803,29.6033],[75.303,29.5791],[75.2906,29.5618],[75.2899,29.5227],[75.265,29.5106],[75.2765,29.4975],[75.2755,29.4653],[75.2913,29.4438],[75.268,29.4255],[75.2327,29.4216],[75.2145,29.4006],[75.2575,29.3556],[75.2523,29.3425],[75.2174,29.3268],[75.2294,29.3032],[75.2237,29.2687],[75.2352,29.2519],[75.2717,29.2544],[75.2767,29.2735],[75.2548,29.2954],[75.296,29.323],[75.3099,29.3097],[75.3387,29.3083],[75.3883,29.3224],[75.3948,29.334],[75.3718,29.3582],[75.3772,29.381],[75.4134,29.3865],[75.4073,29.4161],[75.5006,29.4052],[75.5218,29.3652],[75.5514,29.3603],[75.5889,29.3451],[75.5917,29.3721],[75.6079,29.3773],[75.6067,29.4059],[75.6229,29.4229],[75.694,29.4291],[75.7218,29.453],[75.712,29.4784],[75.744,29.4859],[75.7471,29.5016],[75.7728,29.5277],[75.819,29.5155],[75.8429,29.5365],[75.8829,29.5399],[75.9231,29.5834],[75.9495,29.569],[75.9395,29.6001],[75.9449,29.6249],[75.9345,29.6505],[75.9409,29.6703],[75.927,29.6871],[75.9387,29.7335]]]},"properties":{"NAME_1":"Haryana","NAME_2":"Fatehabad"}},{"type":"Feature","geometry":{"type":"Polygon","coordinates":[[[77.0725,28.5203],[77.057,28.5139],[77.0488,28.5152],[77.0417,28.519],[77.0196,28.5333],[77.0157,28.5333],[77.0002,28.542],[77.0055,28.5144],[76.9765,28.5238],[76.9332,28.516],[76.9085,28.5149],[76.8937,28.5161],[76.8794,28.5091],[76.871,28.5042],[76.8198,28.5085],[76.8039,28.4811],[76.7856,28.4722],[76.7629,28.4804],[76.7349,28.47],[76.722,28.4877],[76.7002,28.4961],[76.7011,28.463],[76.6706,28.4565],[76.6646,28.4349],[76.6365,28.4146],[76.658,28.3858],[76.6513,28.364],[76.6526,28.3227],[76.6772,28.32],[76.6681,28.2796],[76.6731,28.2679],[76.7132,28.2675],[76.7612,28.2459],[76.823,28.2494],[76.8465,28.2395],[76.8543,28.2252],[76.884,28.1917],[76.9417,28.1487],[76.9618,28.144],[76.9466,28.0713],[76.9319,28.042],[76.9186,27.9976],[76.9249,27.9784],[76.9191,27.9249],[76.9388,27.919],[76.9261,27.8944],[76.9266,27.8342],[76.9079,27.8359],[76.9066,27.8077],[76.8956,27.7861],[76.8885,27.7196],[76.9146,27.7008],[76.8916,27.6799],[76.9095,27.6568],[76.9342,27.6751],[76.9705,27.6571],[76.9791,27.7062],[76.9944,27.742],[77.032,27.7484],[77.0532,27.7279],[77.078,27.7373],[77.0707,27.7588],[77.0501,27.761],[77.023,27.7872],[77.0383,27.82],[77.0724,27.8095],[77.1012,27.7855],[77.1473,27.7867],[77.1497,27.8124],[77.1724,27.8163],[77.1889,27.7984],[77.2222,27.7976],[77.2346,27.7858],[77.2758,27.8065],[77.3129,27.8301],[77.3292,27.852],[77.3129,27.8805],[77.288,27.8964],[77.2788,27.8772],[77.2497,27.8828],[77.2245,27.9001],[77.1858,27.9461],[77.1525,27.9484],[77.1376,27.9688],[77.1118,27.9662],[77.0656,27.9916],[77.0933,28.0107],[77.1063,28.0517],[77.0914,28.0694],[77.1225,28.078],[77.1358,28.1272],[77.1237,28.1363],[77.1532,28.1676],[77.1565,28.1886],[77.1838,28.186],[77.1877,28.1989],[77.171,28.2165],[77.191,28.2313],[77.1873,28.245],[77.205,28.2656],[77.23,28.2743],[77.2158,28.2952],[77.1835,28.2969],[77.1446,28.322],[77.1406,28.3395],[77.1424,28.3918],[77.1658,28.4085],[77.1519,28.4283],[77.1314,28.4387],[77.1125,28.4502],[77.1033,28.4831],[77.1077,28.4939],[77.0903,28.5055],[77.0725,28.5203]]]},"properties":{"NAME_1":"Haryana","NAME_2":"Gurgaon"}},{"type":"Feature","geometry":{"type":"Polygon","coordinates":[[[75.9495,29.569],[75.9231,29.5834],[75.8829,29.5399],[75.8429,29.5365],[75.819,29.5155],[75.7728,29.5277],[75.7471,29.5016],[75.744,29.4859],[75.712,29.4784],[75.7218,29.453],[75.694,29.4291],[75.6229,29.4229],[75.6067,29.4059],[75.6079,29.3773],[75.5917,29.3721],[75.5889,29.3451],[75.5514,29.3603],[75.5218,29.3652],[75.5006,29.4052],[75.4073,29.4161],[75.4134,29.3865],[75.3772,29.381],[75.3718,29.3582],[75.3948,29.334],[75.3883,29.3224],[75.3387,29.3083],[75.3099,29.3097],[75.296,29.323],[75.2548,29.2954],[75.2767,29.2735],[75.3193,29.2934],[75.3254,29.2783],[75.3149,29.236],[75.3453,29.2262],[75.3502,29.2474],[75.3795,29.2639],[75.3957,29.2619],[75.3994,29.2403],[75.3873,29.229],[75.4007,29.1889],[75.3886,29.1707],[75.369,29.17],[75.3612,29.1426],[75.3962,29.1284],[75.3807,29.1107],[75.3807,29.0703],[75.4303,29.0647],[75.4406,29.0415],[75.4347,29.0165],[75.4734,29.0202],[75.5111,29.0108],[75.5165,28.9754],[75.5366,28.9736],[75.5925,28.9961],[75.6286,28.9671],[75.626,28.9593],[75.6714,28.9164],[75.6967,28.9092],[75.7593,28.9046],[75.7677,28.9227],[75.7874,28.9307],[75.8227,28.9167],[75.8426,28.9312],[75.8491,28.9656],[75.8839,28.989],[75.8883,29.0117],[75.9057,29.0257],[75.9277,29.0216],[75.9473,29.0042],[75.971,28.9986],[75.9752,29.0151],[75.9597,29.057],[75.9701,29.0818],[76.0089,29.063],[76.0434,29.065],[76.0452,29.0425],[76.0611,29.0302],[76.0994,29.0588],[76.1362,29.0466],[76.1881,29.0607],[76.2005,29.0503],[76.209,29.0191],[76.1989,29.0049],[76.2232,28.9912],[76.2404,29.0283],[76.2304,29.0605],[76.2432,29.0724],[76.2773,29.074],[76.2916,29.0911],[76.3076,29.1207],[76.2929,29.1574],[76.2912,29.1944],[76.2816,29.2128],[76.2204,29.2245],[76.2182,29.2461],[76.1821,29.3006],[76.1979,29.3283],[76.1765,29.3554],[76.1936,29.3751],[76.1921,29.4065],[76.1537,29.4192],[76.1281,29.3938],[76.1126,29.4087],[76.0835,29.4131],[76.0752,29.4425],[76.0296,29.4318],[75.9832,29.4558],[75.9864,29.486],[75.9305,29.502],[75.9272,29.5191],[75.952,29.5551],[75.9495,29.569]]]},"properties":{"NAME_1":"Haryana","NAME_2":"Hisar"}},{"type":"Feature","geometry":{"type":"Polygon","coordinates":[[[76.9423,28.8207],[76.9088,28.8277],[76.8928,28.8671],[76.8769,28.8404],[76.8374,28.8142],[76.8094,28.8273],[76.7848,28.8115],[76.8108,28.7898],[76.7728,28.7472],[76.7012,28.772],[76.7025,28.7912],[76.6634,28.7986],[76.6608,28.8172],[76.6374,28.8426],[76.6248,28.8222],[76.6381,28.8108],[76.6205,28.7933],[76.5883,28.7825],[76.5852,28.7535],[76.57,28.7386],[76.5242,28.7531],[76.518,28.7442],[76.4408,28.741],[76.4169,28.7283],[76.3965,28.6858],[76.3966,28.671],[76.4406,28.6645],[76.4359,28.6462],[76.4555,28.6161],[76.429,28.6074],[76.4169,28.5625],[76.3989,28.5589],[76.3966,28.5989],[76.3441,28.616],[76.3386,28.5693],[76.3179,28.4984],[76.2925,28.5037],[76.2784,28.4892],[76.2868,28.4632],[76.2819,28.4393],[76.2755,28.4131],[76.2938,28.4068],[76.2917,28.3872],[76.3466,28.374],[76.3578,28.4066],[76.3884,28.4007],[76.3811,28.3691],[76.38,28.3433],[76.4107,28.3298],[76.418,28.349],[76.4536,28.3504],[76.4879,28.3816],[76.5092,28.3618],[76.5423,28.3501],[76.5749,28.3515],[76.5918,28.3739],[76.6003,28.425],[76.6127,28.433],[76.6365,28.4146],[76.6646,28.4349],[76.6706,28.4565],[76.7011,28.463],[76.7002,28.4961],[76.722,28.4877],[76.7349,28.47],[76.7629,28.4804],[76.7856,28.4722],[76.8039,28.4811],[76.8198,28.5085],[76.871,28.5042],[76.8794,28.5091],[76.8795,28.524],[76.8592,28.5419],[76.8376,28.557],[76.8329,28.5825],[76.835,28.5914],[76.8548,28.5924],[76.8779,28.6376],[76.8937,28.6328],[76.9103,28.6378],[76.9182,28.6533],[76.9231,28.6692],[76.9426,28.6751],[76.9473,28.6772],[76.95,28.6941],[76.9413,28.717],[76.9503,28.7467],[76.9382,28.7596],[76.9466,28.774],[76.9375,28.8035],[76.9423,28.8207]]]},"properties":{"NAME_1":"Haryana","NAME_2":"Jhajjar"}},{"type":"Feature","geometry":{"type":"Polygon","coordinates":[[[76.2111,29.8432],[76.1942,29.845],[76.1667,29.8183],[76.1393,29.8168],[76.1164,29.7964],[76.0906,29.8108],[76.0777,29.8058],[76.0743,29.7812],[76.0584,29.7731],[76.0415,29.7488],[76.0038,29.7509],[75.9725,29.7324],[75.9387,29.7335],[75.927,29.6871],[75.9409,29.6703],[75.9345,29.6505],[75.9449,29.6249],[75.9395,29.6001],[75.9495,29.569],[75.952,29.5551],[75.9272,29.5191],[75.9305,29.502],[75.9864,29.486],[75.9832,29.4558],[76.0296,29.4318],[76.0752,29.4425],[76.0835,29.4131],[76.1126,29.4087],[76.1281,29.3938],[76.1537,29.4192],[76.1921,29.4065],[76.1936,29.3751],[76.1765,29.3554],[76.1979,29.3283],[76.1821,29.3006],[76.2182,29.2461],[76.2204,29.2245],[76.2816,29.2128],[76.2912,29.1944],[76.2929,29.1574],[76.3076,29.1207],[76.2916,29.0911],[76.3414,29.0911],[76.3711,29.0775],[76.3948,29.0853],[76.4364,29.0644],[76.4512,29.071],[76.469,29.1008],[76.4801,29.1483],[76.5041,29.1697],[76.4918,29.1863],[76.4767,29.2455],[76.5167,29.2355],[76.5307,29.2148],[76.5504,29.2186],[76.5561,29.2348],[76.546,29.2656],[76.5512,29.2875],[76.601,29.2947],[76.6506,29.2721],[76.6714,29.275],[76.6422,29.2923],[76.6247,29.321],[76.6361,29.3428],[76.6367,29.3612],[76.6369,29.368],[76.646,29.3765],[76.657,29.378],[76.6706,29.3824],[76.6985,29.3881],[76.717,29.3941],[76.7235,29.4031],[76.7257,29.4115],[76.7324,29.4375],[76.7376,29.4477],[76.745,29.4722],[76.7291,29.4846],[76.6817,29.4827],[76.6472,29.4975],[76.6313,29.4772],[76.5917,29.4782],[76.546,29.463],[76.5182,29.4706],[76.5203,29.4907],[76.4984,29.4895],[76.4819,29.5189],[76.4652,29.5317],[76.4225,29.5393],[76.3821,29.5309],[76.3684,29.537],[76.3564,29.5813],[76.3131,29.587],[76.2876,29.5713],[76.2792,29.5416],[76.2571,29.5416],[76.251,29.566],[76.2312,29.5904],[76.2022,29.614],[76.1893,29.6582],[76.1664,29.6818],[76.1748,29.7032],[76.2098,29.7489],[76.2111,29.8432]]]},"properties":{"NAME_1":"Haryana","NAME_2":"Jind"}},{"type":"Feature","geometry":{"type":"Polygon","coordinates":[[[76.4521,30.1007],[76.426,30.1476],[76.4286,30.1798],[76.42,30.1979],[76.3988,30.199],[76.381,30.1832],[76.4016,30.1577],[76.3846,30.1458],[76.39,30.1275],[76.3489,30.1277],[76.3284,30.1095],[76.2931,30.1186],[76.2512,30.119],[76.2105,30.1561],[76.2047,30.1279],[76.2308,30.1085],[76.2538,30.106],[76.2299,30.0806],[76.1989,30.0348],[76.1894,30.0042],[76.2039,29.9441],[76.1789,29.9463],[76.1827,29.8939],[76.1974,29.884],[76.2253,29.8851],[76.242,29.869],[76.2111,29.8432],[76.2098,29.7489],[76.1748,29.7032],[76.1664,29.6818],[76.1893,29.6582],[76.2022,29.614],[76.2312,29.5904],[76.251,29.566],[76.2571,29.5416],[76.2792,29.5416],[76.2876,29.5713],[76.3131,29.587],[76.3564,29.5813],[76.3684,29.537],[76.3821,29.5309],[76.4225,29.5393],[76.4652,29.5317],[76.4819,29.5189],[76.4984,29.5422],[76.5137,29.5442],[76.521,29.5748],[76.5366,29.5944],[76.5213,29.6142],[76.5545,29.6335],[76.5917,29.6327],[76.6345,29.661],[76.641,29.6741],[76.6894,29.6743],[76.7,29.6958],[76.6788,29.7077],[76.6856,29.7519],[76.6762,29.7624],[76.7016,29.8235],[76.6775,29.83],[76.6753,29.8713],[76.6826,29.897],[76.7181,29.8885],[76.7388,29.9121],[76.7439,29.9293],[76.7204,29.9324],[76.6788,29.9209],[76.6557,29.9609],[76.6396,29.9573],[76.606,29.9229],[76.5811,29.9165],[76.585,29.8812],[76.5508,29.8719],[76.5429,29.8619],[76.5107,29.901],[76.4591,29.9159],[76.4711,29.9597],[76.4542,29.9844],[76.4507,30.0049],[76.4634,30.0249],[76.4283,30.0257],[76.4125,30.0479],[76.4315,30.0672],[76.4521,30.1007]]]},"properties":{"NAME_1":"Haryana","NAME_2":"Kaithal"}},{"type":"Feature","geometry":{"type":"Polygon","coordinates":[[[77.2111,29.9407],[77.1879,29.9387],[77.1553,29.9731],[77.1215,29.9703],[77.1042,29.9824],[77.0824,29.954],[77.0469,29.9488],[77.0245,29.9568],[77.0109,29.9495],[76.9902,29.9692],[76.9692,29.9687],[76.9625,29.9537],[76.9336,29.927],[76.8875,29.9249],[76.8546,29.9314],[76.8001,29.9345],[76.783,29.9491],[76.7439,29.9293],[76.7388,29.9121],[76.7181,29.8885],[76.6826,29.897],[76.6753,29.8713],[76.6775,29.83],[76.7016,29.8235],[76.6762,29.7624],[76.6856,29.7519],[76.6788,29.7077],[76.7,29.6958],[76.6894,29.6743],[76.641,29.6741],[76.6345,29.661],[76.5917,29.6327],[76.5545,29.6335],[76.5213,29.6142],[76.5366,29.5944],[76.521,29.5748],[76.5137,29.5442],[76.4984,29.5422],[76.4819,29.5189],[76.4984,29.4895],[76.5203,29.4907],[76.5182,29.4706],[76.546,29.463],[76.5917,29.4782],[76.6313,29.4772],[76.6472,29.4975],[76.6817,29.4827],[76.7291,29.4846],[76.745,29.4722],[76.7732,29.4721],[76.7817,29.4737],[76.7951,29.4866],[76.8259,29.4738],[76.8455,29.4828],[76.8576,29.4951],[76.8835,29.4842],[76.8869,29.4777],[76.8954,29.4733],[76.9104,29.4857],[76.9523,29.4629],[76.9679,29.4719],[76.9894,29.456],[77.0046,29.4517],[77.0337,29.4547],[77.0654,29.4457],[77.1241,29.4529],[77.1143,29.4619],[77.1233,29.4861],[77.0849,29.5336],[77.1097,29.553],[77.0856,29.6008],[77.1097,29.6472],[77.1294,29.6586],[77.12,29.6803],[77.1322,29.6995],[77.1402,29.7173],[77.113,29.7486],[77.1183,29.7756],[77.1524,29.7933],[77.1556,29.8168],[77.1825,29.8733],[77.1796,29.9023],[77.1891,29.922],[77.2111,29.9407]]]},"properties":{"NAME_1":"Haryana","NAME_2":"Karnal"}},{"type":"Feature","geometry":{"type":"Polygon","coordinates":[[[77.0987,30.1802],[77.082,30.1582],[77.0658,30.1706],[77.0528,30.127],[77.0293,30.1356],[76.9877,30.1689],[76.9694,30.1716],[76.9491,30.1583],[76.931,30.181],[76.9479,30.1961],[76.9049,30.2035],[76.8904,30.193],[76.8515,30.232],[76.8533,30.2481],[76.8193,30.253],[76.7954,30.2162],[76.7373,30.1986],[76.6737,30.1887],[76.6649,30.1731],[76.6276,30.1551],[76.6276,30.1105],[76.6195,30.0954],[76.5895,30.0793],[76.5549,30.0988],[76.5336,30.0828],[76.5011,30.0766],[76.4908,30.0972],[76.4521,30.1007],[76.4315,30.0672],[76.4125,30.0479],[76.4283,30.0257],[76.4634,30.0249],[76.4507,30.0049],[76.4542,29.9844],[76.4711,29.9597],[76.4591,29.9159],[76.5107,29.901],[76.5429,29.8619],[76.5508,29.8719],[76.585,29.8812],[76.5811,29.9165],[76.606,29.9229],[76.6396,29.9573],[76.6557,29.9609],[76.6788,29.9209],[76.7204,29.9324],[76.7439,29.9293],[76.783,29.9491],[76.8001,29.9345],[76.8546,29.9314],[76.8875,29.9249],[76.9336,29.927],[76.9625,29.9537],[76.9692,29.9687],[76.9902,29.9692],[77.0109,29.9495],[77.0245,29.9568],[77.0469,29.9488],[77.0824,29.954],[77.1042,29.9824],[77.1215,29.9703],[77.1553,29.9731],[77.1879,29.9387],[77.2111,29.9407],[77.2505,29.9885],[77.2731,30.034],[77.2704,30.0483],[77.2652,30.0495],[77.2446,30.0468],[77.2284,30.0479],[77.2235,30.0483],[77.2166,30.0533],[77.2077,30.0554],[77.1871,30.0563],[77.1708,30.0655],[77.1697,30.0787],[77.1634,30.0971],[77.1695,30.1067],[77.1729,30.1288],[77.1522,30.1423],[77.1466,30.1432],[77.1448,30.1515],[77.1459,30.155],[77.1373,30.1598],[77.1259,30.1645],[77.1163,30.1673],[77.1014,30.1776],[77.0987,30.1802]]]},"properties":{"NAME_1":"Haryana","NAME_2":"Kurukshetra"}},{"type":"Feature","geometry":{"type":"Polygon","coordinates":[[[76.2819,28.4393],[76.2386,28.4474],[76.2343,28.4652],[76.2116,28.4716],[76.2063,28.4538],[76.1779,28.4362],[76.1464,28.4669],[76.1367,28.4535],[76.1084,28.4551],[76.0703,28.3986],[76.0133,28.3946],[76.0082,28.4364],[75.9914,28.4443],[75.8977,28.4336],[75.8892,28.3937],[75.8971,28.3801],[75.9224,28.3689],[75.9274,28.3451],[75.9563,28.3384],[75.9866,28.2959],[76.0187,28.281],[76.0112,28.2418],[76.053,28.2242],[76.0451,28.2029],[76.0656,28.1989],[76.0748,28.1724],[76.0929,28.1552],[76.0651,28.1445],[76.0664,28.1678],[76.0277,28.1727],[75.9947,28.1506],[75.9771,28.1272],[75.9425,28.1056],[75.9361,28.0935],[75.9771,28.0842],[76.0019,28.0607],[76.0101,28.0367],[75.9744,28.0369],[75.9727,28.0181],[75.9555,27.9886],[75.9869,27.9846],[75.9683,27.9623],[75.9632,27.937],[75.9236,27.9331],[75.9288,27.9168],[75.9559,27.9195],[75.9774,27.9093],[75.9754,27.8646],[76.0093,27.8626],[76.0496,27.8479],[76.0801,27.8511],[76.0881,27.8684],[76.1221,27.8544],[76.1278,27.8332],[76.1729,27.8075],[76.1941,27.8312],[76.2233,27.8409],[76.2059,27.848],[76.1903,27.8816],[76.1986,27.899],[76.1697,27.9097],[76.1795,27.9728],[76.1539,27.9925],[76.1743,28.0219],[76.2035,28.0304],[76.1769,28.049],[76.1773,28.0593],[76.2334,28.0564],[76.2511,28.0709],[76.2718,28.0664],[76.2901,28.0491],[76.2901,28.0299],[76.3166,28.021],[76.3368,28.0297],[76.3533,28.0656],[76.3373,28.0731],[76.308,28.1113],[76.3319,28.1067],[76.3556,28.1285],[76.3227,28.1492],[76.2782,28.1686],[76.3087,28.1834],[76.2995,28.2029],[76.3367,28.228],[76.3471,28.2858],[76.3413,28.3083],[76.3623,28.3299],[76.3508,28.3508],[76.3511,28.3718],[76.3811,28.3691],[76.3884,28.4007],[76.3578,28.4066],[76.3466,28.374],[76.2917,28.3872],[76.2938,28.4068],[76.2755,28.4131],[76.2819,28.4393]]]},"properties":{"NAME_1":"Haryana","NAME_2":"Mahendragarh"}},{"type":"Feature","geometry":{"type":"Polygon","coordinates":[[[76.8098,30.9068],[76.8102,30.9304],[76.7988,30.9246],[76.7699,30.9064],[76.7625,30.8934],[76.769,30.8765],[76.7849,30.8613],[76.8066,30.8403],[76.8278,30.8326],[76.8335,30.8046],[76.8413,30.7991],[76.8308,30.7679],[76.8282,30.7638],[76.8227,30.7401],[76.8363,30.7143],[76.8198,30.6858],[76.835,30.6641],[76.8348,30.6558],[76.8554,30.6732],[76.8586,30.6406],[76.8727,30.64],[76.8806,30.6331],[76.8945,30.6233],[76.9134,30.5997],[76.9072,30.5914],[76.9039,30.5752],[76.9038,30.5617],[76.9022,30.551],[76.8878,30.5382],[76.9201,30.5247],[76.9501,30.5356],[76.9667,30.5688],[76.993,30.5951],[76.9989,30.6046],[77.0126,30.6153],[77.0197,30.6241],[77.0227,30.6366],[77.0335,30.6238],[77.0454,30.6112],[77.0685,30.5856],[77.0936,30.5861],[77.1238,30.5727],[77.1259,30.5737],[77.1512,30.5928],[77.1541,30.5963],[77.1585,30.6075],[77.1599,30.6315],[77.1604,30.6424],[77.1507,30.6812],[77.1535,30.6887],[77.1404,30.6976],[77.1251,30.7071],[77.1222,30.7122],[77.1096,30.7227],[77.1032,30.7204],[77.0961,30.7346],[77.0768,30.7448],[77.0697,30.747],[77.0303,30.7518],[77.024,30.7416],[77.0064,30.7495],[77.0047,30.7525],[77.0047,30.7574],[77.0058,30.7618],[77.0024,30.768],[76.9912,30.7735],[76.9949,30.7851],[77,30.789],[77.0004,30.7976],[76.9958,30.8167],[76.9885,30.815],[76.9848,30.8105],[76.9826,30.8043],[76.9538,30.8112],[76.9476,30.8232],[76.9275,30.8374],[76.9278,30.8481],[76.9022,30.8972],[76.8696,30.8782],[76.8618,30.8736],[76.8524,30.8707],[76.8372,30.8789],[76.8227,30.8881],[76.8158,30.896],[76.8098,30.9068]]]},"properties":{"NAME_1":"Haryana","NAME_2":"Panchkula"}},{"type":"Feature","geometry":{"type":"Polygon","coordinates":[[[76.8576,29.4951],[76.8455,29.4828],[76.8259,29.4738],[76.7951,29.4866],[76.7817,29.4737],[76.7732,29.4721],[76.745,29.4722],[76.7376,29.4477],[76.7324,29.4375],[76.7257,29.4115],[76.7235,29.4031],[76.717,29.3941],[76.6985,29.3881],[76.6706,29.3824],[76.657,29.378],[76.646,29.3765],[76.6369,29.368],[76.6367,29.3612],[76.6361,29.3428],[76.6247,29.321],[76.6422,29.2923],[76.6714,29.275],[76.6903,29.2676],[76.7007,29.2557],[76.7317,29.2655],[76.7467,29.2781],[76.7555,29.2821],[76.775,29.2785],[76.786,29.2465],[76.7905,29.2313],[76.8169,29.2137],[76.8568,29.209],[76.8674,29.1992],[76.8734,29.1977],[76.8832,29.215],[76.9052,29.2241],[76.9279,29.2143],[76.9467,29.2186],[76.9551,29.2242],[76.9901,29.2239],[76.9998,29.2003],[77.0093,29.1934],[77.0292,29.1892],[77.0383,29.1929],[77.0509,29.1819],[77.0731,29.187],[77.0819,29.1799],[77.1034,29.1754],[77.1324,29.1718],[77.14,29.1821],[77.1272,29.2281],[77.1428,29.2378],[77.1295,29.2728],[77.1423,29.3015],[77.1542,29.3169],[77.151,29.3255],[77.1464,29.3451],[77.1276,29.3443],[77.1175,29.3572],[77.1167,29.3726],[77.1169,29.3767],[77.1311,29.3807],[77.1386,29.3839],[77.1259,29.4106],[77.1358,29.4322],[77.1241,29.4529],[77.0654,29.4457],[77.0337,29.4547],[77.0046,29.4517],[76.9894,29.456],[76.9679,29.4719],[76.9523,29.4629],[76.9104,29.4857],[76.8954,29.4733],[76.8869,29.4777],[76.8835,29.4842],[76.8576,29.4951]]]},"properties":{"NAME_1":"Haryana","NAME_2":"Panipat"}},{"type":"Feature","geometry":{"type":"Polygon","coordinates":[[[76.8543,28.2252],[76.8465,28.2395],[76.823,28.2494],[76.7612,28.2459],[76.7132,28.2675],[76.6731,28.2679],[76.6681,28.2796],[76.6772,28.32],[76.6526,28.3227],[76.6513,28.364],[76.658,28.3858],[76.6365,28.4146],[76.6127,28.433],[76.6003,28.425],[76.5918,28.3739],[76.5749,28.3515],[76.5423,28.3501],[76.5092,28.3618],[76.4879,28.3816],[76.4536,28.3504],[76.418,28.349],[76.4107,28.3298],[76.38,28.3433],[76.3811,28.3691],[76.3511,28.3718],[76.3508,28.3508],[76.3623,28.3299],[76.3413,28.3083],[76.3471,28.2858],[76.3367,28.228],[76.2995,28.2029],[76.3087,28.1834],[76.3532,28.1662],[76.3598,28.1434],[76.3768,28.1381],[76.397,28.1478],[76.4371,28.1522],[76.4723,28.1496],[76.4897,28.1337],[76.4978,28.1066],[76.4569,28.1104],[76.4486,28.0932],[76.4699,28.0863],[76.4977,28.0647],[76.458,28.062],[76.4557,28.0465],[76.4922,28.0471],[76.5114,28.0354],[76.5385,28.0391],[76.531,27.9793],[76.5466,27.9714],[76.599,28.0098],[76.6369,28.0107],[76.6601,28.0191],[76.651,28.0445],[76.6479,28.0922],[76.6822,28.0978],[76.71,28.1324],[76.7391,28.129],[76.7551,28.1466],[76.7915,28.1572],[76.7903,28.1938],[76.8334,28.2248],[76.8543,28.2252]]]},"properties":{"NAME_1":"Haryana","NAME_2":"Rewari"}},{"type":"Feature","geometry":{"type":"Polygon","coordinates":[[[76.8928,28.8671],[76.8698,28.8744],[76.8543,28.8669],[76.8093,28.8641],[76.8022,28.8695],[76.8171,28.9085],[76.8087,28.9332],[76.7736,28.9322],[76.7687,28.9494],[76.7476,28.9685],[76.6615,28.9889],[76.6514,29.0058],[76.6559,29.0321],[76.6309,29.0369],[76.6289,29.0633],[76.5568,29.0714],[76.5299,29.1089],[76.5023,29.0851],[76.469,29.1008],[76.4512,29.071],[76.4364,29.0644],[76.3948,29.0853],[76.3711,29.0775],[76.3414,29.0911],[76.2916,29.0911],[76.2773,29.074],[76.2432,29.0724],[76.2304,29.0605],[76.2404,29.0283],[76.2232,28.9912],[76.2092,28.9632],[76.2397,28.9435],[76.2303,28.9157],[76.2625,28.9067],[76.2906,28.9089],[76.2811,28.8556],[76.2897,28.834],[76.2853,28.8134],[76.3251,28.8171],[76.3763,28.7841],[76.3963,28.756],[76.3913,28.7377],[76.3712,28.7136],[76.3965,28.6858],[76.4169,28.7283],[76.4408,28.741],[76.518,28.7442],[76.5242,28.7531],[76.57,28.7386],[76.5852,28.7535],[76.5883,28.7825],[76.6205,28.7933],[76.6381,28.8108],[76.6248,28.8222],[76.6374,28.8426],[76.6608,28.8172],[76.6634,28.7986],[76.7025,28.7912],[76.7012,28.772],[76.7728,28.7472],[76.8108,28.7898],[76.7848,28.8115],[76.8094,28.8273],[76.8374,28.8142],[76.8769,28.8404],[76.8928,28.8671]]]},"properties":{"NAME_1":"Haryana","NAME_2":"Rohtak"}},{"type":"Feature","geometry":{"type":"Polygon","coordinates":[[[75.1786,29.8369],[75.1554,29.8198],[75.1495,29.7916],[75.1249,29.8056],[75.1023,29.8026],[75.0933,29.8193],[75.1041,29.838],[75.0857,29.8448],[75.1006,29.8679],[75.1027,29.897],[75.0777,29.9123],[75.0655,29.879],[75.0375,29.8818],[74.9899,29.8565],[74.9699,29.8899],[74.9432,29.9025],[74.9241,29.9415],[74.872,29.9591],[74.8496,29.9591],[74.8214,29.9731],[74.8012,29.9926],[74.776,29.9744],[74.724,29.9619],[74.6974,29.9711],[74.6955,29.9715],[74.6908,29.9693],[74.6657,29.9417],[74.6399,29.9225],[74.6396,29.9039],[74.622,29.9078],[74.5858,29.9148],[74.5618,29.9293],[74.552,29.9292],[74.5246,29.9516],[74.5191,29.9433],[74.505,29.9078],[74.5337,29.9026],[74.5536,29.8656],[74.5325,29.8393],[74.4917,29.8265],[74.4653,29.7875],[74.472,29.744],[74.5258,29.7414],[74.5378,29.7539],[74.5714,29.7532],[74.5925,29.7667],[74.6054,29.7529],[74.6035,29.7214],[74.5785,29.6548],[74.5703,29.5859],[74.5717,29.5556],[74.6114,29.5315],[74.5789,29.4586],[74.5346,29.465],[74.5313,29.425],[74.5522,29.4224],[74.57,29.4062],[74.5729,29.3864],[74.6,29.3543],[74.5958,29.3283],[74.6418,29.3312],[74.6502,29.3724],[74.6887,29.3652],[74.7112,29.3689],[74.7317,29.3538],[74.7759,29.3602],[74.8095,29.3985],[74.8495,29.4028],[74.8706,29.3851],[74.8885,29.3867],[74.9271,29.3646],[74.9506,29.3185],[74.9401,29.3048],[74.9531,29.2819],[74.991,29.2717],[75.0239,29.2915],[75.0399,29.2871],[75.0509,29.2637],[75.0781,29.2325],[75.1082,29.2268],[75.1137,29.2429],[75.1475,29.2458],[75.18,29.2686],[75.1953,29.2442],[75.2235,29.235],[75.2352,29.2519],[75.2237,29.2687],[75.2294,29.3032],[75.2174,29.3268],[75.2523,29.3425],[75.2575,29.3556],[75.2145,29.4006],[75.2327,29.4216],[75.268,29.4255],[75.2913,29.4438],[75.2755,29.4653],[75.2765,29.4975],[75.265,29.5106],[75.2899,29.5227],[75.2906,29.5618],[75.275,29.5611],[75.2235,29.5462],[75.2218,29.5703],[75.2179,29.5785],[75.2112,29.5824],[75.2232,29.5989],[75.1994,29.6227],[75.1733,29.6301],[75.1733,29.6495],[75.1628,29.658],[75.1589,29.6694],[75.1678,29.6733],[75.1889,29.6808],[75.1953,29.6878],[75.1924,29.6995],[75.1872,29.7119],[75.1981,29.7308],[75.2062,29.7353],[75.2166,29.73],[75.2214,29.7331],[75.2273,29.7561],[75.2167,29.7715],[75.2054,29.79],[75.1978,29.8134],[75.2009,29.83],[75.1786,29.8369]]]},"properties":{"NAME_1":"Haryana","NAME_2":"Sirsa"}},{"type":"Feature","geometry":{"type":"Polygon","coordinates":[[[76.6714,29.275],[76.6506,29.2721],[76.601,29.2947],[76.5512,29.2875],[76.546,29.2656],[76.5561,29.2348],[76.5504,29.2186],[76.5307,29.2148],[76.5167,29.2355],[76.4767,29.2455],[76.4918,29.1863],[76.5041,29.1697],[76.4801,29.1483],[76.469,29.1008],[76.5023,29.0851],[76.5299,29.1089],[76.5568,29.0714],[76.6289,29.0633],[76.6309,29.0369],[76.6559,29.0321],[76.6514,29.0058],[76.6615,28.9889],[76.7476,28.9685],[76.7687,28.9494],[76.7736,28.9322],[76.8087,28.9332],[76.8171,28.9085],[76.8022,28.8695],[76.8093,28.8641],[76.8543,28.8669],[76.8698,28.8744],[76.8928,28.8671],[76.9088,28.8277],[76.9423,28.8207],[76.9482,28.8177],[76.958,28.8303],[76.9796,28.8367],[76.9835,28.8391],[77.0315,28.8368],[77.0377,28.8528],[77.0498,28.8732],[77.0834,28.8746],[77.0995,28.8724],[77.1097,28.8661],[77.1285,28.8654],[77.1356,28.8527],[77.1507,28.8484],[77.1646,28.8606],[77.1836,28.8623],[77.178,28.8856],[77.1991,28.8927],[77.2169,28.9003],[77.1968,28.9209],[77.2054,28.9365],[77.1901,28.9557],[77.191,28.9617],[77.2079,28.9911],[77.2142,29.006],[77.1916,29.0213],[77.1616,29.0524],[77.1572,29.0775],[77.1318,29.0946],[77.1244,29.1015],[77.1362,29.1278],[77.1266,29.154],[77.1273,29.1629],[77.1324,29.1718],[77.1034,29.1754],[77.0819,29.1799],[77.0731,29.187],[77.0509,29.1819],[77.0383,29.1929],[77.0292,29.1892],[77.0093,29.1934],[76.9998,29.2003],[76.9901,29.2239],[76.9551,29.2242],[76.9467,29.2186],[76.9279,29.2143],[76.9052,29.2241],[76.8832,29.215],[76.8734,29.1977],[76.8674,29.1992],[76.8568,29.209],[76.8169,29.2137],[76.7905,29.2313],[76.786,29.2465],[76.775,29.2785],[76.7555,29.2821],[76.7467,29.2781],[76.7317,29.2655],[76.7007,29.2557],[76.6903,29.2676],[76.6714,29.275]]]},"properties":{"NAME_1":"Haryana","NAME_2":"Sonepat"}},{"type":"Feature","geometry":{"type":"Polygon","coordinates":[[[77.3762,30.4463],[77.3697,30.4458],[77.3461,30.4619],[77.3263,30.4632],[77.3168,30.4576],[77.3107,30.4536],[77.3006,30.4366],[77.2848,30.4323],[77.2798,30.4258],[77.2655,30.4117],[77.2686,30.4025],[77.2704,30.3918],[77.259,30.375],[77.2304,30.3566],[77.2028,30.3559],[77.1849,30.3333],[77.1704,30.3281],[77.1738,30.322],[77.1573,30.3018],[77.1496,30.2976],[77.1232,30.2735],[77.1241,30.2473],[77.1411,30.249],[77.1313,30.2239],[77.1168,30.2343],[77.0985,30.2288],[77.0921,30.2292],[77.0724,30.2199],[77.0629,30.2019],[77.0713,30.1972],[77.088,30.1919],[77.096,30.1867],[77.0987,30.1802],[77.1014,30.1776],[77.1163,30.1673],[77.1259,30.1645],[77.1373,30.1598],[77.1459,30.155],[77.1448,30.1515],[77.1466,30.1432],[77.1522,30.1423],[77.1729,30.1288],[77.1695,30.1067],[77.1634,30.0971],[77.1697,30.0787],[77.1708,30.0655],[77.1871,30.0563],[77.2077,30.0554],[77.2166,30.0533],[77.2235,30.0483],[77.2284,30.0479],[77.2446,30.0468],[77.2652,30.0495],[77.2804,30.0525],[77.2918,30.0585],[77.3029,30.0606],[77.3248,30.0618],[77.3685,30.0916],[77.3803,30.093],[77.3967,30.0958],[77.4101,30.1111],[77.4087,30.1232],[77.4155,30.1335],[77.4114,30.1497],[77.4153,30.1567],[77.4468,30.1686],[77.4733,30.1886],[77.4839,30.2101],[77.4937,30.2275],[77.5198,30.2601],[77.5247,30.278],[77.5322,30.2869],[77.5453,30.2941],[77.5558,30.3026],[77.5704,30.3112],[77.5701,30.3316],[77.5699,30.3371],[77.5828,30.3584],[77.5749,30.3845],[77.5579,30.3904],[77.5387,30.4019],[77.5293,30.4135],[77.518,30.4309],[77.5098,30.4488],[77.4929,30.433],[77.4913,30.4174],[77.4826,30.4152],[77.468,30.4118],[77.435,30.4037],[77.4159,30.4128],[77.4257,30.42],[77.4533,30.4404],[77.4543,30.4461],[77.4262,30.4411],[77.4076,30.4279],[77.4006,30.4188],[77.3955,30.4209],[77.3819,30.4393],[77.3762,30.4463]]]},"properties":{"NAME_1":"Haryana","NAME_2":"Yamuna Nagar"}}]}