{"type":"FeatureCollection","features":[{"type":"Feature","geometry":{"type":"Polygon","coordinates":[[[76.715,31.5883],[76.6906,31.6018],[76.6521,31.5857],[76.63,31.5901],[76.6074,31.5762],[76.5997,31.5498],[76.6048,31.5176],[76.5935,31.4935],[76.5958,31.4727],[76.6128,31.4481],[76.5999,31.4216],[76.558,31.4346],[76.5033,31.4706],[76.47,31.4734],[76.4446,31.4886],[76.4561,31.4613],[76.4576,31.4271],[76.4208,31.4141],[76.3816,31.4106],[76.3911,31.3786],[76.428,31.3252],[76.4483,31.306],[76.4667,31.3102],[76.4886,31.2734],[76.5109,31.2826],[76.5459,31.2559],[76.5705,31.2801],[76.6016,31.2509],[76.576,31.2258],[76.5868,31.2161],[76.6163,31.2294],[76.6354,31.213],[76.6801,31.2203],[76.7185,31.2434],[76.765,31.2238],[76.7938,31.2338],[76.8236,31.2354],[76.8466,31.2222],[76.8693,31.2273],[76.8562,31.2497],[76.8621,31.2655],[76.8851,31.2716],[76.9137,31.3056],[76.905,31.3171],[76.8617,31.3347],[76.8614,31.3577],[76.8507,31.3844],[76.8691,31.3916],[76.8661,31.4151],[76.8195,31.4248],[76.7896,31.4258],[76.7834,31.4793],[76.7717,31.5048],[76.7525,31.5231],[76.7263,31.5208],[76.7156,31.5495],[76.715,31.5883]]]},"properties":{"NAME_1":"Himachal Pradesh","NAME_2":"Bilaspur"}},{"type":"Feature","geometry":{"type":"Polygon","coordinates":[[[76.5676,33.2071],[76.5475,33.2095],[76.5342,33.1993],[76.496,33.196],[76.4661,33.1799],[76.4502,33.1829],[76.4218,33.1818],[76.4007,33.1866],[76.3662,33.168],[76.3608,33.1628],[76.3558,33.1546],[76.3356,33.1463],[76.3155,33.1302],[76.288,33.1132],[76.275,33.104],[76.2712,33.0964],[76.2552,33.0523],[76.2373,33.0326],[76.2295,33.0303],[76.1522,33.0229],[76.1439,33.0165],[76.1205,33.0104],[76.1073,33.0079],[76.0912,32.9928],[76.0822,32.9688],[76.0659,32.958],[76.0237,32.9316],[76.0212,32.9244],[76.0135,32.9159],[75.9975,32.9094],[75.9832,32.9004],[75.9338,32.8843],[75.9136,32.9062],[75.9001,32.9157],[75.8671,32.9302],[75.8281,32.9341],[75.8214,32.9335],[75.7983,32.9194],[75.7984,32.9022],[75.7874,32.8933],[75.7954,32.8693],[75.8083,32.8532],[75.8211,32.8428],[75.8374,32.8368],[75.8552,32.8261],[75.8738,32.8137],[75.9001,32.7699],[75.9125,32.7571],[75.9098,32.7209],[75.8989,32.6806],[75.9254,32.6543],[75.9078,32.6191],[75.8725,32.5762],[75.8703,32.5588],[75.8514,32.5213],[75.8553,32.4996],[75.9155,32.4487],[75.9346,32.4248],[75.9111,32.4092],[75.922,32.396],[75.9588,32.3915],[76.004,32.3387],[76.0014,32.2917],[76.0318,32.2653],[76.071,32.2721],[76.1085,32.2525],[76.1095,32.2362],[76.1282,32.2266],[76.1649,32.2466],[76.1709,32.2738],[76.1523,32.2848],[76.1447,32.319],[76.1539,32.352],[76.1955,32.38],[76.2073,32.3966],[76.2435,32.3941],[76.2681,32.3691],[76.279,32.3414],[76.3399,32.328],[76.3632,32.2987],[76.4038,32.2815],[76.4087,32.2661],[76.4663,32.2536],[76.4886,32.2351],[76.5408,32.2308],[76.5742,32.223],[76.6092,32.1945],[76.6575,32.1811],[76.6825,32.199],[76.7212,32.1899],[76.7571,32.2294],[76.7538,32.2562],[76.756,32.3106],[76.7695,32.3188],[76.7566,32.3412],[76.757,32.3615],[76.7716,32.3767],[76.7705,32.4083],[76.7949,32.4206],[76.8077,32.4391],[76.8488,32.4632],[76.8373,32.4783],[76.8631,32.5191],[76.8492,32.5354],[76.8226,32.5283],[76.8113,32.5404],[76.7789,32.539],[76.7649,32.5543],[76.723,32.5624],[76.6983,32.5399],[76.6842,32.548],[76.6934,32.5712],[76.6637,32.5716],[76.6328,32.5819],[76.6133,32.5757],[76.6149,32.6045],[76.5922,32.6077],[76.5769,32.6438],[76.5,32.6681],[76.4476,32.6539],[76.4098,32.6893],[76.4088,32.7134],[76.3868,32.7386],[76.3587,32.7976],[76.3603,32.8205],[76.3934,32.8423],[76.4386,32.8529],[76.4564,32.8063],[76.4963,32.8042],[76.5299,32.814],[76.5953,32.8553],[76.623,32.843],[76.6678,32.8554],[76.6805,32.8794],[76.7003,32.8915],[76.7018,32.924],[76.7459,32.931],[76.7623,32.9625],[76.7556,33.0111],[76.7392,33.0268],[76.738,33.0457],[76.7198,33.0764],[76.718,33.0979],[76.7299,33.1315],[76.7299,33.1794],[76.7142,33.1774],[76.6695,33.1733],[76.6594,33.1711],[76.627,33.1625],[76.5985,33.1765],[76.5973,33.188],[76.588,33.19],[76.584,33.1931],[76.5862,33.2042],[76.5676,33.2071]]]},"properties":{"NAME_1":"Himachal Pradesh","NAME_2":"Chamba"}},{"type":"Feature","geometry":{"type":"Polygon","coordinates":[[[76.715,31.5883],[76.7007,31.6335],[76.7128,31.6677],[76.6788,31.685],[76.6737,31.7115],[76.6589,31.7348],[76.6217,31.7523],[76.6062,31.7926],[76.613,31.8452],[76.6255,31.8771],[76.5908,31.8964],[76.5531,31.8921],[76.5082,31.8665],[76.5049,31.8463],[76.4528,31.8293],[76.4465,31.8076],[76.4154,31.7968],[76.3843,31.7997],[76.3552,31.7797],[76.3378,31.7955],[76.288,31.7782],[76.3048,31.7334],[76.2992,31.7238],[76.3211,31.685],[76.3531,31.6429],[76.3798,31.6225],[76.425,31.5393],[76.4213,31.5247],[76.4446,31.4886],[76.47,31.4734],[76.5033,31.4706],[76.558,31.4346],[76.5999,31.4216],[76.6128,31.4481],[76.5958,31.4727],[76.5935,31.4935],[76.6048,31.5176],[76.5997,31.5498],[76.6074,31.5762],[76.63,31.5901],[76.6521,31.5857],[76.6906,31.6018],[76.715,31.5883]]]},"properties":{"NAME_1":"Himachal Pradesh","NAME_2":"Hamirpur"}},{"type":"Feature","geometry":{"type":"Polygon","coordinates":[[[77.0581,32.3994],[77.0642,32.4116],[77.0422,32.4315],[76.9361,32.4055],[76.9372,32.4269],[76.9095,32.4178],[76.9013,32.4379],[76.8839,32.4444],[76.8848,32.4723],[76.8488,32.4632],[76.8077,32.4391],[76.7949,32.4206],[76.7705,32.4083],[76.7716,32.3767],[76.757,32.3615],[76.7566,32.3412],[76.7695,32.3188],[76.756,32.3106],[76.7538,32.2562],[76.7571,32.2294],[76.7212,32.1899],[76.6825,32.199],[76.6575,32.1811],[76.6092,32.1945],[76.5742,32.223],[76.5408,32.2308],[76.4886,32.2351],[76.4663,32.2536],[76.4087,32.2661],[76.4038,32.2815],[76.3632,32.2987],[76.3399,32.328],[76.279,32.3414],[76.2681,32.3691],[76.2435,32.3941],[76.2073,32.3966],[76.1955,32.38],[76.1539,32.352],[76.1447,32.319],[76.1523,32.2848],[76.1709,32.2738],[76.1649,32.2466],[76.1282,32.2266],[76.1095,32.2362],[76.1085,32.2525],[76.071,32.2721],[76.0318,32.2653],[76.0014,32.2917],[76.004,32.3387],[75.9588,32.3915],[75.922,32.396],[75.9111,32.4092],[75.8719,32.3984],[75.8439,32.3793],[75.7364,32.2738],[75.6758,32.264],[75.6225,32.2347],[75.6202,32.1852],[75.6562,32.1766],[75.6555,32.1461],[75.6106,32.0996],[75.5788,32.0817],[75.5985,32.066],[75.6494,32.0772],[75.6923,32.0595],[75.7105,32.036],[75.734,32.0373],[75.7743,32.0008],[75.7951,31.9886],[75.8364,31.9816],[75.8945,31.9498],[75.9443,31.8575],[75.9853,31.8524],[75.9938,31.8645],[76.0327,31.863],[76.1002,31.8071],[76.1452,31.7979],[76.189,31.7747],[76.2092,31.7446],[76.275,31.6887],[76.2992,31.7238],[76.3048,31.7334],[76.288,31.7782],[76.3378,31.7955],[76.3552,31.7797],[76.3843,31.7997],[76.4154,31.7968],[76.4465,31.8076],[76.4528,31.8293],[76.5049,31.8463],[76.5082,31.8665],[76.5531,31.8921],[76.5908,31.8964],[76.6255,31.8771],[76.6629,31.8759],[76.6599,31.8969],[76.6787,31.9351],[76.6649,31.9895],[76.6537,32.0031],[76.6472,32.0329],[76.6641,32.0504],[76.7225,32.0325],[76.7545,32.0676],[76.7714,32.0759],[76.8267,32.0437],[76.8716,32.0602],[76.9236,32.0654],[76.9303,32.115],[76.9727,32.1136],[76.971,32.1569],[76.9894,32.2026],[77.0224,32.2097],[77.0362,32.2286],[77.0155,32.25],[77.0202,32.2873],[77.0144,32.3092],[77.0286,32.3253],[77.0245,32.3423],[77.036,32.369],[77.0581,32.3994]]]},"properties":{"NAME_1":"Himachal Pradesh","NAME_2":"Kangra"}},{"type":"Feature","geometry":{"type":"Polygon","coordinates":[[[78.9069,31.2592],[78.8795,31.2707],[78.8675,31.3014],[78.8484,31.3223],[78.829,31.3302],[78.8403,31.3544],[78.8272,31.3813],[78.776,31.4024],[78.7925,31.4179],[78.7955,31.4528],[78.7442,31.4903],[78.716,31.4872],[78.7068,31.5211],[78.7213,31.541],[78.75,31.5488],[78.7681,31.5657],[78.7973,31.5762],[78.8228,31.6006],[78.8269,31.628],[78.7842,31.6613],[78.7796,31.6898],[78.7475,31.6851],[78.7344,31.692],[78.7118,31.7449],[78.7247,31.7639],[78.7033,31.7704],[78.6914,31.7934],[78.693,31.8143],[78.7205,31.8353],[78.7248,31.885],[78.7328,31.913],[78.7454,31.925],[78.771,31.9998],[78.7371,32.0041],[78.6901,32.0457],[78.6861,32.0576],[78.6511,32.0933],[78.6428,32.0781],[78.5888,32.0569],[78.5712,32.0647],[78.5259,32.0677],[78.4737,32.0512],[78.4275,32.057],[78.4098,32.0207],[78.4036,31.9938],[78.4441,31.9635],[78.4313,31.9417],[78.4055,31.9422],[78.3854,31.9593],[78.355,31.9646],[78.338,31.9451],[78.2955,31.9424],[78.2865,31.9312],[78.2565,31.9404],[78.1862,31.9371],[78.1683,31.92],[78.173,31.8764],[78.157,31.8671],[78.1079,31.8716],[78.0739,31.8625],[78.0798,31.8419],[78.0676,31.7917],[78.0423,31.7877],[78.0174,31.7652],[77.9941,31.7797],[77.9297,31.7889],[77.9209,31.7529],[77.8819,31.7633],[77.851,31.7874],[77.8334,31.7588],[77.8129,31.7645],[77.7524,31.7617],[77.7369,31.7555],[77.7352,31.7178],[77.7563,31.7077],[77.7791,31.6779],[77.8004,31.6617],[77.8094,31.6422],[77.7988,31.6151],[77.8237,31.5837],[77.82,31.567],[77.8299,31.5317],[77.8643,31.4958],[77.8648,31.4751],[77.8875,31.4474],[77.9174,31.4268],[77.9455,31.4187],[77.9485,31.407],[78.0092,31.4053],[78.0394,31.4232],[78.0735,31.4268],[78.1112,31.4103],[78.1508,31.3828],[78.1381,31.3646],[78.1563,31.3489],[78.2048,31.3305],[78.2323,31.3455],[78.2405,31.335],[78.2767,31.3285],[78.2802,31.2975],[78.2984,31.2882],[78.3693,31.2879],[78.3931,31.2623],[78.4195,31.2599],[78.4666,31.2209],[78.4701,31.2038],[78.5371,31.2067],[78.5666,31.2337],[78.6006,31.2359],[78.636,31.2196],[78.6507,31.1979],[78.6761,31.2032],[78.6956,31.1963],[78.7495,31.1944],[78.795,31.205],[78.8005,31.1783],[78.8187,31.1472],[78.8623,31.1124],[78.88,31.1038],[78.9038,31.1155],[78.9421,31.105],[78.9657,31.1154],[78.9967,31.1176],[78.9781,31.1457],[78.9719,31.1824],[78.9462,31.1936],[78.9351,31.2224],[78.9099,31.2339],[78.9069,31.2592]]]},"properties":{"NAME_1":"Himachal Pradesh","NAME_2":"Kinnaur"}},{"type":"Feature","geometry":{"type":"Polygon","coordinates":[[[77.851,31.7874],[77.8325,31.8097],[77.8338,31.8335],[77.8233,31.8526],[77.8434,31.8879],[77.8151,31.8992],[77.7908,31.8995],[77.7679,31.919],[77.7536,31.947],[77.7659,31.9706],[77.7854,31.9851],[77.7596,32.0112],[77.7755,32.022],[77.7297,32.0812],[77.7283,32.0952],[77.6716,32.1093],[77.6357,32.1512],[77.5969,32.1674],[77.5501,32.1994],[77.529,32.226],[77.4981,32.2051],[77.4838,32.2243],[77.4575,32.2312],[77.4415,32.1996],[77.4065,32.1977],[77.3791,32.2218],[77.3537,32.2257],[77.3286,32.2568],[77.3341,32.2702],[77.3195,32.3114],[77.2918,32.3389],[77.2251,32.3803],[77.2126,32.3771],[77.1796,32.4039],[77.1342,32.4185],[77.0933,32.4018],[77.0581,32.3994],[77.036,32.369],[77.0245,32.3423],[77.0286,32.3253],[77.0144,32.3092],[77.0202,32.2873],[77.0155,32.25],[77.0362,32.2286],[77.0224,32.2097],[76.9894,32.2026],[76.971,32.1569],[76.9727,32.1136],[76.9303,32.115],[76.9236,32.0654],[76.9282,32.0473],[76.9614,32.0265],[76.9629,31.9863],[77.0088,31.9235],[77.015,31.8964],[77.0458,31.8591],[77.0441,31.8379],[77.1519,31.8415],[77.1721,31.8248],[77.1828,31.7824],[77.1956,31.7587],[77.1977,31.7345],[77.2585,31.7046],[77.2906,31.6654],[77.2836,31.6569],[77.2919,31.6144],[77.2869,31.5611],[77.3047,31.5334],[77.3029,31.511],[77.3223,31.4529],[77.3659,31.4218],[77.3761,31.3874],[77.3719,31.3653],[77.3873,31.3661],[77.4152,31.3455],[77.4837,31.3601],[77.5168,31.3575],[77.5329,31.3861],[77.5764,31.3996],[77.6047,31.3926],[77.6191,31.4016],[77.6081,31.4277],[77.6172,31.4543],[77.6559,31.4669],[77.6938,31.5065],[77.684,31.546],[77.6408,31.5823],[77.6338,31.6028],[77.6381,31.6333],[77.6324,31.6616],[77.6703,31.7075],[77.7,31.7082],[77.7352,31.7178],[77.7369,31.7555],[77.7524,31.7617],[77.8129,31.7645],[77.8334,31.7588],[77.851,31.7874]]]},"properties":{"NAME_1":"Himachal Pradesh","NAME_2":"Kullu"}},{"type":"Feature","geometry":{"type":"Polygon","coordinates":[[[76.8028,33.2367],[76.7854,33.2536],[76.7783,33.2557],[76.76,33.253],[76.7552,33.2474],[76.7561,33.2198],[76.7456,33.2043],[76.7421,33.1975],[76.7299,33.1794],[76.7299,33.1315],[76.718,33.0979],[76.7198,33.0764],[76.738,33.0457],[76.7392,33.0268],[76.7556,33.0111],[76.7623,32.9625],[76.7459,32.931],[76.7018,32.924],[76.7003,32.8915],[76.6805,32.8794],[76.6678,32.8554],[76.623,32.843],[76.5953,32.8553],[76.5299,32.814],[76.4963,32.8042],[76.4564,32.8063],[76.4386,32.8529],[76.3934,32.8423],[76.3603,32.8205],[76.3587,32.7976],[76.3868,32.7386],[76.4088,32.7134],[76.4098,32.6893],[76.4476,32.6539],[76.5,32.6681],[76.5769,32.6438],[76.5922,32.6077],[76.6149,32.6045],[76.6133,32.5757],[76.6328,32.5819],[76.6637,32.5716],[76.6934,32.5712],[76.6842,32.548],[76.6983,32.5399],[76.723,32.5624],[76.7649,32.5543],[76.7789,32.539],[76.8113,32.5404],[76.8226,32.5283],[76.8492,32.5354],[76.8631,32.5191],[76.8373,32.4783],[76.8488,32.4632],[76.8848,32.4723],[76.8839,32.4444],[76.9013,32.4379],[76.9095,32.4178],[76.9372,32.4269],[76.9361,32.4055],[77.0422,32.4315],[77.0642,32.4116],[77.0581,32.3994],[77.0933,32.4018],[77.1342,32.4185],[77.1796,32.4039],[77.2126,32.3771],[77.2251,32.3803],[77.2918,32.3389],[77.3195,32.3114],[77.3341,32.2702],[77.3286,32.2568],[77.3537,32.2257],[77.3791,32.2218],[77.4065,32.1977],[77.4415,32.1996],[77.4575,32.2312],[77.4838,32.2243],[77.4981,32.2051],[77.529,32.226],[77.5501,32.1994],[77.5969,32.1674],[77.6357,32.1512],[77.6716,32.1093],[77.7283,32.0952],[77.7297,32.0812],[77.7755,32.022],[77.7596,32.0112],[77.7854,31.9851],[77.7659,31.9706],[77.7536,31.947],[77.7679,31.919],[77.7908,31.8995],[77.8151,31.8992],[77.8434,31.8879],[77.8233,31.8526],[77.8338,31.8335],[77.8325,31.8097],[77.851,31.7874],[77.8819,31.7633],[77.9209,31.7529],[77.9297,31.7889],[77.9941,31.7797],[78.0174,31.7652],[78.0423,31.7877],[78.0676,31.7917],[78.0798,31.8419],[78.0739,31.8625],[78.1079,31.8716],[78.157,31.8671],[78.173,31.8764],[78.1683,31.92],[78.1862,31.9371],[78.2565,31.9404],[78.2865,31.9312],[78.2955,31.9424],[78.338,31.9451],[78.355,31.9646],[78.3854,31.9593],[78.4055,31.9422],[78.4313,31.9417],[78.4441,31.9635],[78.4036,31.9938],[78.4098,32.0207],[78.4275,32.057],[78.4737,32.0512],[78.5259,32.0677],[78.5712,32.0647],[78.5888,32.0569],[78.6428,32.0781],[78.6511,32.0933],[78.6396,32.1121],[78.5963,32.1234],[78.5743,32.1586],[78.5942,32.1885],[78.5929,32.2187],[78.5431,32.2487],[78.4828,32.2431],[78.4392,32.2465],[78.4643,32.2778],[78.4612,32.337],[78.468,32.358],[78.494,32.3773],[78.4959,32.3908],[78.5188,32.4185],[78.4781,32.4259],[78.462,32.448],[78.4381,32.4564],[78.4487,32.4901],[78.4317,32.5103],[78.4108,32.5117],[78.4089,32.5127],[78.4052,32.5142],[78.4014,32.5182],[78.3991,32.5264],[78.3979,32.5271],[78.3824,32.5297],[78.3767,32.5261],[78.3104,32.4759],[78.3062,32.4777],[78.2785,32.5079],[78.2992,32.5293],[78.2966,32.5775],[78.318,32.5802],[78.3771,32.6149],[78.3632,32.672],[78.3676,32.6995],[78.3778,32.7193],[78.3712,32.7337],[78.3714,32.7618],[78.3447,32.7634],[78.2877,32.7378],[78.2986,32.7197],[78.2727,32.7029],[78.2366,32.6947],[78.225,32.6756],[78.195,32.6673],[78.1795,32.6704],[78.1444,32.6766],[78.1267,32.6491],[78.107,32.6497],[78.0934,32.6622],[78.079,32.6528],[78.0675,32.6256],[78.0441,32.6288],[78.0327,32.6338],[78.0324,32.6284],[78.0416,32.5992],[78.0358,32.5919],[77.9871,32.5882],[77.975,32.5964],[77.9622,32.6138],[77.9542,32.626],[77.9551,32.6348],[77.9323,32.6562],[77.9262,32.6668],[77.911,32.6882],[77.9024,32.6984],[77.9085,32.7164],[77.9094,32.7214],[77.9185,32.7308],[77.9156,32.7337],[77.9144,32.7445],[77.9172,32.7519],[77.9169,32.7627],[77.9123,32.7672],[77.9035,32.7729],[77.8995,32.7753],[77.8809,32.7754],[77.8722,32.7863],[77.869,32.8004],[77.8638,32.8115],[77.855,32.8212],[77.8476,32.8284],[77.8251,32.8399],[77.8082,32.836],[77.7877,32.8498],[77.7809,32.8541],[77.7677,32.8585],[77.766,32.8803],[77.787,32.8917],[77.7925,32.8981],[77.7475,32.9405],[77.7448,32.9459],[77.7364,32.9479],[77.7341,32.9503],[77.7125,32.9718],[77.6909,32.9794],[77.6795,32.9778],[77.6631,32.9759],[77.6433,32.9579],[77.6385,32.9561],[77.6173,32.944],[77.6107,32.9423],[77.6061,32.9424],[77.5839,32.9438],[77.5797,32.9317],[77.5447,32.9117],[77.527,32.8923],[77.5232,32.8898],[77.5196,32.8874],[77.5062,32.8831],[77.4732,32.8788],[77.4552,32.8617],[77.4362,32.8659],[77.4322,32.8704],[77.4257,32.8837],[77.4031,32.8815],[77.3794,32.8808],[77.3631,32.8635],[77.3598,32.8516],[77.3565,32.8253],[77.3405,32.8205],[77.3279,32.8199],[77.3216,32.8224],[77.3165,32.8298],[77.3109,32.8377],[77.3052,32.854],[77.2887,32.8526],[77.2701,32.8664],[77.2476,32.8649],[77.238,32.869],[77.2278,32.877],[77.2241,32.8827],[77.2293,32.8868],[77.218,32.8973],[77.1818,32.9155],[77.1739,32.9311],[77.1604,32.9161],[77.1469,32.9344],[77.1364,32.9578],[77.1343,32.9695],[77.1364,32.9805],[77.1032,32.9872],[77.0971,32.9776],[77.0749,32.9734],[77.0585,32.9861],[77.0353,32.9997],[76.9985,32.9896],[76.9869,32.9959],[76.9665,33.0072],[76.9621,33.0139],[76.9327,33.0285],[76.9133,33.0442],[76.9102,33.0502],[76.8964,33.0758],[76.8848,33.0974],[76.8687,33.1202],[76.8526,33.1115],[76.8374,33.1264],[76.8173,33.142],[76.8095,33.1486],[76.802,33.166],[76.7993,33.1695],[76.8052,33.1823],[76.8066,33.1847],[76.8186,33.2056],[76.8111,33.2155],[76.8283,33.2464],[76.8235,33.2479],[76.8173,33.2485],[76.8092,33.2443],[76.8063,33.2362],[76.8028,33.2367]]]},"properties":{"NAME_1":"Himachal Pradesh","NAME_2":"Lahul and Spiti"}},{"type":"Feature","geometry":{"type":"Polygon","coordinates":[[[76.9236,32.0654],[76.8716,32.0602],[76.8267,32.0437],[76.7714,32.0759],[76.7545,32.0676],[76.7225,32.0325],[76.6641,32.0504],[76.6472,32.0329],[76.6537,32.0031],[76.6649,31.9895],[76.6787,31.9351],[76.6599,31.8969],[76.6629,31.8759],[76.6255,31.8771],[76.613,31.8452],[76.6062,31.7926],[76.6217,31.7523],[76.6589,31.7348],[76.6737,31.7115],[76.6788,31.685],[76.7128,31.6677],[76.7007,31.6335],[76.715,31.5883],[76.7156,31.5495],[76.7263,31.5208],[76.7525,31.5231],[76.7717,31.5048],[76.7834,31.4793],[76.7896,31.4258],[76.8195,31.4248],[76.8661,31.4151],[76.8691,31.3916],[76.8507,31.3844],[76.8614,31.3577],[76.9065,31.3704],[76.9282,31.3515],[76.929,31.3379],[76.9887,31.3014],[77.0176,31.2788],[77.0809,31.2482],[77.1073,31.2508],[77.1182,31.2325],[77.1474,31.2346],[77.1758,31.259],[77.2259,31.2626],[77.2613,31.2774],[77.291,31.2752],[77.3221,31.3021],[77.3267,31.3266],[77.3495,31.3603],[77.3719,31.3653],[77.3761,31.3874],[77.3659,31.4218],[77.3223,31.4529],[77.3029,31.511],[77.3047,31.5334],[77.2869,31.5611],[77.2919,31.6144],[77.2836,31.6569],[77.2906,31.6654],[77.2585,31.7046],[77.1977,31.7345],[77.1956,31.7587],[77.1828,31.7824],[77.1721,31.8248],[77.1519,31.8415],[77.0441,31.8379],[77.0458,31.8591],[77.015,31.8964],[77.0088,31.9235],[76.9629,31.9863],[76.9614,32.0265],[76.9282,32.0473],[76.9236,32.0654]]]},"properties":{"NAME_1":"Himachal Pradesh","NAME_2":"Mandi"}},{"type":"Feature","geometry":{"type":"Polygon","coordinates":[[[78.2984,31.2882],[78.2802,31.2975],[78.2767,31.3285],[78.2405,31.335],[78.2323,31.3455],[78.2048,31.3305],[78.1563,31.3489],[78.1381,31.3646],[78.1508,31.3828],[78.1112,31.4103],[78.0735,31.4268],[78.0394,31.4232],[78.0092,31.4053],[77.9485,31.407],[77.9455,31.4187],[77.9174,31.4268],[77.8875,31.4474],[77.8648,31.4751],[77.8643,31.4958],[77.8299,31.5317],[77.82,31.567],[77.8237,31.5837],[77.7988,31.6151],[77.8094,31.6422],[77.8004,31.6617],[77.7791,31.6779],[77.7563,31.7077],[77.7352,31.7178],[77.7,31.7082],[77.6703,31.7075],[77.6324,31.6616],[77.6381,31.6333],[77.6338,31.6028],[77.6408,31.5823],[77.684,31.546],[77.6938,31.5065],[77.6559,31.4669],[77.6172,31.4543],[77.6081,31.4277],[77.6191,31.4016],[77.6047,31.3926],[77.5764,31.3996],[77.5329,31.3861],[77.5168,31.3575],[77.4837,31.3601],[77.4152,31.3455],[77.3873,31.3661],[77.3719,31.3653],[77.3495,31.3603],[77.3267,31.3266],[77.3221,31.3021],[77.291,31.2752],[77.2613,31.2774],[77.2259,31.2626],[77.1758,31.259],[77.1474,31.2346],[77.1182,31.2325],[77.1073,31.2508],[77.0809,31.2482],[77.0176,31.2788],[76.9887,31.3014],[77.0008,31.2752],[76.9905,31.2408],[77.0058,31.2222],[76.9909,31.2067],[76.9915,31.1847],[77.0198,31.1627],[76.9984,31.1409],[76.9971,31.1222],[77.0128,31.0956],[77.0323,31.0839],[77.0643,31.0889],[77.0732,31.0469],[77.1308,31.0249],[77.1349,31.0125],[77.1724,31.0131],[77.1946,30.9951],[77.1888,30.9739],[77.2208,30.9645],[77.2324,30.9229],[77.2517,30.9449],[77.2866,30.9608],[77.3234,31.0051],[77.3596,31.0265],[77.38,31.0164],[77.4267,30.9802],[77.4285,30.9494],[77.3974,30.9308],[77.4233,30.8919],[77.4182,30.8766],[77.4379,30.867],[77.4635,30.8694],[77.4765,30.8402],[77.4792,30.7986],[77.5301,30.781],[77.5734,30.7809],[77.6066,30.7989],[77.6104,30.8127],[77.6507,30.8061],[77.6883,30.7687],[77.7045,30.779],[77.7194,30.8083],[77.7441,30.8362],[77.7315,30.8508],[77.7445,30.8812],[77.7652,30.8652],[77.7835,30.8721],[77.7864,30.896],[77.8008,30.9127],[77.791,30.9261],[77.7456,30.9223],[77.7333,30.9495],[77.7539,30.9768],[77.7964,30.9698],[77.8075,30.9938],[77.8247,31.0052],[77.805,31.0541],[77.8428,31.0813],[77.8515,31.111],[77.8787,31.1247],[77.9022,31.1588],[77.9147,31.1566],[77.9548,31.1788],[77.9694,31.1652],[77.9926,31.167],[78.0077,31.1571],[78.03,31.1853],[78.0538,31.1929],[78.0924,31.1928],[78.1478,31.2316],[78.1849,31.2233],[78.2068,31.2372],[78.2326,31.235],[78.269,31.2714],[78.2934,31.266],[78.2984,31.2882]]]},"properties":{"NAME_1":"Himachal Pradesh","NAME_2":"Shimla"}},{"type":"Feature","geometry":{"type":"Polygon","coordinates":[[[77.6883,30.7687],[77.6507,30.8061],[77.6104,30.8127],[77.6066,30.7989],[77.5734,30.7809],[77.5301,30.781],[77.4792,30.7986],[77.4765,30.8402],[77.4635,30.8694],[77.4379,30.867],[77.4182,30.8766],[77.4233,30.8919],[77.3974,30.9308],[77.4285,30.9494],[77.4267,30.9802],[77.38,31.0164],[77.3596,31.0265],[77.3234,31.0051],[77.2866,30.9608],[77.2517,30.9449],[77.2324,30.9229],[77.2209,30.9065],[77.1923,30.8928],[77.2009,30.8805],[77.1528,30.8491],[77.1372,30.8613],[77.1056,30.8576],[77.0746,30.8327],[77.0709,30.799],[77.0564,30.7861],[77.0183,30.763],[77.0153,30.7518],[77.0047,30.7525],[77.0064,30.7495],[77.024,30.7416],[77.0303,30.7518],[77.0697,30.747],[77.0768,30.7448],[77.0961,30.7346],[77.1032,30.7204],[77.1096,30.7227],[77.1222,30.7122],[77.1251,30.7071],[77.1404,30.6976],[77.1535,30.6887],[77.1507,30.6812],[77.1604,30.6424],[77.1599,30.6315],[77.1585,30.6075],[77.1541,30.5963],[77.1512,30.5928],[77.1259,30.5737],[77.1238,30.5727],[77.1223,30.5482],[77.1376,30.5386],[77.1853,30.5259],[77.1997,30.5066],[77.2026,30.4803],[77.2268,30.4886],[77.2518,30.4844],[77.2636,30.4667],[77.3107,30.4536],[77.3168,30.4576],[77.3263,30.4632],[77.3461,30.4619],[77.3697,30.4458],[77.3762,30.4463],[77.3819,30.4393],[77.3941,30.4343],[77.3955,30.4209],[77.4262,30.4411],[77.4543,30.4461],[77.4533,30.4404],[77.4257,30.42],[77.4159,30.4128],[77.435,30.4037],[77.468,30.4118],[77.4826,30.4152],[77.4913,30.4174],[77.4929,30.433],[77.5098,30.4488],[77.518,30.4309],[77.5293,30.4135],[77.5387,30.4019],[77.5579,30.3904],[77.5749,30.3845],[77.5631,30.4045],[77.5629,30.4171],[77.6038,30.4374],[77.6305,30.4362],[77.6402,30.4524],[77.6616,30.4488],[77.7112,30.4773],[77.7214,30.4778],[77.7676,30.5044],[77.7992,30.5114],[77.8122,30.538],[77.8059,30.5607],[77.7783,30.5574],[77.7535,30.5702],[77.7321,30.6071],[77.7566,30.6203],[77.775,30.6411],[77.7659,30.6653],[77.7334,30.6858],[77.7411,30.7107],[77.6883,30.7687]]]},"properties":{"NAME_1":"Himachal Pradesh","NAME_2":"Sirmaur"}},{"type":"Feature","geometry":{"type":"Polygon","coordinates":[[[76.9887,31.3014],[76.929,31.3379],[76.9282,31.3515],[76.9065,31.3704],[76.8614,31.3577],[76.8617,31.3347],[76.905,31.3171],[76.9137,31.3056],[76.8851,31.2716],[76.8621,31.2655],[76.8562,31.2497],[76.8693,31.2273],[76.8466,31.2222],[76.8236,31.2354],[76.7938,31.2338],[76.765,31.2238],[76.7185,31.2434],[76.6801,31.2203],[76.6354,31.213],[76.5904,31.1829],[76.5987,31.1512],[76.5893,31.1277],[76.6257,31.1102],[76.6049,31.0784],[76.599,31.0536],[76.6136,31.022],[76.6101,31.0042],[76.6682,30.9699],[76.6942,30.9725],[76.7126,30.9634],[76.726,30.9393],[76.7486,30.9292],[76.7538,30.9178],[76.7699,30.9064],[76.7988,30.9246],[76.8102,30.9304],[76.8098,30.9068],[76.8158,30.896],[76.8227,30.8881],[76.8372,30.8789],[76.8524,30.8707],[76.8696,30.8782],[76.9022,30.8972],[76.9278,30.8481],[76.9275,30.8374],[76.9476,30.8232],[76.9538,30.8112],[76.9826,30.8043],[76.9848,30.8105],[76.9885,30.815],[76.9958,30.8167],[77.0004,30.7976],[77,30.789],[76.9949,30.7851],[76.9912,30.7735],[77.0024,30.768],[77.0058,30.7618],[77.0047,30.7574],[77.0047,30.7525],[77.0153,30.7518],[77.0183,30.763],[77.0564,30.7861],[77.0709,30.799],[77.0746,30.8327],[77.1056,30.8576],[77.1372,30.8613],[77.1528,30.8491],[77.2009,30.8805],[77.1923,30.8928],[77.2209,30.9065],[77.2324,30.9229],[77.2208,30.9645],[77.1888,30.9739],[77.1946,30.9951],[77.1724,31.0131],[77.1349,31.0125],[77.1308,31.0249],[77.0732,31.0469],[77.0643,31.0889],[77.0323,31.0839],[77.0128,31.0956],[76.9971,31.1222],[76.9984,31.1409],[77.0198,31.1627],[76.9915,31.1847],[76.9909,31.2067],[77.0058,31.2222],[76.9905,31.2408],[77.0008,31.2752],[76.9887,31.3014]]]},"properties":{"NAME_1":"Himachal Pradesh","NAME_2":"Solan"}},{"type":"Feature","geometry":{"type":"Polygon","coordinates":[[[76.2992,31.7238],[76.275,31.6887],[76.2092,31.7446],[76.189,31.7747],[76.1452,31.7979],[76.1002,31.8071],[76.0327,31.863],[75.9938,31.8645],[75.9853,31.8524],[75.9443,31.8575],[75.9529,31.824],[75.9218,31.8172],[75.9451,31.7813],[75.9774,31.705],[76.0047,31.663],[76.0027,31.6466],[76.0232,31.6155],[76.084,31.5372],[76.1082,31.4951],[76.1282,31.4438],[76.1435,31.4323],[76.1567,31.4045],[76.1341,31.3826],[76.1396,31.3531],[76.1663,31.3415],[76.1728,31.3067],[76.2064,31.3053],[76.2232,31.3131],[76.2774,31.3099],[76.3023,31.3264],[76.296,31.3422],[76.3301,31.3453],[76.3296,31.3795],[76.3158,31.4024],[76.3816,31.4106],[76.4208,31.4141],[76.4576,31.4271],[76.4561,31.4613],[76.4446,31.4886],[76.4213,31.5247],[76.425,31.5393],[76.3798,31.6225],[76.3531,31.6429],[76.3211,31.685],[76.2992,31.7238]]]},"properties":{"NAME_1":"Himachal Pradesh","NAME_2":"Una"}}]}