{"type":"FeatureCollection","features":[{"type":"Feature","geometry":{"type":"Polygon","coordinates":[[[75.7429,34.1916],[75.7384,34.2032],[75.7085,34.2072],[75.673,34.2222],[75.6341,34.2315],[75.5775,34.2763],[75.4964,34.3602],[75.4775,34.3738],[75.4385,34.3469],[75.4156,34.3239],[75.4041,34.2808],[75.384,34.255],[75.3064,34.2205],[75.2834,34.1975],[75.2518,34.1487],[75.2605,34.1343],[75.2576,34.0884],[75.2426,34.0477],[75.2203,33.9907],[75.2145,33.939],[75.2203,33.896],[75.2088,33.85],[75.2145,33.8155],[75.1283,33.7581],[75.0565,33.7409],[74.979,33.6806],[74.8756,33.6404],[74.8095,33.6461],[74.7521,33.6806],[74.7236,33.6865],[74.711,33.6884],[74.6939,33.6321],[74.6951,33.588],[74.7163,33.5252],[74.7277,33.5037],[74.7532,33.5079],[74.7962,33.5044],[74.8402,33.5251],[74.9139,33.5152],[74.97,33.4796],[75.0402,33.4869],[75.0944,33.4893],[75.131,33.4734],[75.1574,33.4674],[75.185,33.4649],[75.1951,33.5004],[75.2411,33.5132],[75.2514,33.5317],[75.2346,33.5687],[75.2435,33.5857],[75.2817,33.5987],[75.3033,33.5967],[75.3143,33.5827],[75.2954,33.5514],[75.2909,33.5285],[75.3303,33.5104],[75.4029,33.4611],[75.4625,33.3982],[75.4911,33.3798],[75.5438,33.3692],[75.5717,33.3934],[75.5841,33.4328],[75.6096,33.4946],[75.6187,33.526],[75.6398,33.5523],[75.662,33.62],[75.6482,33.6483],[75.6223,33.6752],[75.6312,33.7498],[75.6177,33.7842],[75.5868,33.8179],[75.5784,33.8422],[75.525,33.9336],[75.5402,33.9773],[75.5761,34.0246],[75.5992,34.0445],[75.6409,34.0488],[75.6595,34.0662],[75.6982,34.1386],[75.7429,34.1916]]]},"properties":{"NAME_1":"Jammu and Kashmir","NAME_2":"Anantnag (Kashmir South)"}},{"type":"Feature","geometry":{"type":"Polygon","coordinates":[[[74.9967,34.0425],[74.9572,34.0768],[74.886,34.1525],[74.8727,34.1286],[74.8383,34.1142],[74.7722,34.12],[74.7464,34.1056],[74.6544,34.074],[74.6315,34.0511],[74.5597,34.0453],[74.5297,34.0277],[74.5574,33.9879],[74.5915,33.9711],[74.6109,33.9323],[74.6189,33.8653],[74.6258,33.8418],[74.6666,33.7839],[74.6902,33.7341],[74.7189,33.7124],[74.7236,33.6865],[74.7347,33.7149],[74.7877,33.7581],[74.8609,33.8095],[74.8808,33.8191],[74.9301,33.8265],[74.9541,33.8371],[74.9801,33.8798],[74.9929,33.9597],[75.0079,33.976],[74.9964,34.0109],[74.9967,34.0425]]]},"properties":{"NAME_1":"Jammu and Kashmir","NAME_2":"Bagdam"}},{"type":"Feature","geometry":{"type":"Polygon","coordinates":[[[74.648,34.7226],[74.6118,34.71],[74.5856,34.6501],[74.5518,34.6163],[74.5031,34.5864],[74.5031,34.5564],[74.5256,34.5264],[74.5294,34.5002],[74.5219,34.4739],[74.4581,34.4477],[74.4581,34.4177],[74.4432,34.3765],[74.4019,34.3165],[74.3345,34.3016],[74.2687,34.3141],[74.2531,34.3279],[74.2183,34.3353],[74.1658,34.339],[74.1359,34.3053],[74.0946,34.3053],[74.0534,34.339],[73.9672,34.3503],[73.9133,34.3479],[73.941,34.3017],[73.9762,34.2648],[73.982,34.2391],[73.9766,34.2118],[73.9041,34.1222],[73.9044,34.0969],[73.8843,34.0614],[73.9008,34.0643],[73.9231,34.0971],[73.9478,34.105],[74.0288,34.1042],[74.0755,34.0894],[74.1235,34.0954],[74.1764,34.0814],[74.2053,34.0784],[74.2812,34.0046],[74.3251,34.0026],[74.3706,34.0062],[74.4651,34.0008],[74.5104,34.0257],[74.5297,34.0277],[74.5597,34.0453],[74.6315,34.0511],[74.6544,34.074],[74.7464,34.1056],[74.7722,34.12],[74.8383,34.1142],[74.8727,34.1286],[74.886,34.1525],[74.8521,34.1779],[74.8137,34.2188],[74.787,34.2698],[74.799,34.3064],[74.7957,34.3402],[74.837,34.3533],[74.8901,34.3455],[74.9332,34.3341],[74.9604,34.3518],[75.0416,34.3863],[75.0527,34.4578],[75.0738,34.4664],[75.1061,34.4644],[75.1511,34.4456],[75.177,34.421],[75.2199,34.3919],[75.2642,34.368],[75.3046,34.3578],[75.3285,34.3898],[75.3528,34.3953],[75.4252,34.3724],[75.4775,34.3738],[75.4825,34.3922],[75.452,34.4468],[75.4413,34.4873],[75.4646,34.5434],[75.395,34.5488],[75.3505,34.5622],[75.2619,34.6109],[75.2661,34.6395],[75.2497,34.6473],[75.2067,34.6463],[75.1785,34.6572],[75.1423,34.6624],[75.0847,34.6554],[75.0418,34.6414],[75.0187,34.6415],[74.9467,34.6664],[74.9278,34.6783],[74.8938,34.6845],[74.8356,34.6776],[74.7281,34.6886],[74.6713,34.7007],[74.648,34.7226]]]},"properties":{"NAME_1":"Jammu and Kashmir","NAME_2":"Baramula (Kashmir North)"}},{"type":"Feature","geometry":{"type":"Polygon","coordinates":[[[75.7429,34.1916],[75.6982,34.1386],[75.6595,34.0662],[75.6409,34.0488],[75.5992,34.0445],[75.5761,34.0246],[75.5402,33.9773],[75.525,33.9336],[75.5784,33.8422],[75.5868,33.8179],[75.6177,33.7842],[75.6312,33.7498],[75.6223,33.6752],[75.6482,33.6483],[75.662,33.62],[75.6398,33.5523],[75.6187,33.526],[75.6096,33.4946],[75.5841,33.4328],[75.5717,33.3934],[75.5438,33.3692],[75.4911,33.3798],[75.4625,33.3982],[75.4029,33.4611],[75.3303,33.5104],[75.2909,33.5285],[75.2954,33.5514],[75.3143,33.5827],[75.3033,33.5967],[75.2817,33.5987],[75.2435,33.5857],[75.2346,33.5687],[75.2514,33.5317],[75.2411,33.5132],[75.1951,33.5004],[75.185,33.4649],[75.1743,33.4583],[75.1709,33.4145],[75.1808,33.3801],[75.2322,33.3476],[75.2474,33.3402],[75.2833,33.2891],[75.2801,33.2528],[75.2705,33.2296],[75.2324,33.1749],[75.2259,33.1505],[75.2327,33.1303],[75.2918,33.1247],[75.4594,33.0572],[75.5117,33.0311],[75.5878,32.9702],[75.6662,32.9375],[75.7794,32.9049],[75.7984,32.9022],[75.7983,32.9194],[75.8214,32.9335],[75.8281,32.9341],[75.8671,32.9302],[75.9001,32.9157],[75.9136,32.9062],[75.9338,32.8843],[75.9832,32.9004],[75.9975,32.9094],[76.0135,32.9159],[76.0212,32.9244],[76.0237,32.9316],[76.0659,32.958],[76.0822,32.9688],[76.0912,32.9928],[76.1073,33.0079],[76.1205,33.0104],[76.1439,33.0165],[76.1522,33.0229],[76.2295,33.0303],[76.2373,33.0326],[76.2552,33.0523],[76.2712,33.0964],[76.275,33.104],[76.288,33.1132],[76.3155,33.1302],[76.3356,33.1463],[76.3558,33.1546],[76.3608,33.1628],[76.3662,33.168],[76.4007,33.1866],[76.4218,33.1818],[76.4502,33.1829],[76.4661,33.1799],[76.496,33.196],[76.5342,33.1993],[76.5475,33.2095],[76.5676,33.2071],[76.5862,33.2042],[76.584,33.1931],[76.588,33.19],[76.5973,33.188],[76.5985,33.1765],[76.627,33.1625],[76.6594,33.1711],[76.6695,33.1733],[76.7142,33.1774],[76.7421,33.1975],[76.7456,33.2043],[76.7561,33.2198],[76.7552,33.2474],[76.76,33.253],[76.7783,33.2557],[76.7854,33.2536],[76.8028,33.2367],[76.8063,33.2362],[76.8085,33.2423],[76.7744,33.2803],[76.7768,33.3124],[76.7501,33.3425],[76.7146,33.357],[76.7029,33.3947],[76.7068,33.4097],[76.6872,33.422],[76.6346,33.4395],[76.6217,33.4614],[76.5774,33.4867],[76.534,33.5348],[76.4904,33.5258],[76.4731,33.5344],[76.4215,33.592],[76.4004,33.5949],[76.3674,33.5696],[76.3236,33.5554],[76.3068,33.5618],[76.3169,33.6151],[76.3272,33.6429],[76.3349,33.6928],[76.3264,33.7292],[76.3043,33.7502],[76.2935,33.7717],[76.2283,33.8645],[76.1972,33.8833],[76.1316,33.964],[76.0966,33.9864],[76.0616,33.9707],[75.9991,33.962],[75.9666,33.9673],[75.9382,33.9807],[75.8833,34.0237],[75.8348,34.0716],[75.8084,34.1069],[75.7929,34.1495],[75.7695,34.177],[75.7429,34.1916]]]},"properties":{"NAME_1":"Jammu and Kashmir","NAME_2":"Doda"}},{"type":"Feature","geometry":{"type":"Polygon","coordinates":[[[74.6756,33.0007],[74.6509,33.0056],[74.6312,32.9843],[74.615,32.9973],[74.565,32.9587],[74.5328,32.9587],[74.4726,32.9974],[74.4489,32.9996],[74.4167,32.9738],[74.3995,32.9458],[74.3349,32.9548],[74.3207,32.9414],[74.318,32.9197],[74.3477,32.9082],[74.4139,32.9039],[74.4293,32.8795],[74.4301,32.8447],[74.4506,32.8168],[74.4661,32.7814],[74.5315,32.7407],[74.5671,32.7552],[74.6142,32.7577],[74.6415,32.7919],[74.642,32.8229],[74.6808,32.8382],[74.7004,32.827],[74.6877,32.7961],[74.6675,32.7666],[74.6501,32.7184],[74.6542,32.6925],[74.6756,32.6658],[74.6692,32.6459],[74.6422,32.611],[74.6524,32.5602],[74.6805,32.5382],[74.6792,32.5154],[74.6984,32.4849],[74.7436,32.4815],[74.7989,32.4841],[74.8186,32.4961],[74.8564,32.4927],[74.8997,32.4661],[74.9336,32.4676],[74.9489,32.4541],[74.9879,32.4496],[75.0302,32.4918],[75.0826,32.48],[75.1209,32.4415],[75.1279,32.4212],[75.1476,32.4134],[75.1795,32.4254],[75.1974,32.4041],[75.2151,32.4963],[75.2402,32.5149],[75.2541,32.514],[75.2971,32.5527],[75.3189,32.5475],[75.3755,32.562],[75.4274,32.5876],[75.4311,32.609],[75.4214,32.6243],[75.4198,32.6268],[75.3784,32.6346],[75.3406,32.642],[75.3177,32.6602],[75.2891,32.668],[75.2388,32.7019],[75.2363,32.7209],[75.2546,32.7722],[75.2411,32.8167],[75.1874,32.8538],[75.1444,32.874],[75.0825,32.8834],[75.0689,32.8801],[75.0445,32.9066],[75.033,32.9308],[75.0162,32.9297],[75.0011,32.9152],[74.9708,32.9169],[74.9578,32.9308],[74.9653,32.9734],[74.9608,33.0206],[74.9507,33.0378],[74.9402,33.0532],[74.9034,33.0514],[74.8721,33.0429],[74.8169,33.0422],[74.7983,33.0253],[74.794,32.9903],[74.7746,32.9697],[74.7088,32.9933],[74.6756,33.0007]]]},"properties":{"NAME_1":"Jammu and Kashmir","NAME_2":"Jammu"}},{"type":"Feature","geometry":{"type":"Polygon","coordinates":[[[75.4646,34.5434],[75.4413,34.4873],[75.452,34.4468],[75.4825,34.3922],[75.4775,34.3738],[75.4964,34.3602],[75.5775,34.2763],[75.6341,34.2315],[75.673,34.2222],[75.7085,34.2072],[75.7384,34.2032],[75.7429,34.1916],[75.7695,34.177],[75.7929,34.1495],[75.8084,34.1069],[75.8348,34.0716],[75.8833,34.0237],[75.9382,33.9807],[75.9666,33.9673],[75.9991,33.962],[76.0616,33.9707],[76.0966,33.9864],[76.1316,33.964],[76.1972,33.8833],[76.2283,33.8645],[76.2935,33.7717],[76.3043,33.7502],[76.3264,33.7292],[76.3349,33.6928],[76.3272,33.6429],[76.3169,33.6151],[76.3068,33.5618],[76.3236,33.5554],[76.3674,33.5696],[76.4004,33.5949],[76.4215,33.592],[76.4731,33.5344],[76.4904,33.5258],[76.534,33.5348],[76.5774,33.4867],[76.6217,33.4614],[76.6346,33.4395],[76.6872,33.422],[76.7068,33.4097],[76.7029,33.3947],[76.7146,33.357],[76.7501,33.3425],[76.7768,33.3124],[76.7744,33.2803],[76.8085,33.2423],[76.8092,33.2443],[76.8173,33.2485],[76.8235,33.2479],[76.8283,33.2464],[76.8111,33.2155],[76.8186,33.2056],[76.8066,33.1847],[76.8052,33.1823],[76.7993,33.1695],[76.802,33.166],[76.8095,33.1486],[76.8173,33.142],[76.8374,33.1264],[76.8526,33.1115],[76.8687,33.1202],[76.8848,33.0974],[76.8964,33.0758],[76.9102,33.0502],[76.9133,33.0442],[76.9327,33.0285],[76.9621,33.0139],[76.9665,33.0072],[76.9869,32.9959],[76.9985,32.9896],[77.0353,32.9997],[77.0585,32.9861],[77.0749,32.9734],[77.0971,32.9776],[77.1032,32.9872],[77.1364,32.9805],[77.1343,32.9695],[77.1364,32.9578],[77.1469,32.9344],[77.1604,32.9161],[77.1739,32.9311],[77.1818,32.9155],[77.218,32.8973],[77.2293,32.8868],[77.2241,32.8827],[77.2278,32.877],[77.238,32.869],[77.2476,32.8649],[77.2701,32.8664],[77.2887,32.8526],[77.3052,32.854],[77.3109,32.8377],[77.3165,32.8298],[77.3216,32.8224],[77.3279,32.8199],[77.3405,32.8205],[77.3565,32.8253],[77.3598,32.8516],[77.3631,32.8635],[77.3794,32.8808],[77.4031,32.8815],[77.4257,32.8837],[77.4322,32.8704],[77.4362,32.8659],[77.4552,32.8617],[77.4732,32.8788],[77.5062,32.8831],[77.5196,32.8874],[77.5232,32.8898],[77.5081,32.9276],[77.484,33.0143],[77.4455,33.0864],[77.3781,33.1923],[77.3637,33.2741],[77.4118,33.3511],[77.4696,33.3608],[77.5225,33.433],[77.561,33.5292],[77.5081,33.6303],[77.4311,33.7217],[77.3107,33.7795],[77.253,33.7843],[77.1423,33.8468],[77.0364,33.8805],[76.969,33.8853],[76.892,33.9142],[76.8246,33.9576],[76.7525,34.0779],[76.6851,34.1356],[76.6514,34.1549],[76.5888,34.1741],[76.5311,34.1982],[76.4733,34.2367],[76.4445,34.2319],[76.4204,34.2559],[76.3674,34.3474],[76.3723,34.4196],[76.3674,34.511],[76.3434,34.5591],[76.3287,34.7331],[76.3015,34.7244],[76.2751,34.6936],[76.1928,34.6553],[76.1579,34.6434],[76.1219,34.6467],[76.0858,34.6715],[76.055,34.676],[76.0365,34.6703],[76.0004,34.6358],[75.9322,34.6244],[75.9186,34.6048],[75.8433,34.5746],[75.793,34.5339],[75.7492,34.5158],[75.6923,34.5215],[75.6441,34.5335],[75.5919,34.5401],[75.5061,34.5373],[75.4646,34.5434]]]},"properties":{"NAME_1":"Jammu and Kashmir","NAME_2":"Kargil"}},{"type":"Feature","geometry":{"type":"Polygon","coordinates":[[[75.8725,32.5762],[75.9078,32.6191],[75.9254,32.6543],[75.8989,32.6806],[75.9098,32.7209],[75.9125,32.7571],[75.9001,32.7699],[75.8738,32.8137],[75.8552,32.8261],[75.8374,32.8368],[75.8211,32.8428],[75.8083,32.8532],[75.7894,32.8636],[75.7858,32.8143],[75.7785,32.7968],[75.758,32.778],[75.7073,32.7585],[75.6388,32.7565],[75.6218,32.7391],[75.6192,32.7204],[75.6223,32.6788],[75.6003,32.6696],[75.5571,32.6634],[75.5325,32.6634],[75.496,32.6565],[75.4635,32.6428],[75.4388,32.6345],[75.4311,32.609],[75.4274,32.5876],[75.3755,32.562],[75.3189,32.5475],[75.2971,32.5527],[75.2541,32.514],[75.2402,32.5149],[75.2151,32.4963],[75.1974,32.4041],[75.2315,32.3992],[75.2891,32.3576],[75.3244,32.3417],[75.344,32.3402],[75.3592,32.3349],[75.3785,32.3288],[75.3975,32.3263],[75.415,32.3243],[75.4326,32.3267],[75.4518,32.3318],[75.4722,32.34],[75.4735,32.3392],[75.4714,32.3147],[75.4799,32.3103],[75.4902,32.3102],[75.4947,32.2769],[75.5012,32.2761],[75.5056,32.2813],[75.5158,32.298],[75.5243,32.34],[75.5573,32.367],[75.567,32.3718],[75.5926,32.3817],[75.637,32.3874],[75.6627,32.3935],[75.6982,32.4095],[75.7197,32.4303],[75.7297,32.4451],[75.7459,32.4763],[75.7725,32.4751],[75.7901,32.4788],[75.8157,32.4992],[75.825,32.5092],[75.8378,32.5376],[75.8725,32.5762]]]},"properties":{"NAME_1":"Jammu and Kashmir","NAME_2":"Kathua"}},{"type":"Feature","geometry":{"type":"Polygon","coordinates":[[[74.648,34.7226],[74.5802,34.7701],[74.5441,34.7765],[74.5066,34.7755],[74.474,34.7906],[74.3755,34.8034],[74.3462,34.7904],[74.3028,34.7975],[74.2699,34.7627],[74.203,34.7366],[74.149,34.6953],[74.1327,34.6902],[74.0865,34.6937],[74.0417,34.6873],[74.0129,34.7099],[73.9602,34.6967],[73.9416,34.6772],[73.9273,34.6459],[73.9481,34.5731],[73.8953,34.5467],[73.8867,34.515],[73.8987,34.4958],[73.8548,34.4734],[73.8073,34.4419],[73.777,34.4163],[73.7632,34.3596],[73.7734,34.3498],[73.8074,34.3567],[73.8418,34.3383],[73.8994,34.3598],[73.9133,34.3479],[73.9672,34.3503],[74.0534,34.339],[74.0946,34.3053],[74.1359,34.3053],[74.1658,34.339],[74.2183,34.3353],[74.2531,34.3279],[74.2687,34.3141],[74.3345,34.3016],[74.4019,34.3165],[74.4432,34.3765],[74.4581,34.4177],[74.4581,34.4477],[74.5219,34.4739],[74.5294,34.5002],[74.5256,34.5264],[74.5031,34.5564],[74.5031,34.5864],[74.5518,34.6163],[74.5856,34.6501],[74.6118,34.71],[74.648,34.7226]]]},"properties":{"NAME_1":"Jammu and Kashmir","NAME_2":"Kupwara (Muzaffarabad)"}},{"type":"Feature","geometry":{"type":"Polygon","coordinates":[[[78.4108,32.5117],[78.4043,32.5387],[78.4122,32.5561],[78.4527,32.5795],[78.4856,32.5732],[78.5264,32.6065],[78.5593,32.6123],[78.6033,32.6044],[78.6323,32.6111],[78.6544,32.6492],[78.717,32.6807],[78.7365,32.6959],[78.7603,32.6842],[78.7803,32.5983],[78.7652,32.5749],[78.7726,32.5443],[78.7754,32.4906],[78.7812,32.4753],[78.836,32.4253],[78.8746,32.4146],[78.888,32.3924],[78.9147,32.3671],[78.971,32.3443],[78.9938,32.3643],[79.025,32.367],[79.0492,32.3834],[79.0675,32.385],[79.1045,32.3717],[79.1212,32.4161],[79.1181,32.45],[79.1489,32.4838],[79.203,32.5108],[79.2482,32.5224],[79.2701,32.5178],[79.2973,32.4885],[79.3203,32.4913],[79.347,32.5266],[79.4641,32.5927],[79.5088,32.5915],[79.5454,32.6074],[79.5578,32.6306],[79.5643,32.6708],[79.5405,32.7487],[79.5267,32.7676],[79.4844,32.7897],[79.4645,32.8167],[79.457,32.8714],[79.4321,32.9051],[79.3871,32.9331],[79.365,32.9569],[79.35,32.9962],[79.3549,33.0306],[79.3662,33.0598],[79.4108,33.1357],[79.4175,33.1552],[79.4098,33.1788],[79.3773,33.1899],[79.3152,33.1888],[79.1414,33.2001],[79.075,33.2286],[79.0661,33.2645],[79.0666,33.2959],[79.0338,33.3136],[79.0195,33.3308],[78.9887,33.3474],[78.9727,33.3673],[78.9213,33.3987],[78.8704,33.4397],[78.8233,33.4835],[78.7839,33.5326],[78.7299,33.6176],[78.711,33.6549],[78.7093,33.6796],[78.7752,33.7462],[78.784,33.7704],[78.7751,33.8013],[78.7418,33.8402],[78.7172,33.8905],[78.7116,33.9225],[78.7158,33.9645],[78.7636,34.0015],[78.7704,34.0197],[78.7606,34.0361],[78.7121,34.0505],[78.7064,34.0722],[78.7292,34.0957],[78.8711,34.1572],[78.9104,34.1805],[78.9562,34.2178],[78.975,34.2429],[78.9934,34.2887],[78.9815,34.3329],[78.9225,34.3754],[78.8381,34.4065],[78.763,34.4605],[78.7301,34.4967],[78.6963,34.5076],[78.6601,34.5297],[78.6111,34.5831],[78.5693,34.6119],[78.5371,34.6142],[78.4822,34.6033],[78.4181,34.6054],[78.407,34.6366],[78.3872,34.6516],[78.3249,34.656],[78.2844,34.6674],[78.248,34.6951],[78.221,34.734],[78.2073,34.7661],[78.1846,34.8815],[78.1335,34.9709],[78.0829,35.0825],[78.0883,35.0957],[78.1171,35.1116],[78.1161,35.1454],[78.0576,35.1847],[78.0428,35.2023],[78.0177,35.2498],[78.002,35.2946],[77.9903,35.379],[78.0212,35.4169],[78.0973,35.4556],[78.1108,35.4727],[78.0794,35.4922],[77.9906,35.4871],[77.9513,35.4736],[77.928,35.4405],[77.8886,35.4289],[77.8627,35.4586],[77.8468,35.5008],[77.8239,35.5013],[77.8147,35.4852],[77.7355,35.4338],[77.6506,35.3671],[77.585,35.3239],[77.4854,35.2665],[77.4425,35.2344],[77.2808,35.1383],[77.1568,35.0547],[77.0684,35.0241],[77.0138,35.0351],[77.0101,34.9563],[76.9975,34.9392],[76.9503,34.9409],[76.8835,34.9703],[76.8632,34.9708],[76.8111,34.9355],[76.7624,34.933],[76.7389,34.9019],[76.7447,34.8447],[76.7062,34.8013],[76.6872,34.7632],[76.6716,34.7574],[76.58,34.7555],[76.5618,34.7583],[76.5141,34.7838],[76.4692,34.7917],[76.437,34.7644],[76.3859,34.736],[76.3287,34.7331],[76.3434,34.5591],[76.3674,34.511],[76.3723,34.4196],[76.3674,34.3474],[76.4204,34.2559],[76.4445,34.2319],[76.4733,34.2367],[76.5311,34.1982],[76.5888,34.1741],[76.6514,34.1549],[76.6851,34.1356],[76.7525,34.0779],[76.8246,33.9576],[76.892,33.9142],[76.969,33.8853],[77.0364,33.8805],[77.1423,33.8468],[77.253,33.7843],[77.3107,33.7795],[77.4311,33.7217],[77.5081,33.6303],[77.561,33.5292],[77.5225,33.433],[77.4696,33.3608],[77.4118,33.3511],[77.3637,33.2741],[77.3781,33.1923],[77.4455,33.0864],[77.484,33.0143],[77.5081,32.9276],[77.5232,32.8898],[77.527,32.8923],[77.5447,32.9117],[77.5797,32.9317],[77.5839,32.9438],[77.6061,32.9424],[77.6107,32.9423],[77.6173,32.944],[77.6385,32.9561],[77.6433,32.9579],[77.6631,32.9759],[77.6795,32.9778],[77.6909,32.9794],[77.7125,32.9718],[77.7341,32.9503],[77.7364,32.9479],[77.7448,32.9459],[77.7475,32.9405],[77.7925,32.8981],[77.787,32.8917],[77.766,32.8803],[77.7677,32.8585],[77.7809,32.8541],[77.7877,32.8498],[77.8082,32.836],[77.8251,32.8399],[77.8476,32.8284],[77.855,32.8212],[77.8638,32.8115],[77.869,32.8004],[77.8722,32.7863],[77.8809,32.7754],[77.8995,32.7753],[77.9035,32.7729],[77.9123,32.7672],[77.9169,32.7627],[77.9172,32.7519],[77.9144,32.7445],[77.9156,32.7337],[77.9185,32.7308],[77.9094,32.7214],[77.9085,32.7164],[77.9024,32.6984],[77.911,32.6882],[77.9262,32.6668],[77.9323,32.6562],[77.9551,32.6348],[77.9542,32.626],[77.9622,32.6138],[77.975,32.5964],[77.9871,32.5882],[78.0358,32.5919],[78.0416,32.5992],[78.0324,32.6284],[78.0327,32.6338],[78.0441,32.6288],[78.0675,32.6256],[78.079,32.6528],[78.0934,32.6622],[78.107,32.6497],[78.1267,32.6491],[78.1444,32.6766],[78.1795,32.6704],[78.195,32.6673],[78.225,32.6756],[78.2366,32.6947],[78.2727,32.7029],[78.2986,32.7197],[78.2877,32.7378],[78.3447,32.7634],[78.3714,32.7618],[78.3712,32.7337],[78.3778,32.7193],[78.3676,32.6995],[78.3632,32.672],[78.3771,32.6149],[78.318,32.5802],[78.2966,32.5775],[78.2992,32.5293],[78.2785,32.5079],[78.3062,32.4777],[78.3104,32.4759],[78.3564,32.5127],[78.3767,32.5261],[78.3824,32.5297],[78.3979,32.5271],[78.3991,32.5264],[78.4014,32.5182],[78.4052,32.5142],[78.4089,32.5127],[78.4108,32.5117]]]},"properties":{"NAME_1":"Jammu and Kashmir","NAME_2":"Ladakh (Leh)"}},{"type":"Feature","geometry":{"type":"Polygon","coordinates":[[[75.2426,34.0477],[75.1743,34.0367],[75.114,34.0396],[75.0565,34.0539],[74.9967,34.0425],[74.9964,34.0109],[75.0079,33.976],[74.9929,33.9597],[74.9801,33.8798],[74.9541,33.8371],[74.9301,33.8265],[74.8808,33.8191],[74.8609,33.8095],[74.7877,33.7581],[74.7347,33.7149],[74.7236,33.6865],[74.7521,33.6806],[74.8095,33.6461],[74.8756,33.6404],[74.979,33.6806],[75.0565,33.7409],[75.1283,33.7581],[75.2145,33.8155],[75.2088,33.85],[75.2203,33.896],[75.2145,33.939],[75.2203,33.9907],[75.2426,34.0477]]]},"properties":{"NAME_1":"Jammu and Kashmir","NAME_2":"Pulwama"}},{"type":"Feature","geometry":{"type":"Polygon","coordinates":[[[73.8843,34.0614],[73.8982,34.0328],[74,34.0302],[74.0061,34.0224],[74.087,34.0378],[74.115,34.0538],[74.1614,34.0389],[74.2147,34.0386],[74.2487,34.0138],[74.2627,33.9743],[74.2611,33.9248],[74.2456,33.895],[74.2197,33.8672],[74.1701,33.8399],[74.1298,33.8276],[74.09,33.8263],[74.049,33.8088],[74.0283,33.776],[74,33.7526],[73.9665,33.7403],[73.9563,33.7203],[73.9757,33.6936],[74,33.6237],[74.0284,33.5747],[74.0539,33.5651],[74.0884,33.5732],[74.1234,33.5432],[74.1646,33.4956],[74.2399,33.5113],[74.2783,33.4428],[74.3073,33.4258],[74.3456,33.3811],[74.3965,33.4634],[74.4112,33.5159],[74.4521,33.5657],[74.4769,33.5727],[74.5502,33.5791],[74.6074,33.5621],[74.6435,33.5281],[74.7066,33.4937],[74.7277,33.5037],[74.7163,33.5252],[74.6951,33.588],[74.6939,33.6321],[74.711,33.6884],[74.7236,33.6865],[74.7189,33.7124],[74.6902,33.7341],[74.6666,33.7839],[74.6258,33.8418],[74.6189,33.8653],[74.6109,33.9323],[74.5915,33.9711],[74.5574,33.9879],[74.5297,34.0277],[74.5104,34.0257],[74.4651,34.0008],[74.3706,34.0062],[74.3251,34.0026],[74.2812,34.0046],[74.2053,34.0784],[74.1764,34.0814],[74.1235,34.0954],[74.0755,34.0894],[74.0288,34.1042],[73.9478,34.105],[73.9231,34.0971],[73.9008,34.0643],[73.8843,34.0614]]]},"properties":{"NAME_1":"Jammu and Kashmir","NAME_2":"Punch"}},{"type":"Feature","geometry":{"type":"Polygon","coordinates":[[[74.7532,33.5079],[74.7277,33.5037],[74.7066,33.4937],[74.6435,33.5281],[74.6074,33.5621],[74.5502,33.5791],[74.4769,33.5727],[74.4521,33.5657],[74.4112,33.5159],[74.3965,33.4634],[74.3456,33.3811],[74.3073,33.4258],[74.2783,33.4428],[74.2399,33.5113],[74.1646,33.4956],[74.1871,33.4555],[74.1793,33.4257],[74.1851,33.3835],[74.1669,33.3441],[74.103,33.2705],[74.0789,33.2602],[74.0244,33.2625],[74.0131,33.2499],[74.0143,33.1982],[74.0263,33.1886],[74.0828,33.1807],[74.1117,33.1644],[74.1762,33.1072],[74.2052,33.0433],[74.255,33.0488],[74.3079,33.0305],[74.3379,33.0259],[74.3517,33.0131],[74.3532,32.9831],[74.3349,32.9548],[74.3995,32.9458],[74.4167,32.9738],[74.4489,32.9996],[74.4726,32.9974],[74.5328,32.9587],[74.565,32.9587],[74.615,32.9973],[74.6312,32.9843],[74.6509,33.0056],[74.6756,33.0007],[74.6989,33.0308],[74.7084,33.0672],[74.7258,33.1067],[74.7384,33.1541],[74.7384,33.1763],[74.7021,33.1889],[74.6847,33.2142],[74.7036,33.2347],[74.7463,33.2458],[74.7637,33.2379],[74.8048,33.2363],[74.8048,33.2474],[74.7937,33.279],[74.7795,33.309],[74.7779,33.3296],[74.7795,33.3549],[74.7937,33.377],[74.8048,33.3992],[74.7985,33.4197],[74.7748,33.4498],[74.7621,33.4735],[74.7532,33.5079]]]},"properties":{"NAME_1":"Jammu and Kashmir","NAME_2":"Rajauri"}},{"type":"Feature","geometry":{"type":"Polygon","coordinates":[[[75.4775,34.3738],[75.4252,34.3724],[75.3528,34.3953],[75.3285,34.3898],[75.3046,34.3578],[75.2642,34.368],[75.2199,34.3919],[75.177,34.421],[75.1511,34.4456],[75.1061,34.4644],[75.0738,34.4664],[75.0527,34.4578],[75.0416,34.3863],[74.9604,34.3518],[74.9332,34.3341],[74.8901,34.3455],[74.837,34.3533],[74.7957,34.3402],[74.799,34.3064],[74.787,34.2698],[74.8137,34.2188],[74.8521,34.1779],[74.886,34.1525],[74.9572,34.0768],[74.9967,34.0425],[75.0565,34.0539],[75.114,34.0396],[75.1743,34.0367],[75.2426,34.0477],[75.2576,34.0884],[75.2605,34.1343],[75.2518,34.1487],[75.2834,34.1975],[75.3064,34.2205],[75.384,34.255],[75.4041,34.2808],[75.4156,34.3239],[75.4385,34.3469],[75.4775,34.3738]]]},"properties":{"NAME_1":"Jammu and Kashmir","NAME_2":"Srinagar"}},{"type":"Feature","geometry":{"type":"Polygon","coordinates":[[[75.0402,33.4869],[74.97,33.4796],[74.9139,33.5152],[74.8402,33.5251],[74.7962,33.5044],[74.7532,33.5079],[74.7621,33.4735],[74.7748,33.4498],[74.7985,33.4197],[74.8048,33.3992],[74.7937,33.377],[74.7795,33.3549],[74.7779,33.3296],[74.7795,33.309],[74.7937,33.279],[74.8048,33.2474],[74.8048,33.2363],[74.7637,33.2379],[74.7463,33.2458],[74.7036,33.2347],[74.6847,33.2142],[74.7021,33.1889],[74.7384,33.1763],[74.7384,33.1541],[74.7258,33.1067],[74.7084,33.0672],[74.6989,33.0308],[74.6756,33.0007],[74.7088,32.9933],[74.7746,32.9697],[74.794,32.9903],[74.7983,33.0253],[74.8169,33.0422],[74.8721,33.0429],[74.9034,33.0514],[74.9402,33.0532],[74.9507,33.0378],[74.9608,33.0206],[74.9653,32.9734],[74.9578,32.9308],[74.9708,32.9169],[75.0011,32.9152],[75.0162,32.9297],[75.033,32.9308],[75.0445,32.9066],[75.0689,32.8801],[75.0825,32.8834],[75.1444,32.874],[75.1874,32.8538],[75.2411,32.8167],[75.2546,32.7722],[75.2363,32.7209],[75.2388,32.7019],[75.2891,32.668],[75.3177,32.6602],[75.3406,32.642],[75.3784,32.6346],[75.4198,32.6268],[75.4214,32.6243],[75.4311,32.609],[75.4388,32.6345],[75.4635,32.6428],[75.496,32.6565],[75.5325,32.6634],[75.5571,32.6634],[75.6003,32.6696],[75.6223,32.6788],[75.6192,32.7204],[75.6218,32.7391],[75.6388,32.7565],[75.7073,32.7585],[75.758,32.778],[75.7785,32.7968],[75.7858,32.8143],[75.7894,32.8636],[75.7954,32.8693],[75.7874,32.8933],[75.7984,32.9022],[75.7794,32.9049],[75.6662,32.9375],[75.5878,32.9702],[75.5117,33.0311],[75.4594,33.0572],[75.2918,33.1247],[75.2327,33.1303],[75.2259,33.1505],[75.2324,33.1749],[75.2705,33.2296],[75.2801,33.2528],[75.2833,33.2891],[75.2474,33.3402],[75.2322,33.3476],[75.1808,33.3801],[75.1709,33.4145],[75.1743,33.4583],[75.1574,33.4674],[75.131,33.4734],[75.0944,33.4893],[75.0402,33.4869]]]},"properties":{"NAME_1":"Jammu and Kashmir","NAME_2":"Udhampur"}}]}