{"type":"FeatureCollection","features":[{"type":"Feature","geometry":{"type":"Polygon","coordinates":[[[85.6851,23.9655],[85.6727,23.9675],[85.6628,23.9575],[85.6659,23.9537],[85.6549,23.9383],[85.6404,23.9351],[85.6432,23.9285],[85.6506,23.9209],[85.6525,23.9149],[85.6429,23.9077],[85.6162,23.8931],[85.6064,23.8719],[85.6121,23.8603],[85.6085,23.8528],[85.5768,23.8339],[85.5861,23.8271],[85.5926,23.8134],[85.5884,23.807],[85.5972,23.7927],[85.6038,23.7865],[85.6114,23.7774],[85.6203,23.7818],[85.6349,23.8037],[85.6399,23.8037],[85.6471,23.8036],[85.6432,23.7718],[85.6357,23.7672],[85.6277,23.7589],[85.6264,23.7558],[85.6102,23.748],[85.6144,23.7255],[85.6153,23.7043],[85.6041,23.685],[85.6119,23.673],[85.6087,23.6207],[85.6097,23.6142],[85.6258,23.6028],[85.6422,23.5908],[85.6575,23.5993],[85.6584,23.6094],[85.6648,23.6157],[85.6738,23.6218],[85.6741,23.6287],[85.6813,23.6275],[85.7052,23.6166],[85.708,23.6162],[85.7175,23.6247],[85.7456,23.6461],[85.7548,23.6714],[85.7672,23.6587],[85.7656,23.6383],[85.7758,23.6316],[85.7794,23.6249],[85.7832,23.6133],[85.7869,23.6039],[85.7913,23.606],[85.7979,23.598],[85.8093,23.561],[85.8171,23.5613],[85.8366,23.5478],[85.8321,23.5405],[85.8174,23.5335],[85.8354,23.5192],[85.8332,23.5089],[85.8325,23.5049],[85.8362,23.4992],[85.8469,23.4984],[85.8547,23.5024],[85.8575,23.5024],[85.8713,23.4952],[85.8768,23.4903],[85.8831,23.4808],[85.8776,23.4759],[85.9064,23.4718],[85.9379,23.4551],[85.9529,23.4596],[85.9678,23.4654],[85.9904,23.4764],[86.0014,23.4788],[86.0155,23.4852],[86.0256,23.4881],[86.0414,23.4902],[86.0515,23.499],[86.0328,23.5048],[86.0185,23.5424],[86.0211,23.5455],[86.0108,23.5516],[86.011,23.5612],[86.0176,23.5636],[86.0251,23.5723],[86.0353,23.5751],[86.0374,23.5835],[86.0513,23.5789],[86.0714,23.5785],[86.0936,23.57],[86.1194,23.5739],[86.1317,23.5662],[86.1448,23.5678],[86.1463,23.5587],[86.1533,23.5516],[86.1429,23.5273],[86.1551,23.5042],[86.1452,23.494],[86.1427,23.4773],[86.153,23.477],[86.1723,23.4785],[86.1791,23.4751],[86.181,23.4669],[86.1996,23.464],[86.221,23.456],[86.2232,23.4648],[86.2352,23.456],[86.2274,23.4496],[86.2247,23.4357],[86.2395,23.4317],[86.2391,23.4257],[86.2432,23.4196],[86.2508,23.4222],[86.2479,23.4308],[86.2524,23.4375],[86.2663,23.438],[86.2672,23.44],[86.2785,23.4411],[86.2812,23.4354],[86.3,23.4201],[86.3142,23.4283],[86.3123,23.4373],[86.3058,23.4362],[86.3001,23.4437],[86.3121,23.4486],[86.3286,23.455],[86.3314,23.4472],[86.3383,23.457],[86.3379,23.4611],[86.3518,23.4636],[86.349,23.4725],[86.3644,23.4821],[86.3586,23.4896],[86.3571,23.5103],[86.367,23.5189],[86.3677,23.5226],[86.3638,23.5281],[86.3597,23.5307],[86.3605,23.5385],[86.3605,23.5461],[86.3642,23.5513],[86.3648,23.5571],[86.3818,23.5755],[86.4002,23.5895],[86.4104,23.598],[86.4182,23.6034],[86.4273,23.6103],[86.4396,23.6091],[86.4379,23.6242],[86.4449,23.6315],[86.4664,23.6296],[86.4474,23.6407],[86.4215,23.6463],[86.4083,23.6603],[86.389,23.6593],[86.3663,23.7034],[86.326,23.6971],[86.2956,23.7372],[86.2735,23.7431],[86.2118,23.7387],[86.1823,23.7324],[86.1802,23.7665],[86.1561,23.8007],[86.157,23.8278],[86.1321,23.8397],[86.1346,23.8591],[86.1147,23.8673],[86.1085,23.8873],[86.1215,23.9038],[86.0781,23.915],[86.0326,23.9164],[85.9936,23.9057],[85.9744,23.8922],[85.9694,23.8865],[85.9672,23.888],[85.9611,23.8935],[85.9582,23.9045],[85.9458,23.9139],[85.9305,23.917],[85.9243,23.9361],[85.9081,23.9441],[85.8972,23.9516],[85.8781,23.9402],[85.8791,23.937],[85.8822,23.9296],[85.8819,23.9251],[85.8801,23.9125],[85.884,23.9053],[85.864,23.8675],[85.8621,23.8599],[85.8603,23.8528],[85.8373,23.8355],[85.8322,23.8282],[85.8114,23.8374],[85.8013,23.845],[85.8031,23.8582],[85.7988,23.8623],[85.7978,23.8673],[85.7974,23.878],[85.7956,23.8801],[85.7824,23.8851],[85.7804,23.8957],[85.7612,23.9091],[85.7612,23.9254],[85.7433,23.9293],[85.7377,23.9318],[85.7279,23.9209],[85.717,23.9028],[85.7134,23.9044],[85.7114,23.9152],[85.7057,23.9146],[85.682,23.9429],[85.6888,23.9566],[85.6951,23.9598],[85.6851,23.9655]]]},"properties":{"NAME_1":"Jharkhand","NAME_2":"Bokaro"}},{"type":"Feature","geometry":{"type":"Polygon","coordinates":[[[85.0807,24.3808],[85.0655,24.3868],[85.0745,24.4085],[85.0321,24.4254],[84.9904,24.4122],[84.9686,24.3759],[84.9253,24.378],[84.9033,24.3723],[84.8982,24.3938],[84.8779,24.4226],[84.8802,24.4628],[84.8629,24.4576],[84.8272,24.4701],[84.8326,24.5115],[84.8195,24.5248],[84.7837,24.5177],[84.7799,24.5049],[84.742,24.4965],[84.7249,24.4729],[84.7065,24.4724],[84.6789,24.4563],[84.6662,24.4312],[84.6583,24.3937],[84.601,24.401],[84.5725,24.4123],[84.5459,24.3737],[84.5215,24.3763],[84.5174,24.3337],[84.4935,24.287],[84.4813,24.2643],[84.449,24.2611],[84.4374,24.2437],[84.4661,24.2288],[84.4659,24.2102],[84.5211,24.1912],[84.5448,24.153],[84.5729,24.1413],[84.5651,24.1178],[84.5465,24.1031],[84.5676,24.0702],[84.547,24.0432],[84.5468,24.016],[84.5633,23.9845],[84.5784,23.9859],[84.6247,23.9811],[84.6396,24.0048],[84.6685,24.0041],[84.7026,24.0388],[84.7358,24.0477],[84.7629,24.0082],[84.7521,23.9665],[84.7983,23.9692],[84.8233,23.9569],[84.8389,23.9644],[84.8772,23.9514],[84.8823,23.9422],[84.916,23.95],[84.9282,23.9341],[84.9198,23.9111],[84.9331,23.905],[84.9426,23.8736],[84.9273,23.8658],[84.9408,23.8416],[84.938,23.8018],[84.9106,23.8035],[84.896,23.7742],[84.9209,23.767],[84.9342,23.7261],[84.957,23.7128],[84.9691,23.7069],[84.9718,23.705],[84.9854,23.6883],[84.9907,23.6802],[85.0046,23.6857],[85.0086,23.6903],[85.0109,23.6859],[85.0316,23.692],[85.0397,23.7048],[85.0469,23.7125],[85.0407,23.7348],[85.0382,23.7992],[85.0455,23.8441],[85.0226,23.8614],[85.0275,23.8797],[85.0111,23.902],[85.0191,23.9179],[85.0376,23.9177],[85.0267,23.9671],[85.0304,23.986],[85.0674,23.9866],[85.1172,23.9759],[85.1393,23.954],[85.1809,23.9486],[85.2171,23.9999],[85.2223,24.0199],[85.2442,24.0266],[85.234,24.0769],[85.1677,24.1084],[85.1442,24.1675],[85.1331,24.2096],[85.1532,24.2403],[85.2324,24.2313],[85.2957,24.2112],[85.2931,24.2439],[85.3064,24.2573],[85.3158,24.3153],[85.3436,24.3173],[85.2917,24.3457],[85.276,24.3422],[85.235,24.3504],[85.2005,24.344],[85.1936,24.3337],[85.1573,24.3553],[85.1331,24.362],[85.1324,24.3409],[85.1025,24.3401],[85.0792,24.3598],[85.0807,24.3808]]]},"properties":{"NAME_1":"Jharkhand","NAME_2":"Chatra"}},{"type":"Feature","geometry":{"type":"Polygon","coordinates":[[[86.6093,24.6074],[86.5839,24.5853],[86.5832,24.5728],[86.5546,24.5593],[86.5467,24.535],[86.5235,24.5357],[86.5057,24.5177],[86.4903,24.4844],[86.4886,24.425],[86.4658,24.4219],[86.4671,24.3952],[86.4522,24.3686],[86.4565,24.3363],[86.4692,24.3268],[86.4728,24.3006],[86.5008,24.2811],[86.5118,24.2217],[86.4993,24.182],[86.4832,24.1508],[86.5031,24.1464],[86.5219,24.155],[86.5488,24.1528],[86.5697,24.1388],[86.5895,24.1425],[86.6517,24.1322],[86.7381,24.0981],[86.7623,24.07],[86.7824,24.0703],[86.7922,24.0869],[86.8171,24.0762],[86.8276,24.055],[86.8763,24.0733],[86.9379,24.0431],[86.9675,24.0611],[86.967,24.0982],[86.9739,24.108],[86.9568,24.1274],[86.9285,24.1424],[86.9359,24.1692],[86.9718,24.185],[86.967,24.2119],[86.9887,24.2162],[87.0319,24.2008],[87.0656,24.2517],[87.0392,24.2608],[87.0287,24.2796],[87.0305,24.309],[87.0197,24.3246],[86.9823,24.3052],[86.9567,24.316],[86.9578,24.3537],[86.9314,24.3583],[86.9198,24.382],[86.9359,24.4183],[86.8981,24.4102],[86.8795,24.427],[86.8811,24.446],[86.9059,24.4885],[86.9112,24.5387],[86.8764,24.5673],[86.8546,24.5505],[86.8371,24.5683],[86.8087,24.5638],[86.8058,24.5945],[86.7918,24.6153],[86.7541,24.6148],[86.7457,24.5895],[86.6684,24.5606],[86.6069,24.5944],[86.6093,24.6074]]]},"properties":{"NAME_1":"Jharkhand","NAME_2":"Deoghar"}},{"type":"Feature","geometry":{"type":"Polygon","coordinates":[[[86.3846,24.0532],[86.3761,24.0583],[86.3626,24.0494],[86.3378,24.0532],[86.3304,24.0414],[86.3164,24.0361],[86.3268,24.027],[86.3362,24.0253],[86.3299,24.0166],[86.3221,24.0119],[86.3094,23.9963],[86.2971,23.9826],[86.2968,23.9729],[86.284,23.9444],[86.2629,23.9282],[86.2529,23.9298],[86.2394,23.9407],[86.199,23.9464],[86.1917,23.947],[86.1746,23.9436],[86.1544,23.9363],[86.131,23.9351],[86.1236,23.9175],[86.1223,23.909],[86.1215,23.9038],[86.1085,23.8873],[86.1147,23.8673],[86.1346,23.8591],[86.1321,23.8397],[86.157,23.8278],[86.1561,23.8007],[86.1802,23.7665],[86.1823,23.7324],[86.2118,23.7387],[86.2735,23.7431],[86.2956,23.7372],[86.326,23.6971],[86.3663,23.7034],[86.389,23.6593],[86.4083,23.6603],[86.4215,23.6463],[86.4474,23.6407],[86.4664,23.6296],[86.4813,23.635],[86.5287,23.629],[86.552,23.6401],[86.5906,23.6622],[86.588,23.6691],[86.6158,23.6716],[86.6333,23.6757],[86.6687,23.6861],[86.711,23.6972],[86.7317,23.6938],[86.7365,23.6888],[86.7381,23.6776],[86.792,23.6874],[86.7957,23.6935],[86.8045,23.7399],[86.8161,23.7448],[86.8167,23.7761],[86.7977,23.7977],[86.7928,23.8314],[86.7811,23.8562],[86.7771,23.861],[86.7601,23.8768],[86.7432,23.8821],[86.7283,23.8728],[86.7191,23.8824],[86.707,23.9153],[86.6524,23.9384],[86.5944,23.9732],[86.568,24.0001],[86.5363,24.0042],[86.5185,23.9976],[86.5115,23.999],[86.4986,24.0057],[86.4925,24.0115],[86.4891,24.0127],[86.4869,24.0122],[86.4823,24.01],[86.477,24.0089],[86.4649,24.0166],[86.4515,24.0209],[86.4451,24.0261],[86.4349,24.0301],[86.4219,24.028],[86.4002,24.0366],[86.3846,24.0532]]]},"properties":{"NAME_1":"Jharkhand","NAME_2":"Dhanbad"}},{"type":"Feature","geometry":{"type":"Polygon","coordinates":[[[87.0444,24.624],[87.0505,24.6068],[87.0102,24.6063],[86.9656,24.6319],[86.9361,24.6304],[86.8981,24.5865],[86.9112,24.5387],[86.9059,24.4885],[86.8811,24.446],[86.8795,24.427],[86.8981,24.4102],[86.9359,24.4183],[86.9198,24.382],[86.9314,24.3583],[86.9578,24.3537],[86.9567,24.316],[86.9823,24.3052],[87.0197,24.3246],[87.0305,24.309],[87.0287,24.2796],[87.0392,24.2608],[87.0656,24.2517],[87.0319,24.2008],[86.9887,24.2162],[86.967,24.2119],[86.9718,24.185],[86.9359,24.1692],[86.9285,24.1424],[86.9568,24.1274],[86.9739,24.108],[86.9764,24.124],[87.0161,24.1272],[87.0238,24.142],[87.0466,24.1318],[87.0573,24.1166],[87.0997,24.0935],[87.1145,24.0591],[87.1361,24.0414],[87.1649,24.0305],[87.2327,24.0246],[87.2436,24.0421],[87.2578,24.0355],[87.2692,24.033],[87.2743,24.0318],[87.2896,24.0303],[87.3037,24.0294],[87.3263,24.0301],[87.3355,24.0239],[87.3323,24.0175],[87.3183,24.0069],[87.3158,24.0071],[87.3179,24.0015],[87.3199,23.9992],[87.3279,23.996],[87.351,23.9992],[87.3566,24.0092],[87.3939,23.9992],[87.4145,23.9908],[87.4221,23.9908],[87.4293,23.9819],[87.434,23.9817],[87.4391,23.9781],[87.4536,23.9834],[87.4584,23.9935],[87.4502,24],[87.4414,24.0032],[87.4468,24.0084],[87.4442,24.0091],[87.4384,24.009],[87.4368,24.0078],[87.4387,24.0125],[87.4463,24.0143],[87.4523,24.0151],[87.4549,24.015],[87.4621,24.0131],[87.4639,24.0126],[87.4692,24.0116],[87.4735,24.0114],[87.4864,24.016],[87.4948,24.0244],[87.4965,24.0232],[87.5013,24.0261],[87.5039,24.0301],[87.5106,24.0398],[87.5085,24.0425],[87.5043,24.0462],[87.4954,24.05],[87.4942,24.0627],[87.4925,24.0647],[87.4889,24.0697],[87.4998,24.0725],[87.5026,24.0753],[87.5036,24.0777],[87.5058,24.0821],[87.4932,24.0846],[87.4889,24.0882],[87.4896,24.09],[87.4928,24.0955],[87.4937,24.0972],[87.4954,24.1055],[87.4931,24.1119],[87.5072,24.1113],[87.5169,24.111],[87.5213,24.1042],[87.5269,24.1038],[87.5307,24.0992],[87.5345,24.0914],[87.5442,24.0866],[87.5526,24.0845],[87.5634,24.0845],[87.5667,24.0864],[87.5732,24.0863],[87.5743,24.0902],[87.5692,24.1068],[87.5748,24.109],[87.5795,24.1195],[87.5926,24.1242],[87.5954,24.1249],[87.6076,24.1289],[87.6012,24.1352],[87.5765,24.1528],[87.5694,24.1557],[87.5841,24.1615],[87.5904,24.1601],[87.6104,24.1649],[87.6217,24.1639],[87.6275,24.1631],[87.6363,24.1574],[87.6505,24.1545],[87.6896,24.1498],[87.6936,24.1592],[87.6964,24.1713],[87.6926,24.1862],[87.6835,24.1891],[87.6783,24.1911],[87.671,24.2057],[87.659,24.2074],[87.6451,24.208],[87.6384,24.2161],[87.6432,24.2246],[87.6417,24.2499],[87.6302,24.2552],[87.5793,24.257],[87.584,24.3231],[87.5684,24.3786],[87.5647,24.4683],[87.5689,24.504],[87.5594,24.5196],[87.5339,24.5065],[87.4949,24.524],[87.4207,24.5129],[87.4001,24.5048],[87.3827,24.5012],[87.327,24.5763],[87.3087,24.5955],[87.2755,24.602],[87.2434,24.5847],[87.2136,24.5866],[87.166,24.6139],[87.1504,24.6129],[87.1263,24.6276],[87.0651,24.6412],[87.0444,24.624]]]},"properties":{"NAME_1":"Jharkhand","NAME_2":"Dumka"}},{"type":"Feature","geometry":{"type":"Polygon","coordinates":[[[83.868,24.5329],[83.8577,24.5376],[83.799,24.5299],[83.7487,24.5105],[83.7167,24.5049],[83.6825,24.5156],[83.6002,24.5132],[83.5424,24.5262],[83.4982,24.5271],[83.4619,24.5179],[83.4264,24.5128],[83.393,24.5012],[83.3921,24.4971],[83.3936,24.4889],[83.3926,24.4803],[83.3871,24.4646],[83.3898,24.4376],[83.4007,24.4371],[83.412,24.4103],[83.4262,24.406],[83.4299,24.4038],[83.4329,24.394],[83.4388,24.389],[83.4398,24.3801],[83.4432,24.3728],[83.4476,24.3684],[83.4514,24.3647],[83.4457,24.3633],[83.43,24.345],[83.4266,24.34],[83.4112,24.3396],[83.4033,24.3374],[83.3756,24.3134],[83.3866,24.2976],[83.4005,24.2852],[83.3934,24.2471],[83.3809,24.24],[83.3793,24.2202],[83.3784,24.2169],[83.3783,24.2008],[83.3694,24.1806],[83.3561,24.1477],[83.3499,24.1371],[83.339,24.1105],[83.3276,24.0996],[83.362,24.102],[83.3833,24.0999],[83.4007,24.0818],[83.4214,24.0838],[83.4254,24.0838],[83.4306,24.069],[83.4292,24.062],[83.4476,24.0425],[83.4684,24.0407],[83.5012,24.0307],[83.5166,24.0106],[83.5075,24.0014],[83.5077,23.9795],[83.5124,23.967],[83.5389,23.9335],[83.5373,23.9146],[83.5494,23.8928],[83.5762,23.8844],[83.5718,23.8631],[83.6006,23.8535],[83.6496,23.8481],[83.6583,23.8278],[83.6722,23.8201],[83.6956,23.8076],[83.7078,23.795],[83.7124,23.7723],[83.7294,23.7547],[83.7293,23.7318],[83.7325,23.724],[83.7321,23.7047],[83.7151,23.6902],[83.7213,23.6737],[83.744,23.6591],[83.743,23.6405],[83.7478,23.6266],[83.7657,23.6175],[83.7749,23.5995],[83.7861,23.5982],[83.8005,23.5832],[83.8212,23.5849],[83.8376,23.5814],[83.8596,23.5783],[83.8985,23.5712],[83.9147,23.5687],[83.9353,23.563],[83.9296,23.5937],[83.9379,23.6224],[83.9627,23.6262],[83.9755,23.6308],[84.007,23.6323],[84.0451,23.6591],[84.0593,23.6937],[84.0192,23.6941],[83.9865,23.7088],[83.9776,23.7237],[83.9926,23.7415],[83.9826,23.7509],[83.9719,23.8459],[83.9621,23.8659],[83.9057,23.9066],[83.8658,23.9529],[83.8319,23.9824],[83.8189,24.0008],[83.839,24.0326],[83.8549,24.0423],[83.8594,24.0701],[83.8874,24.0884],[83.9314,24.1005],[83.9416,24.0941],[83.9697,24.1243],[83.9625,24.1522],[83.9178,24.1718],[83.8821,24.2005],[83.8282,24.2748],[83.8109,24.292],[83.8251,24.3227],[83.8079,24.35],[83.8134,24.379],[83.8478,24.4085],[83.8503,24.4326],[83.8473,24.4938],[83.868,24.5329]]]},"properties":{"NAME_1":"Jharkhand","NAME_2":"Garhwa"}},{"type":"Feature","geometry":{"type":"Polygon","coordinates":[[[86.0506,24.7795],[86.0061,24.7657],[86,24.7514],[85.9773,24.7476],[85.9702,24.7336],[85.9277,24.7405],[85.9046,24.7613],[85.883,24.7479],[85.8155,24.7295],[85.827,24.6854],[85.7833,24.665],[85.7579,24.6256],[85.7898,24.6033],[85.8031,24.5521],[85.8294,24.5485],[85.8612,24.5263],[85.86,24.5025],[85.8467,24.4682],[85.8253,24.4492],[85.8295,24.4311],[85.8462,24.4194],[85.838,24.352],[85.8596,24.3342],[85.8633,24.294],[85.8507,24.2857],[85.8266,24.263],[85.849,24.2409],[85.8376,24.2231],[85.8111,24.2167],[85.7864,24.2201],[85.7251,24.2053],[85.7235,24.1974],[85.672,24.182],[85.6632,24.1553],[85.7012,24.1292],[85.7013,24.1042],[85.7506,24.1022],[85.7931,24.0813],[85.8184,24.076],[85.8679,24.0373],[85.8854,24.0305],[85.8921,23.9904],[85.9207,23.9771],[85.9232,23.9541],[85.9081,23.9441],[85.9243,23.9361],[85.9305,23.917],[85.9458,23.9139],[85.9582,23.9045],[85.9611,23.8935],[85.9672,23.888],[85.9694,23.8865],[85.9744,23.8922],[85.9936,23.9057],[86.0326,23.9164],[86.0781,23.915],[86.1215,23.9038],[86.1223,23.909],[86.1236,23.9175],[86.131,23.9351],[86.1544,23.9363],[86.1746,23.9436],[86.1917,23.947],[86.199,23.9464],[86.2394,23.9407],[86.2529,23.9298],[86.2629,23.9282],[86.284,23.9444],[86.2968,23.9729],[86.2971,23.9826],[86.3094,23.9963],[86.3221,24.0119],[86.3299,24.0166],[86.3362,24.0253],[86.3268,24.027],[86.3164,24.0361],[86.3304,24.0414],[86.3378,24.0532],[86.3626,24.0494],[86.3761,24.0583],[86.3846,24.0532],[86.4002,24.0366],[86.4219,24.028],[86.4349,24.0301],[86.4451,24.0261],[86.4515,24.0209],[86.4649,24.0166],[86.4778,24.0427],[86.527,24.0552],[86.5414,24.0756],[86.5645,24.1382],[86.5697,24.1388],[86.5488,24.1528],[86.5219,24.155],[86.5031,24.1464],[86.4832,24.1508],[86.4993,24.182],[86.5118,24.2217],[86.5008,24.2811],[86.4728,24.3006],[86.4692,24.3268],[86.4565,24.3363],[86.4522,24.3686],[86.4156,24.3792],[86.3987,24.4003],[86.3733,24.4159],[86.3535,24.4421],[86.3195,24.4402],[86.3009,24.4568],[86.2939,24.4764],[86.3124,24.5085],[86.3013,24.532],[86.304,24.5583],[86.3194,24.5745],[86.2926,24.5861],[86.2486,24.5851],[86.2174,24.6118],[86.2157,24.5912],[86.1657,24.5837],[86.1523,24.5997],[86.1256,24.6118],[86.1182,24.6419],[86.1336,24.6755],[86.1244,24.7052],[86.1055,24.736],[86.0632,24.7517],[86.0506,24.7795]]]},"properties":{"NAME_1":"Jharkhand","NAME_2":"Giridih"}},{"type":"Feature","geometry":{"type":"Polygon","coordinates":[[[87.4722,25.1947],[87.4676,25.1931],[87.4669,25.1957],[87.4578,25.1978],[87.4166,25.2149],[87.4076,25.219],[87.3918,25.2275],[87.3865,25.2257],[87.3771,25.2226],[87.3699,25.205],[87.358,25.2112],[87.3478,25.2132],[87.3305,25.2171],[87.3183,25.2012],[87.3157,25.193],[87.3106,25.1698],[87.3144,25.1628],[87.3096,25.1536],[87.308,25.1503],[87.3024,25.1406],[87.2999,25.1346],[87.2949,25.1138],[87.2928,25.1047],[87.2911,25.0893],[87.2749,25.0922],[87.2631,25.1008],[87.2506,25.1059],[87.2492,25.1054],[87.2339,25.0858],[87.2107,25.0853],[87.2083,25.0833],[87.1975,25.0737],[87.1843,25.067],[87.1766,25.064],[87.1738,25.058],[87.1439,25.0108],[87.1537,24.991],[87.1476,24.9178],[87.1581,24.8856],[87.1473,24.8624],[87.106,24.8473],[87.0773,24.8083],[87.0957,24.7976],[87.0828,24.7792],[87.0863,24.7583],[87.0745,24.7447],[87.0819,24.7245],[87.0547,24.6706],[87.0444,24.624],[87.0651,24.6412],[87.1263,24.6276],[87.1504,24.6129],[87.166,24.6139],[87.2136,24.5866],[87.2434,24.5847],[87.2755,24.602],[87.3087,24.5955],[87.327,24.5763],[87.3827,24.5012],[87.4001,24.5048],[87.3851,24.5175],[87.3865,24.5443],[87.4607,24.5686],[87.4523,24.5845],[87.4607,24.6009],[87.4437,24.6246],[87.4681,24.6576],[87.4673,24.685],[87.4542,24.7315],[87.4331,24.7604],[87.4562,24.7917],[87.4907,24.783],[87.5064,24.7971],[87.4813,24.817],[87.4738,24.857],[87.4624,24.8758],[87.4533,24.9321],[87.4663,24.9534],[87.4714,24.9817],[87.4629,24.9931],[87.4923,25.0181],[87.5134,25.0567],[87.4705,25.1054],[87.4944,25.1366],[87.4722,25.1947]]]},"properties":{"NAME_1":"Jharkhand","NAME_2":"Godda"}},{"type":"Feature","geometry":{"type":"Polygon","coordinates":[[[84.3919,23.6035],[84.3522,23.6081],[84.337,23.5876],[84.312,23.5779],[84.3214,23.5272],[84.3198,23.4936],[84.3101,23.4822],[84.2819,23.4899],[84.2703,23.4659],[84.2449,23.4505],[84.2464,23.4008],[84.2535,23.3773],[84.2367,23.3476],[84.1948,23.3347],[84.1872,23.3235],[84.1343,23.3368],[84.1118,23.3494],[84.0904,23.3282],[84.0703,23.33],[84.0594,23.3043],[84.0591,23.2823],[84.0513,23.2466],[84.0522,23.2212],[84.0536,23.2132],[84.0583,23.2036],[84.0509,23.1896],[84.044,23.1846],[84.0303,23.1494],[84.0334,23.1427],[84.0453,23.1305],[84.0589,23.1126],[84.0667,23.1071],[84.0879,23.1095],[84.1124,23.0872],[84.1294,23.0815],[84.1234,23.045],[84.1266,23.026],[84.1373,23.0063],[84.1384,22.9985],[84.1451,22.9826],[84.148,22.9639],[84.1714,22.9771],[84.1731,22.9988],[84.1726,23.0072],[84.1767,23.0205],[84.1982,23.019],[84.1968,23.0041],[84.2149,22.9774],[84.2171,22.9765],[84.2374,22.9804],[84.2546,22.9737],[84.2621,22.98],[84.2714,22.9888],[84.2719,22.9709],[84.2893,22.9616],[84.3145,22.9722],[84.3252,22.9793],[84.3318,22.9791],[84.3482,22.9759],[84.3705,22.9751],[84.3778,22.9519],[84.3891,22.9387],[84.3863,22.9168],[84.3709,22.9016],[84.3767,22.8977],[84.3782,22.8879],[84.3759,22.8814],[84.37,22.8689],[84.3699,22.8645],[84.3479,22.8632],[84.3203,22.8494],[84.3177,22.8172],[84.3035,22.7985],[84.2877,22.7709],[84.3206,22.7605],[84.333,22.7442],[84.3671,22.7511],[84.384,22.7702],[84.4115,22.7631],[84.4443,22.8294],[84.4687,22.8307],[84.4982,22.8195],[84.4967,22.7935],[84.5439,22.7894],[84.543,22.7645],[84.5558,22.7443],[84.5527,22.7267],[84.5866,22.7101],[84.6004,22.7276],[84.6587,22.7264],[84.6896,22.7396],[84.6963,22.7603],[84.7258,22.799],[84.7587,22.788],[84.7716,22.7604],[84.7881,22.7517],[84.7824,22.7193],[84.8082,22.7064],[84.8092,22.7372],[84.8434,22.7188],[84.8513,22.7293],[84.8378,22.7495],[84.854,22.7613],[84.8771,22.7394],[84.9063,22.7584],[84.9266,22.7882],[84.9512,22.7726],[84.9724,22.7828],[84.9784,22.7971],[84.9946,22.8],[84.9988,22.826],[84.9961,22.8371],[84.9813,22.8668],[84.9845,22.8936],[84.9754,22.895],[84.9893,22.9223],[85.0027,22.916],[85.0089,22.9211],[85.0086,22.9285],[85.009,22.9411],[84.9988,22.9429],[84.9847,22.9589],[84.9663,22.965],[84.9457,22.9606],[84.9378,22.9717],[84.9324,23.0136],[84.9369,23.0228],[84.9268,23.0326],[84.911,23.0267],[84.8974,23.0533],[84.8698,23.075],[84.8635,23.0877],[84.8834,23.0979],[84.893,23.1073],[84.8829,23.1182],[84.8808,23.1318],[84.8879,23.1675],[84.9141,23.1668],[84.9081,23.1901],[84.9298,23.201],[84.9329,23.2071],[84.9443,23.2265],[84.9383,23.2293],[84.9249,23.2355],[84.9058,23.2486],[84.9085,23.2532],[84.8922,23.265],[84.8956,23.2838],[84.9191,23.3074],[84.9136,23.3187],[84.91,23.3191],[84.8912,23.3186],[84.8679,23.3095],[84.8451,23.3145],[84.8318,23.2959],[84.8061,23.282],[84.78,23.2817],[84.7804,23.3198],[84.7472,23.3201],[84.729,23.3304],[84.7045,23.3105],[84.6679,23.3188],[84.6524,23.3081],[84.6219,23.3077],[84.5829,23.3207],[84.5551,23.347],[84.5315,23.3473],[84.5063,23.3829],[84.4943,23.3661],[84.4725,23.359],[84.4564,23.4069],[84.4367,23.404],[84.4169,23.4254],[84.4684,23.4867],[84.4555,23.5382],[84.4639,23.5752],[84.4561,23.5816],[84.3919,23.6035]]]},"properties":{"NAME_1":"Jharkhand","NAME_2":"Gumla"}},{"type":"Feature","geometry":{"type":"Polygon","coordinates":[[[85.4421,24.5394],[85.411,24.5451],[85.3834,24.5352],[85.3703,24.5296],[85.3186,24.5246],[85.2973,24.5286],[85.2794,24.5191],[85.282,24.4972],[85.2544,24.4979],[85.2239,24.4712],[85.2033,24.4729],[85.1529,24.4641],[85.1694,24.4295],[85.1151,24.409],[85.0925,24.3815],[85.0807,24.3808],[85.0792,24.3598],[85.1025,24.3401],[85.1324,24.3409],[85.1331,24.362],[85.1573,24.3553],[85.1936,24.3337],[85.2005,24.344],[85.235,24.3504],[85.276,24.3422],[85.2917,24.3457],[85.3436,24.3173],[85.3158,24.3153],[85.3064,24.2573],[85.2931,24.2439],[85.2957,24.2112],[85.2324,24.2313],[85.1532,24.2403],[85.1331,24.2096],[85.1442,24.1675],[85.1677,24.1084],[85.234,24.0769],[85.2442,24.0266],[85.2223,24.0199],[85.2171,23.9999],[85.1809,23.9486],[85.1393,23.954],[85.1172,23.9759],[85.0674,23.9866],[85.0304,23.986],[85.0267,23.9671],[85.0376,23.9177],[85.0191,23.9179],[85.0111,23.902],[85.0275,23.8797],[85.0226,23.8614],[85.0455,23.8441],[85.0382,23.7992],[85.0407,23.7348],[85.0469,23.7125],[85.0604,23.696],[85.0515,23.6915],[85.0583,23.6822],[85.071,23.6677],[85.118,23.6649],[85.1589,23.6653],[85.1664,23.6775],[85.1821,23.7087],[85.2117,23.6996],[85.2192,23.6845],[85.2309,23.6816],[85.2215,23.6746],[85.2149,23.6648],[85.2143,23.6573],[85.2072,23.6541],[85.1988,23.6422],[85.1976,23.6321],[85.2076,23.6181],[85.2258,23.6177],[85.2299,23.615],[85.2382,23.6015],[85.2376,23.5949],[85.2602,23.5799],[85.2617,23.5789],[85.2747,23.5775],[85.3042,23.5711],[85.3434,23.56],[85.3793,23.5487],[85.388,23.5561],[85.3983,23.5538],[85.4076,23.5596],[85.4461,23.5479],[85.4658,23.5634],[85.4662,23.5699],[85.4816,23.5471],[85.4958,23.5427],[85.5095,23.543],[85.5051,23.5607],[85.5109,23.5748],[85.5183,23.5736],[85.5213,23.5637],[85.5182,23.5351],[85.5239,23.5311],[85.5338,23.5377],[85.5401,23.5381],[85.5645,23.5131],[85.572,23.5076],[85.5868,23.4934],[85.6003,23.4875],[85.6072,23.4767],[85.6323,23.4646],[85.6566,23.4595],[85.6688,23.4491],[85.7008,23.4432],[85.7189,23.4453],[85.7305,23.4464],[85.7408,23.4513],[85.7525,23.4582],[85.7675,23.457],[85.7761,23.453],[85.7889,23.4527],[85.7965,23.4475],[85.8105,23.4519],[85.8237,23.4364],[85.8367,23.4261],[85.8441,23.4204],[85.8504,23.4224],[85.8536,23.4218],[85.8609,23.4282],[85.8595,23.451],[85.8776,23.4759],[85.8831,23.4808],[85.8768,23.4903],[85.8713,23.4952],[85.8575,23.5024],[85.8547,23.5024],[85.8469,23.4984],[85.8362,23.4992],[85.8325,23.5049],[85.8332,23.5089],[85.8354,23.5192],[85.8174,23.5335],[85.8321,23.5405],[85.8366,23.5478],[85.8171,23.5613],[85.8093,23.561],[85.7979,23.598],[85.7913,23.606],[85.7869,23.6039],[85.7832,23.6133],[85.7794,23.6249],[85.7758,23.6316],[85.7656,23.6383],[85.7672,23.6587],[85.7548,23.6714],[85.7456,23.6461],[85.7175,23.6247],[85.708,23.6162],[85.7052,23.6166],[85.6813,23.6275],[85.6741,23.6287],[85.6738,23.6218],[85.6648,23.6157],[85.6584,23.6094],[85.6575,23.5993],[85.6422,23.5908],[85.6258,23.6028],[85.6097,23.6142],[85.6087,23.6207],[85.6119,23.673],[85.6041,23.685],[85.6153,23.7043],[85.6144,23.7255],[85.6102,23.748],[85.6264,23.7558],[85.6277,23.7589],[85.6357,23.7672],[85.6432,23.7718],[85.6471,23.8036],[85.6399,23.8037],[85.6349,23.8037],[85.6203,23.7818],[85.6114,23.7774],[85.6038,23.7865],[85.5972,23.7927],[85.5884,23.807],[85.5926,23.8134],[85.5861,23.8271],[85.5768,23.8339],[85.6085,23.8528],[85.6121,23.8603],[85.6064,23.8719],[85.6162,23.8931],[85.6429,23.9077],[85.6525,23.9149],[85.6506,23.9209],[85.6432,23.9285],[85.6404,23.9351],[85.6549,23.9383],[85.6659,23.9537],[85.6628,23.9575],[85.6727,23.9675],[85.6851,23.9655],[85.6951,23.9598],[85.6888,23.9566],[85.682,23.9429],[85.7057,23.9146],[85.7114,23.9152],[85.7134,23.9044],[85.717,23.9028],[85.7279,23.9209],[85.7377,23.9318],[85.7433,23.9293],[85.7612,23.9254],[85.7612,23.9091],[85.7804,23.8957],[85.7824,23.8851],[85.7956,23.8801],[85.7974,23.878],[85.7978,23.8673],[85.7988,23.8623],[85.8031,23.8582],[85.8013,23.845],[85.8114,23.8374],[85.8322,23.8282],[85.8373,23.8355],[85.8603,23.8528],[85.8621,23.8599],[85.864,23.8675],[85.884,23.9053],[85.8801,23.9125],[85.8819,23.9251],[85.8822,23.9296],[85.8791,23.937],[85.8781,23.9402],[85.8972,23.9516],[85.9081,23.9441],[85.9232,23.9541],[85.9207,23.9771],[85.8921,23.9904],[85.8854,24.0305],[85.8679,24.0373],[85.8184,24.076],[85.7931,24.0813],[85.7506,24.1022],[85.7013,24.1042],[85.7012,24.1292],[85.6632,24.1553],[85.672,24.182],[85.7235,24.1974],[85.7251,24.2053],[85.7864,24.2201],[85.8111,24.2167],[85.8376,24.2231],[85.849,24.2409],[85.8266,24.263],[85.8507,24.2857],[85.7866,24.3113],[85.7231,24.3113],[85.6979,24.3281],[85.6736,24.3272],[85.6522,24.3067],[85.6294,24.3208],[85.6322,24.3338],[85.5828,24.3386],[85.5395,24.3545],[85.5233,24.339],[85.5205,24.386],[85.5112,24.4542],[85.486,24.4971],[85.4421,24.5394]]]},"properties":{"NAME_1":"Jharkhand","NAME_2":"Hazaribag"}},{"type":"Feature","geometry":{"type":"Polygon","coordinates":[[[86.9739,24.108],[86.967,24.0982],[86.9675,24.0611],[86.9379,24.0431],[86.8763,24.0733],[86.8276,24.055],[86.8171,24.0762],[86.7922,24.0869],[86.7824,24.0703],[86.7623,24.07],[86.7381,24.0981],[86.6517,24.1322],[86.5895,24.1425],[86.5697,24.1388],[86.5645,24.1382],[86.5414,24.0756],[86.527,24.0552],[86.4778,24.0427],[86.4649,24.0166],[86.477,24.0089],[86.4823,24.01],[86.4869,24.0122],[86.4891,24.0127],[86.4925,24.0115],[86.4986,24.0057],[86.5185,23.9976],[86.5363,24.0042],[86.568,24.0001],[86.5944,23.9732],[86.6524,23.9384],[86.707,23.9153],[86.7191,23.8824],[86.7283,23.8728],[86.7432,23.8821],[86.7601,23.8768],[86.7771,23.861],[86.7811,23.8562],[86.7974,23.8319],[86.8093,23.8141],[86.8259,23.8132],[86.8444,23.8219],[86.8545,23.8325],[86.8731,23.8345],[86.8823,23.8145],[86.8877,23.8222],[86.8847,23.8305],[86.8802,23.8422],[86.8846,23.8734],[86.9069,23.8795],[86.9242,23.8659],[86.9364,23.8449],[86.9512,23.8459],[86.963,23.8648],[87.0344,23.8368],[87.0642,23.8135],[87.0766,23.8091],[87.0845,23.8053],[87.0913,23.8096],[87.1059,23.7995],[87.1126,23.8055],[87.1103,23.7991],[87.1487,23.7944],[87.1664,23.8196],[87.1591,23.8283],[87.154,23.8257],[87.1303,23.8509],[87.1279,23.8624],[87.1358,23.8681],[87.1529,23.8656],[87.1691,23.8578],[87.1766,23.8525],[87.1843,23.8529],[87.1874,23.8572],[87.1887,23.8463],[87.1916,23.8404],[87.1994,23.8475],[87.2073,23.853],[87.2128,23.8503],[87.2168,23.8509],[87.2225,23.8576],[87.2278,23.8553],[87.2362,23.8531],[87.2317,23.8446],[87.2224,23.8348],[87.2198,23.8272],[87.2291,23.823],[87.2388,23.8249],[87.2552,23.8393],[87.2515,23.8477],[87.249,23.8658],[87.2453,23.8806],[87.2461,23.8949],[87.2482,23.907],[87.2567,23.9076],[87.2617,23.8782],[87.2783,23.8819],[87.2926,23.8901],[87.2945,23.8986],[87.2878,23.9259],[87.2905,23.9475],[87.2693,23.9653],[87.2615,23.9662],[87.2595,23.9699],[87.266,23.9818],[87.268,23.9846],[87.2564,23.9991],[87.2562,23.9983],[87.2557,23.9975],[87.2545,23.9966],[87.2531,23.996],[87.2521,23.9958],[87.2501,23.9958],[87.2491,23.996],[87.2482,23.9963],[87.2477,23.9965],[87.2469,23.997],[87.2458,23.998],[87.2436,24.001],[87.2406,24.0057],[87.2392,24.0148],[87.2327,24.0246],[87.1649,24.0305],[87.1361,24.0414],[87.1145,24.0591],[87.0997,24.0935],[87.0573,24.1166],[87.0466,24.1318],[87.0238,24.142],[87.0161,24.1272],[86.9764,24.124],[86.9739,24.108]]]},"properties":{"NAME_1":"Jharkhand","NAME_2":"Jamtara"}},{"type":"Feature","geometry":{"type":"Polygon","coordinates":[[[85.9046,24.7613],[85.8778,24.8003],[85.8272,24.8096],[85.8107,24.7945],[85.7772,24.799],[85.7654,24.8125],[85.7367,24.8227],[85.7036,24.7575],[85.7048,24.7287],[85.66,24.6747],[85.6607,24.6506],[85.6721,24.6194],[85.6647,24.5819],[85.6443,24.5783],[85.6085,24.585],[85.5766,24.603],[85.5614,24.5837],[85.5683,24.5652],[85.5404,24.5503],[85.5342,24.5322],[85.5044,24.5297],[85.4945,24.5506],[85.4421,24.5394],[85.486,24.4971],[85.5112,24.4542],[85.5205,24.386],[85.5233,24.339],[85.5395,24.3545],[85.5828,24.3386],[85.6322,24.3338],[85.6294,24.3208],[85.6522,24.3067],[85.6736,24.3272],[85.6979,24.3281],[85.7231,24.3113],[85.7866,24.3113],[85.8507,24.2857],[85.8633,24.294],[85.8596,24.3342],[85.838,24.352],[85.8462,24.4194],[85.8295,24.4311],[85.8253,24.4492],[85.8467,24.4682],[85.86,24.5025],[85.8612,24.5263],[85.8294,24.5485],[85.8031,24.5521],[85.7898,24.6033],[85.7579,24.6256],[85.7833,24.665],[85.827,24.6854],[85.8155,24.7295],[85.883,24.7479],[85.9046,24.7613]]]},"properties":{"NAME_1":"Jharkhand","NAME_2":"Koderma"}},{"type":"Feature","geometry":{"type":"Polygon","coordinates":[[[84.5784,23.9859],[84.567,23.9624],[84.5644,23.9328],[84.5249,23.9308],[84.5117,23.9204],[84.518,23.9002],[84.4773,23.894],[84.4624,23.9169],[84.4707,23.9373],[84.4615,23.9543],[84.44,23.9605],[84.4272,23.947],[84.394,23.9331],[84.358,23.9404],[84.3368,23.951],[84.3268,23.91],[84.2489,23.8997],[84.2449,23.9157],[84.2075,23.9059],[84.1714,23.9339],[84.1326,23.9426],[84.1382,23.9186],[84.1305,23.9004],[84.1074,23.894],[84.0808,23.8612],[84.0627,23.8572],[84.0434,23.8295],[84.0469,23.8134],[84.0145,23.7986],[84.0159,23.7759],[83.9926,23.7415],[83.9776,23.7237],[83.9865,23.7088],[84.0192,23.6941],[84.0593,23.6937],[84.0451,23.6591],[84.007,23.6323],[84.0036,23.6263],[84.0126,23.6055],[84.0219,23.5922],[84.0251,23.5658],[84.0227,23.5442],[84.0088,23.4996],[83.9927,23.4852],[83.9846,23.4756],[83.9697,23.4477],[83.9778,23.4315],[83.9781,23.4141],[83.9762,23.4075],[83.9658,23.3812],[83.9703,23.3694],[83.983,23.3596],[84.0115,23.3634],[84.038,23.3762],[84.0435,23.3697],[84.0486,23.3542],[84.0703,23.33],[84.0904,23.3282],[84.1118,23.3494],[84.1343,23.3368],[84.1872,23.3235],[84.1948,23.3347],[84.2367,23.3476],[84.2535,23.3773],[84.2464,23.4008],[84.2449,23.4505],[84.2703,23.4659],[84.2819,23.4899],[84.3101,23.4822],[84.3198,23.4936],[84.3214,23.5272],[84.312,23.5779],[84.337,23.5876],[84.3522,23.6081],[84.3919,23.6035],[84.3888,23.637],[84.4134,23.6328],[84.4554,23.6464],[84.4686,23.6609],[84.5021,23.6751],[84.5314,23.6672],[84.5586,23.6136],[84.5774,23.6187],[84.5834,23.6645],[84.6089,23.6579],[84.6371,23.6653],[84.657,23.6249],[84.6738,23.6031],[84.7135,23.6168],[84.7209,23.6374],[84.7514,23.6039],[84.7744,23.5531],[84.7933,23.5647],[84.8157,23.5639],[84.815,23.5427],[84.8469,23.532],[84.8795,23.5564],[84.8861,23.5564],[84.9016,23.5775],[84.9018,23.5713],[84.9173,23.5516],[84.9292,23.5615],[84.9387,23.6065],[84.9359,23.6313],[84.9124,23.6515],[84.9287,23.6804],[84.9352,23.6929],[84.9424,23.7004],[84.9499,23.6962],[84.9577,23.7005],[84.957,23.7128],[84.9342,23.7261],[84.9209,23.767],[84.896,23.7742],[84.9106,23.8035],[84.938,23.8018],[84.9408,23.8416],[84.9273,23.8658],[84.9426,23.8736],[84.9331,23.905],[84.9198,23.9111],[84.9282,23.9341],[84.916,23.95],[84.8823,23.9422],[84.8772,23.9514],[84.8389,23.9644],[84.8233,23.9569],[84.7983,23.9692],[84.7521,23.9665],[84.7629,24.0082],[84.7358,24.0477],[84.7026,24.0388],[84.6685,24.0041],[84.6396,24.0048],[84.6247,23.9811],[84.5784,23.9859]]]},"properties":{"NAME_1":"Jharkhand","NAME_2":"Latehar"}},{"type":"Feature","geometry":{"type":"Polygon","coordinates":[[[84.3919,23.6035],[84.4561,23.5816],[84.4639,23.5752],[84.4555,23.5382],[84.4684,23.4867],[84.4169,23.4254],[84.4367,23.404],[84.4564,23.4069],[84.4725,23.359],[84.4943,23.3661],[84.5063,23.3829],[84.5315,23.3473],[84.5551,23.347],[84.5829,23.3207],[84.6219,23.3077],[84.6524,23.3081],[84.6679,23.3188],[84.7045,23.3105],[84.729,23.3304],[84.7472,23.3201],[84.7804,23.3198],[84.78,23.2817],[84.8061,23.282],[84.8318,23.2959],[84.8451,23.3145],[84.8679,23.3095],[84.8912,23.3186],[84.9004,23.3415],[84.8977,23.3628],[84.881,23.369],[84.8879,23.3847],[84.8795,23.4008],[84.8885,23.4093],[84.892,23.4142],[84.8894,23.4245],[84.9039,23.4503],[84.9233,23.4713],[84.929,23.4806],[84.9385,23.4993],[84.9331,23.5083],[84.9196,23.5241],[84.8788,23.5507],[84.8795,23.5564],[84.8469,23.532],[84.815,23.5427],[84.8157,23.5639],[84.7933,23.5647],[84.7744,23.5531],[84.7514,23.6039],[84.7209,23.6374],[84.7135,23.6168],[84.6738,23.6031],[84.657,23.6249],[84.6371,23.6653],[84.6089,23.6579],[84.5834,23.6645],[84.5774,23.6187],[84.5586,23.6136],[84.5314,23.6672],[84.5021,23.6751],[84.4686,23.6609],[84.4554,23.6464],[84.4134,23.6328],[84.3888,23.637],[84.3919,23.6035]]]},"properties":{"NAME_1":"Jharkhand","NAME_2":"Lohardaga"}},{"type":"Feature","geometry":{"type":"Polygon","coordinates":[[[87.8397,24.7382],[87.8157,24.7217],[87.7949,24.7273],[87.7789,24.7527],[87.7606,24.7439],[87.7343,24.7617],[87.7089,24.737],[87.6662,24.7632],[87.6281,24.7691],[87.5889,24.7895],[87.5903,24.8088],[87.5675,24.8091],[87.5484,24.827],[87.5332,24.8201],[87.5315,24.7985],[87.5064,24.7971],[87.4907,24.783],[87.4562,24.7917],[87.4331,24.7604],[87.4542,24.7315],[87.4673,24.685],[87.4681,24.6576],[87.4437,24.6246],[87.4607,24.6009],[87.4523,24.5845],[87.4607,24.5686],[87.3865,24.5443],[87.3851,24.5175],[87.4001,24.5048],[87.4207,24.5129],[87.4949,24.524],[87.5339,24.5065],[87.5594,24.5196],[87.5689,24.504],[87.5647,24.4683],[87.5684,24.3786],[87.584,24.3231],[87.5793,24.257],[87.6302,24.2552],[87.6417,24.2499],[87.6493,24.2466],[87.6499,24.2437],[87.6543,24.2366],[87.659,24.2384],[87.6619,24.245],[87.6707,24.2443],[87.6779,24.2465],[87.685,24.2528],[87.693,24.2574],[87.6974,24.2597],[87.7045,24.2638],[87.706,24.2678],[87.7046,24.2745],[87.7083,24.2804],[87.7103,24.2921],[87.7198,24.288],[87.7302,24.2876],[87.7364,24.2889],[87.7405,24.2927],[87.7431,24.2977],[87.7482,24.3015],[87.7585,24.3078],[87.7595,24.3169],[87.7601,24.3195],[87.7642,24.3252],[87.7612,24.3333],[87.7645,24.3386],[87.7792,24.3571],[87.7849,24.3676],[87.7938,24.3808],[87.7975,24.3822],[87.7981,24.3908],[87.7973,24.3923],[87.7926,24.3931],[87.7926,24.3964],[87.8015,24.4019],[87.8075,24.4044],[87.8085,24.4121],[87.8052,24.4181],[87.7986,24.4112],[87.7862,24.4186],[87.79,24.4217],[87.7923,24.4269],[87.7898,24.4347],[87.796,24.4394],[87.7999,24.4437],[87.8009,24.4474],[87.8069,24.4526],[87.8152,24.4536],[87.8174,24.459],[87.8166,24.4655],[87.8137,24.4727],[87.8091,24.4766],[87.8169,24.4861],[87.821,24.4884],[87.8224,24.4923],[87.8219,24.4964],[87.8202,24.4935],[87.8187,24.4921],[87.8118,24.499],[87.8076,24.5094],[87.8067,24.5106],[87.8034,24.5016],[87.801,24.4948],[87.794,24.5003],[87.7999,24.5042],[87.8012,24.5146],[87.799,24.5209],[87.7971,24.53],[87.7975,24.5387],[87.8036,24.5401],[87.8026,24.5543],[87.7916,24.5657],[87.7777,24.5714],[87.7679,24.576],[87.7797,24.5821],[87.8022,24.578],[87.8169,24.5701],[87.8233,24.5666],[87.8348,24.5563],[87.845,24.5528],[87.8492,24.5569],[87.8538,24.556],[87.8605,24.5553],[87.8644,24.5587],[87.8686,24.5613],[87.8766,24.5611],[87.8873,24.5627],[87.8961,24.5806],[87.9033,24.5824],[87.9054,24.5838],[87.9087,24.5912],[87.9077,24.6044],[87.9081,24.6082],[87.8987,24.6081],[87.8887,24.6082],[87.878,24.6094],[87.8753,24.6099],[87.8727,24.6107],[87.8791,24.6148],[87.8963,24.6119],[87.9016,24.6126],[87.9021,24.6165],[87.9018,24.6226],[87.8871,24.6245],[87.8889,24.6314],[87.8969,24.6304],[87.902,24.6294],[87.9043,24.6304],[87.908,24.6421],[87.9101,24.6549],[87.9116,24.6623],[87.9032,24.667],[87.8904,24.6703],[87.8894,24.6818],[87.8978,24.695],[87.899,24.6997],[87.9009,24.7105],[87.9031,24.7119],[87.8908,24.7226],[87.8855,24.7293],[87.8778,24.7391],[87.8749,24.7351],[87.861,24.7313],[87.8523,24.7349],[87.8397,24.7382]]]},"properties":{"NAME_1":"Jharkhand","NAME_2":"Pakur"}},{"type":"Feature","geometry":{"type":"Polygon","coordinates":[[[83.868,24.5329],[83.8473,24.4938],[83.8503,24.4326],[83.8478,24.4085],[83.8134,24.379],[83.8079,24.35],[83.8251,24.3227],[83.8109,24.292],[83.8282,24.2748],[83.8821,24.2005],[83.9178,24.1718],[83.9625,24.1522],[83.9697,24.1243],[83.9416,24.0941],[83.9314,24.1005],[83.8874,24.0884],[83.8594,24.0701],[83.8549,24.0423],[83.839,24.0326],[83.8189,24.0008],[83.8319,23.9824],[83.8658,23.9529],[83.9057,23.9066],[83.9621,23.8659],[83.9719,23.8459],[83.9826,23.7509],[83.9926,23.7415],[84.0159,23.7759],[84.0145,23.7986],[84.0469,23.8134],[84.0434,23.8295],[84.0627,23.8572],[84.0808,23.8612],[84.1074,23.894],[84.1305,23.9004],[84.1382,23.9186],[84.1326,23.9426],[84.1714,23.9339],[84.2075,23.9059],[84.2449,23.9157],[84.2489,23.8997],[84.3268,23.91],[84.3368,23.951],[84.358,23.9404],[84.394,23.9331],[84.4272,23.947],[84.44,23.9605],[84.4615,23.9543],[84.4707,23.9373],[84.4624,23.9169],[84.4773,23.894],[84.518,23.9002],[84.5117,23.9204],[84.5249,23.9308],[84.5644,23.9328],[84.567,23.9624],[84.5784,23.9859],[84.5633,23.9845],[84.5468,24.016],[84.547,24.0432],[84.5676,24.0702],[84.5465,24.1031],[84.5651,24.1178],[84.5729,24.1413],[84.5448,24.153],[84.5211,24.1912],[84.4659,24.2102],[84.4661,24.2288],[84.4374,24.2437],[84.449,24.2611],[84.4813,24.2643],[84.4935,24.287],[84.4651,24.3084],[84.4545,24.3386],[84.4174,24.3314],[84.4225,24.3591],[84.3949,24.3678],[84.3822,24.3897],[84.3614,24.3866],[84.3359,24.3958],[84.3259,24.4109],[84.3304,24.4312],[84.315,24.4475],[84.2932,24.4508],[84.2942,24.4808],[84.3217,24.4898],[84.3191,24.5223],[84.293,24.566],[84.2692,24.5643],[84.2585,24.5377],[84.2207,24.5503],[84.1728,24.542],[84.1793,24.5104],[84.1536,24.5176],[84.1098,24.4814],[84.0891,24.5041],[84.0897,24.5339],[84.0725,24.5696],[84.0597,24.577],[84.0467,24.6123],[84.0242,24.6291],[83.9922,24.638],[83.9724,24.5966],[83.9285,24.5479],[83.868,24.5329]]]},"properties":{"NAME_1":"Jharkhand","NAME_2":"Palamu"}},{"type":"Feature","geometry":{"type":"Polygon","coordinates":[[[85.5106,22.8059],[85.4984,22.7979],[85.4517,22.7991],[85.4261,22.8328],[85.384,22.8389],[85.3679,22.8593],[85.3362,22.8826],[85.3036,22.8804],[85.2624,22.8573],[85.2432,22.8322],[85.2222,22.8353],[85.1896,22.8099],[85.1622,22.8323],[85.1423,22.8038],[85.1344,22.7754],[85.1364,22.7355],[85.1165,22.706],[85.1094,22.6552],[85.0904,22.6478],[85.071,22.6115],[85.0907,22.593],[85.0737,22.5679],[85.0696,22.564],[85.0626,22.5391],[85.0748,22.5146],[85.071,22.4979],[85.0625,22.4784],[85.0711,22.4559],[85.057,22.4447],[85.0746,22.4135],[85.0831,22.3784],[85.0741,22.3486],[85.093,22.3411],[85.0859,22.317],[85.114,22.3142],[85.1053,22.2911],[85.0705,22.2722],[85.0695,22.2306],[85.0469,22.1858],[85.0254,22.154],[85.0312,22.1374],[85.0237,22.112],[84.9805,22.0913],[85.0023,22.0799],[85.02,22.1034],[85.0439,22.1107],[85.099,22.0961],[85.1189,22.0665],[85.1408,22.0736],[85.2107,22.0432],[85.2149,22.0107],[85.2309,22.0003],[85.2411,22.0125],[85.2742,22.0801],[85.323,22.125],[85.3617,22.1248],[85.3632,22.1546],[85.4103,22.1561],[85.457,22.1358],[85.4858,22.1165],[85.536,22.0944],[85.5911,22.0744],[85.6312,22.0815],[85.6446,22.0903],[85.6724,22.0597],[85.672,22.0515],[85.7224,22.0581],[85.7578,22.085],[85.802,22.1108],[85.8308,22.077],[85.8144,22.0701],[85.7879,22.0772],[85.7703,22.0513],[85.7789,22.0363],[85.7561,22.0084],[85.7607,21.9897],[85.7843,21.9786],[85.8404,21.9765],[85.8942,21.9783],[85.9288,22.0194],[85.9426,22.0191],[86.0026,22.113],[85.9946,22.1318],[86.0267,22.1852],[85.9928,22.2155],[85.9698,22.2434],[86.0178,22.3046],[86.0204,22.3294],[85.9929,22.3382],[86.0169,22.3622],[86.0215,22.3818],[86.0087,22.4243],[85.993,22.4221],[85.9535,22.456],[85.9608,22.4786],[85.9473,22.486],[85.922,22.4965],[85.906,22.5092],[85.8934,22.5231],[85.8979,22.5453],[85.878,22.5529],[85.8847,22.5742],[85.8946,22.577],[85.9044,22.6003],[85.8942,22.6038],[85.8778,22.6157],[85.8617,22.6182],[85.8667,22.6283],[85.865,22.6388],[85.8616,22.6506],[85.857,22.6589],[85.8621,22.6774],[85.8619,22.6887],[85.8555,22.695],[85.8595,22.7035],[85.8596,22.7083],[85.8528,22.7165],[85.8387,22.7061],[85.8192,22.7174],[85.8119,22.7127],[85.791,22.7142],[85.7866,22.7102],[85.7904,22.7068],[85.7715,22.706],[85.7595,22.6976],[85.738,22.6899],[85.7312,22.6872],[85.7208,22.6824],[85.7113,22.6887],[85.6982,22.6928],[85.692,22.7091],[85.6868,22.7133],[85.6773,22.7261],[85.6867,22.7424],[85.7052,22.7395],[85.7127,22.7528],[85.6992,22.7594],[85.6955,22.7657],[85.6907,22.7853],[85.6932,22.7991],[85.6767,22.8149],[85.6569,22.8306],[85.6521,22.8385],[85.6476,22.8389],[85.6387,22.8472],[85.6157,22.845],[85.6068,22.8269],[85.5876,22.8247],[85.5627,22.8293],[85.5351,22.8174],[85.5246,22.8054],[85.5106,22.8059]]]},"properties":{"NAME_1":"Jharkhand","NAME_2":"Pashchim Singhbhum"}},{"type":"Feature","geometry":{"type":"Polygon","coordinates":[[[86.5551,22.7079],[86.5393,22.7206],[86.51,22.7161],[86.479,22.7224],[86.454,22.7596],[86.4162,22.7765],[86.4216,22.8088],[86.4339,22.8286],[86.4328,22.8605],[86.463,22.8966],[86.4324,22.9158],[86.4701,22.9466],[86.4868,22.9355],[86.5122,22.9663],[86.4974,22.9899],[86.4631,22.9852],[86.4163,22.9948],[86.393,22.9742],[86.3804,22.9907],[86.36,22.9967],[86.3322,22.9889],[86.2794,23.0107],[86.2613,22.9955],[86.2345,22.9934],[86.2325,22.97],[86.1919,22.9663],[86.1846,22.9197],[86.1882,22.896],[86.2142,22.8875],[86.1945,22.8589],[86.191,22.8154],[86.1557,22.8349],[86.143,22.8108],[86.167,22.7907],[86.1658,22.7605],[86.1536,22.7452],[86.159,22.6736],[86.1514,22.6335],[86.1138,22.6026],[86.0969,22.5806],[86.0723,22.5651],[86.0618,22.5485],[86.0916,22.5092],[86.1014,22.4902],[86.1451,22.4751],[86.1555,22.4791],[86.1967,22.4677],[86.2024,22.4703],[86.2091,22.4628],[86.2165,22.465],[86.2182,22.4682],[86.2169,22.464],[86.2115,22.4597],[86.2285,22.4496],[86.2596,22.4413],[86.2798,22.4455],[86.3007,22.4153],[86.3098,22.3973],[86.3199,22.3804],[86.3393,22.3661],[86.3527,22.3515],[86.3906,22.3253],[86.4013,22.3194],[86.4217,22.3139],[86.4244,22.3063],[86.4388,22.3165],[86.4495,22.3231],[86.4603,22.3264],[86.4746,22.3342],[86.5013,22.3315],[86.5196,22.3206],[86.5251,22.3124],[86.5232,22.3078],[86.5457,22.2989],[86.5743,22.2939],[86.5822,22.291],[86.5856,22.2909],[86.5899,22.2821],[86.6026,22.2784],[86.6161,22.276],[86.6272,22.2668],[86.6373,22.2662],[86.6414,22.2642],[86.6483,22.2532],[86.6511,22.2332],[86.6603,22.2342],[86.6651,22.2386],[86.6699,22.2368],[86.6822,22.2195],[86.721,22.2168],[86.7478,22.208],[86.7551,22.208],[86.7746,22.2234],[86.7721,22.2277],[86.7759,22.2315],[86.78,22.2317],[86.7912,22.2203],[86.7825,22.2254],[86.776,22.2138],[86.8001,22.2136],[86.8099,22.238],[86.7976,22.2339],[86.7903,22.2628],[86.7964,22.2499],[86.7965,22.2451],[86.8024,22.2418],[86.809,22.2465],[86.8092,22.2538],[86.8119,22.2639],[86.8126,22.2593],[86.8163,22.2493],[86.8228,22.2613],[86.8337,22.2596],[86.8502,22.2593],[86.8646,22.2535],[86.8857,22.2521],[86.8856,22.2634],[86.8868,22.2867],[86.8808,22.2964],[86.8726,22.2988],[86.8681,22.3046],[86.8407,22.3138],[86.8285,22.3295],[86.8289,22.3415],[86.8409,22.369],[86.8405,22.3842],[86.8439,22.3961],[86.8309,22.4064],[86.789,22.4183],[86.7639,22.4229],[86.7571,22.4424],[86.7574,22.4464],[86.749,22.4603],[86.7533,22.4801],[86.7825,22.4774],[86.7956,22.4797],[86.797,22.4888],[86.791,22.4936],[86.7893,22.5097],[86.7914,22.5167],[86.7828,22.5244],[86.7828,22.5357],[86.7714,22.5458],[86.7645,22.5506],[86.767,22.556],[86.7634,22.5646],[86.756,22.5743],[86.706,22.5804],[86.6739,22.5735],[86.6614,22.5744],[86.6573,22.5727],[86.6511,22.5843],[86.639,22.5938],[86.634,22.604],[86.6324,22.61],[86.6367,22.6551],[86.6224,22.6663],[86.6102,22.6774],[86.6029,22.6798],[86.5808,22.689],[86.5551,22.7079]]]},"properties":{"NAME_1":"Jharkhand","NAME_2":"Purba Singhbhum"}},{"type":"Feature","geometry":{"type":"Polygon","coordinates":[[[84.9854,23.6883],[84.9718,23.705],[84.9691,23.7069],[84.957,23.7128],[84.9577,23.7005],[84.9499,23.6962],[84.9424,23.7004],[84.9352,23.6929],[84.9287,23.6804],[84.9124,23.6515],[84.9359,23.6313],[84.9387,23.6065],[84.9292,23.5615],[84.9173,23.5516],[84.9018,23.5713],[84.9016,23.5775],[84.8861,23.5564],[84.8795,23.5564],[84.8788,23.5507],[84.9196,23.5241],[84.9331,23.5083],[84.9385,23.4993],[84.929,23.4806],[84.9233,23.4713],[84.9039,23.4503],[84.8894,23.4245],[84.892,23.4142],[84.8885,23.4093],[84.8795,23.4008],[84.8879,23.3847],[84.881,23.369],[84.8977,23.3628],[84.9004,23.3415],[84.91,23.3191],[84.9136,23.3187],[84.9191,23.3074],[84.8956,23.2838],[84.8922,23.265],[84.9085,23.2532],[84.9058,23.2486],[84.9249,23.2355],[84.9383,23.2293],[84.9443,23.2265],[84.9329,23.2071],[84.9298,23.201],[84.9081,23.1901],[84.9141,23.1668],[84.8879,23.1675],[84.8808,23.1318],[84.8829,23.1182],[84.893,23.1073],[84.8834,23.0979],[84.8635,23.0877],[84.8698,23.075],[84.8974,23.0533],[84.911,23.0267],[84.9268,23.0326],[84.9369,23.0228],[84.9324,23.0136],[84.9378,22.9717],[84.9457,22.9606],[84.9663,22.965],[84.9847,22.9589],[84.9988,22.9429],[85.009,22.9411],[85.0086,22.9285],[85.0089,22.9211],[85.0027,22.916],[84.9893,22.9223],[84.9754,22.895],[84.9845,22.8936],[84.9813,22.8668],[84.9961,22.8371],[84.9988,22.826],[84.9946,22.8],[84.9784,22.7971],[84.985,22.7827],[85.0251,22.7513],[85.0418,22.7499],[85.0481,22.7382],[85.0523,22.7255],[85.0471,22.7058],[85.0371,22.6779],[85.0511,22.6654],[85.0504,22.6481],[85.0499,22.6081],[85.0633,22.6021],[85.0665,22.5989],[85.0656,22.582],[85.0737,22.5679],[85.0907,22.593],[85.071,22.6115],[85.0904,22.6478],[85.1094,22.6552],[85.1165,22.706],[85.1364,22.7355],[85.1344,22.7754],[85.1423,22.8038],[85.1622,22.8323],[85.1896,22.8099],[85.2222,22.8353],[85.2432,22.8322],[85.2624,22.8573],[85.3036,22.8804],[85.3362,22.8826],[85.3679,22.8593],[85.384,22.8389],[85.4261,22.8328],[85.4517,22.7991],[85.4984,22.7979],[85.5106,22.8059],[85.5087,22.8263],[85.517,22.8407],[85.5222,22.8421],[85.5281,22.8631],[85.5352,22.8634],[85.5427,22.872],[85.5547,22.8716],[85.5742,22.8634],[85.5853,22.8829],[85.5974,22.8929],[85.5849,22.8961],[85.576,22.8972],[85.5748,22.9031],[85.5871,22.9194],[85.609,22.9205],[85.6278,22.9165],[85.6457,22.9188],[85.6517,22.9353],[85.6767,22.9322],[85.6984,22.9414],[85.7251,22.9395],[85.7569,22.9307],[85.7762,22.9195],[85.7957,22.9076],[85.8124,22.9044],[85.8309,22.8995],[85.8453,22.8818],[85.8574,22.8845],[85.8515,22.8978],[85.8669,22.9241],[85.8688,22.9298],[85.8629,22.9364],[85.8589,22.94],[85.8457,22.9455],[85.8424,22.9768],[85.8366,22.9849],[85.8209,22.9938],[85.8183,23.0002],[85.8081,23.0313],[85.8056,23.0407],[85.793,23.0567],[85.7988,23.0638],[85.8165,23.0834],[85.8242,23.0895],[85.8304,23.0998],[85.8358,23.104],[85.8419,23.116],[85.8538,23.1275],[85.8664,23.1262],[85.8665,23.1318],[85.8701,23.1455],[85.8815,23.1498],[85.8892,23.1518],[85.8766,23.1613],[85.8772,23.173],[85.8598,23.1924],[85.8439,23.1941],[85.835,23.1921],[85.8316,23.1951],[85.8337,23.2019],[85.8307,23.2106],[85.8264,23.2631],[85.8337,23.2807],[85.8524,23.2945],[85.8608,23.315],[85.878,23.3237],[85.8709,23.3525],[85.8667,23.3615],[85.8853,23.3738],[85.8943,23.3797],[85.8821,23.3837],[85.8848,23.3873],[85.8783,23.4021],[85.8817,23.4037],[85.8722,23.4085],[85.8629,23.41],[85.8536,23.4218],[85.8504,23.4224],[85.8441,23.4204],[85.8367,23.4261],[85.8237,23.4364],[85.8105,23.4519],[85.7965,23.4475],[85.7889,23.4527],[85.7761,23.453],[85.7675,23.457],[85.7525,23.4582],[85.7408,23.4513],[85.7305,23.4464],[85.7189,23.4453],[85.7008,23.4432],[85.6688,23.4491],[85.6566,23.4595],[85.6323,23.4646],[85.6072,23.4767],[85.6003,23.4875],[85.5868,23.4934],[85.572,23.5076],[85.5645,23.5131],[85.5401,23.5381],[85.5338,23.5377],[85.5239,23.5311],[85.5182,23.5351],[85.5213,23.5637],[85.5183,23.5736],[85.5109,23.5748],[85.5051,23.5607],[85.5095,23.543],[85.4958,23.5427],[85.4816,23.5471],[85.4662,23.5699],[85.4658,23.5634],[85.4461,23.5479],[85.4076,23.5596],[85.3983,23.5538],[85.388,23.5561],[85.3793,23.5487],[85.3434,23.56],[85.3042,23.5711],[85.2747,23.5775],[85.2617,23.5789],[85.2602,23.5799],[85.2376,23.5949],[85.2382,23.6015],[85.2299,23.615],[85.2258,23.6177],[85.2076,23.6181],[85.1976,23.6321],[85.1988,23.6422],[85.2072,23.6541],[85.2143,23.6573],[85.2149,23.6648],[85.2215,23.6746],[85.2309,23.6816],[85.2192,23.6845],[85.2117,23.6996],[85.1821,23.7087],[85.1664,23.6775],[85.1589,23.6653],[85.118,23.6649],[85.071,23.6677],[85.0583,23.6822],[85.0515,23.6915],[85.0604,23.696],[85.0469,23.7125],[85.0397,23.7048],[85.0316,23.692],[85.0109,23.6859],[85.0086,23.6903],[85.0046,23.6857],[84.9907,23.6802],[84.9854,23.6883]]]},"properties":{"NAME_1":"Jharkhand","NAME_2":"Ranchi"}},{"type":"Feature","geometry":{"type":"Polygon","coordinates":[[[87.7876,25.2205],[87.7833,25.2462],[87.7078,25.2564],[87.6913,25.2814],[87.6842,25.3101],[87.6518,25.3072],[87.6262,25.3157],[87.6069,25.3114],[87.5671,25.3339],[87.5474,25.3309],[87.5441,25.3229],[87.5385,25.2962],[87.5356,25.2801],[87.5255,25.281],[87.4989,25.2923],[87.4901,25.3052],[87.4876,25.2776],[87.492,25.2714],[87.4726,25.2409],[87.4718,25.2224],[87.4722,25.1947],[87.4944,25.1366],[87.4705,25.1054],[87.5134,25.0567],[87.4923,25.0181],[87.4629,24.9931],[87.4714,24.9817],[87.4663,24.9534],[87.4533,24.9321],[87.4624,24.8758],[87.4738,24.857],[87.4813,24.817],[87.5064,24.7971],[87.5315,24.7985],[87.5332,24.8201],[87.5484,24.827],[87.5675,24.8091],[87.5903,24.8088],[87.5889,24.7895],[87.6281,24.7691],[87.6662,24.7632],[87.7089,24.737],[87.7343,24.7617],[87.7606,24.7439],[87.7789,24.7527],[87.7949,24.7273],[87.8157,24.7217],[87.8397,24.7382],[87.8253,24.7522],[87.8139,24.7534],[87.8221,24.7667],[87.8279,24.7719],[87.83,24.783],[87.839,24.7801],[87.8369,24.7773],[87.8338,24.7659],[87.8389,24.7654],[87.8502,24.7613],[87.8545,24.7643],[87.8654,24.7743],[87.8665,24.7761],[87.8665,24.7824],[87.8681,24.7871],[87.8748,24.7898],[87.8775,24.798],[87.8728,24.8053],[87.8721,24.8119],[87.8677,24.823],[87.8866,24.8197],[87.8984,24.8245],[87.8939,24.8292],[87.8972,24.8417],[87.8947,24.8478],[87.8914,24.8482],[87.897,24.8544],[87.9112,24.8559],[87.9665,24.8813],[87.9733,24.8965],[87.9617,24.9359],[87.9065,24.9858],[87.9034,24.9984],[87.8643,25.0399],[87.7929,25.0757],[87.7727,25.0991],[87.771,25.1523],[87.7876,25.2205]]]},"properties":{"NAME_1":"Jharkhand","NAME_2":"Sahibganj"}},{"type":"Feature","geometry":{"type":"Polygon","coordinates":[[[86.2345,22.9934],[86.2064,22.9941],[86.2009,23.0151],[86.1756,23.013],[86.1602,23.0391],[86.1346,23.0629],[86.138,23.0805],[86.1157,23.0936],[86.0918,23.0908],[86.0442,23.1119],[86.0484,23.1292],[86.0369,23.1436],[85.9819,23.1459],[85.9438,23.1295],[85.915,23.1295],[85.8892,23.1518],[85.8815,23.1498],[85.8701,23.1455],[85.8665,23.1318],[85.8664,23.1262],[85.8538,23.1275],[85.8419,23.116],[85.8358,23.104],[85.8304,23.0998],[85.8242,23.0895],[85.8165,23.0834],[85.7988,23.0638],[85.793,23.0567],[85.8056,23.0407],[85.8081,23.0313],[85.8183,23.0002],[85.8209,22.9938],[85.8366,22.9849],[85.8424,22.9768],[85.8457,22.9455],[85.8589,22.94],[85.8629,22.9364],[85.8688,22.9298],[85.8669,22.9241],[85.8515,22.8978],[85.8574,22.8845],[85.8453,22.8818],[85.8309,22.8995],[85.8124,22.9044],[85.7957,22.9076],[85.7762,22.9195],[85.7569,22.9307],[85.7251,22.9395],[85.6984,22.9414],[85.6767,22.9322],[85.6517,22.9353],[85.6457,22.9188],[85.6278,22.9165],[85.609,22.9205],[85.5871,22.9194],[85.5748,22.9031],[85.576,22.8972],[85.5849,22.8961],[85.5974,22.8929],[85.5853,22.8829],[85.5742,22.8634],[85.5547,22.8716],[85.5427,22.872],[85.5352,22.8634],[85.5281,22.8631],[85.5222,22.8421],[85.517,22.8407],[85.5087,22.8263],[85.5246,22.8054],[85.5351,22.8174],[85.5627,22.8293],[85.5876,22.8247],[85.6068,22.8269],[85.6157,22.845],[85.6387,22.8472],[85.6476,22.8389],[85.6521,22.8385],[85.6569,22.8306],[85.6767,22.8149],[85.6932,22.7991],[85.6907,22.7853],[85.6955,22.7657],[85.6992,22.7594],[85.7127,22.7528],[85.7052,22.7395],[85.6867,22.7424],[85.6773,22.7261],[85.6868,22.7133],[85.692,22.7091],[85.6982,22.6928],[85.7113,22.6887],[85.7208,22.6824],[85.7312,22.6872],[85.738,22.6899],[85.7595,22.6976],[85.7715,22.706],[85.7904,22.7068],[85.7866,22.7102],[85.791,22.7142],[85.8119,22.7127],[85.8192,22.7174],[85.8387,22.7061],[85.8528,22.7165],[85.8596,22.7083],[85.8595,22.7035],[85.8555,22.695],[85.8619,22.6887],[85.8621,22.6774],[85.857,22.6589],[85.8616,22.6506],[85.865,22.6388],[85.8667,22.6283],[85.8617,22.6182],[85.8778,22.6157],[85.8942,22.6038],[85.9044,22.6003],[85.8946,22.577],[85.8847,22.5742],[85.878,22.5529],[85.8979,22.5453],[85.8934,22.5231],[85.906,22.5092],[85.922,22.4965],[85.9608,22.4786],[85.9668,22.4822],[85.967,22.486],[85.9807,22.5097],[85.993,22.5089],[85.9959,22.509],[86.0087,22.5186],[86.0154,22.5245],[86.0283,22.5343],[86.0183,22.5436],[86.0466,22.5579],[86.0534,22.5547],[86.0618,22.5485],[86.0723,22.5651],[86.0969,22.5806],[86.1138,22.6026],[86.1514,22.6335],[86.159,22.6736],[86.1536,22.7452],[86.1658,22.7605],[86.167,22.7907],[86.143,22.8108],[86.1557,22.8349],[86.191,22.8154],[86.1945,22.8589],[86.2142,22.8875],[86.1882,22.896],[86.1846,22.9197],[86.1919,22.9663],[86.2325,22.97],[86.2345,22.9934]]]},"properties":{"NAME_1":"Jharkhand","NAME_2":"Saraikela Kharsawan"}},{"type":"Feature","geometry":{"type":"Polygon","coordinates":[[[84.9724,22.7828],[84.9512,22.7726],[84.9266,22.7882],[84.9063,22.7584],[84.8771,22.7394],[84.854,22.7613],[84.8378,22.7495],[84.8513,22.7293],[84.8434,22.7188],[84.8092,22.7372],[84.8082,22.7064],[84.7824,22.7193],[84.7881,22.7517],[84.7716,22.7604],[84.7587,22.788],[84.7258,22.799],[84.6963,22.7603],[84.6896,22.7396],[84.6587,22.7264],[84.6004,22.7276],[84.5866,22.7101],[84.5527,22.7267],[84.5558,22.7443],[84.543,22.7645],[84.5439,22.7894],[84.4967,22.7935],[84.4982,22.8195],[84.4687,22.8307],[84.4443,22.8294],[84.4115,22.7631],[84.384,22.7702],[84.3671,22.7511],[84.333,22.7442],[84.3206,22.7605],[84.2877,22.7709],[84.2853,22.7634],[84.2601,22.7649],[84.2542,22.763],[84.2516,22.7581],[84.2417,22.7484],[84.2254,22.7352],[84.2294,22.7052],[84.2277,22.698],[84.2206,22.6689],[84.2097,22.663],[84.2016,22.6652],[84.1916,22.6603],[84.1574,22.6409],[84.1499,22.6344],[84.1072,22.6367],[84.0976,22.633],[84.0804,22.6366],[84.0593,22.6074],[84.0481,22.5941],[84.0419,22.5922],[84.0213,22.5872],[84.02,22.5828],[84.011,22.575],[84.0042,22.5549],[84.0049,22.5301],[84.0191,22.5211],[84.0331,22.5121],[84.0576,22.5102],[84.0667,22.5022],[84.0671,22.4981],[84.0792,22.4889],[84.1021,22.4773],[84.1256,22.4736],[84.1349,22.4709],[84.1375,22.4572],[84.1331,22.4453],[84.1423,22.4154],[84.1752,22.3889],[84.1834,22.3837],[84.1941,22.3718],[84.2466,22.3737],[84.2609,22.3537],[84.2892,22.3373],[84.3591,22.345],[84.3674,22.3496],[84.3776,22.3459],[84.3945,22.3439],[84.4261,22.3488],[84.4314,22.36],[84.4557,22.3752],[84.4776,22.3837],[84.4802,22.3872],[84.476,22.3935],[84.4745,22.4017],[84.5018,22.4153],[84.5058,22.4162],[84.5266,22.42],[84.5722,22.423],[84.6136,22.4276],[84.6321,22.4286],[84.6616,22.4139],[84.6815,22.4149],[84.7113,22.4139],[84.7439,22.4148],[84.7527,22.442],[84.8012,22.4437],[84.8127,22.4316],[84.8284,22.4292],[84.8325,22.4264],[84.8357,22.4276],[84.8637,22.4345],[84.8753,22.4412],[84.8795,22.4322],[84.8802,22.4176],[84.9077,22.4196],[84.9199,22.426],[84.9182,22.4286],[84.9314,22.4396],[84.9408,22.4474],[84.9534,22.4455],[84.9602,22.4437],[85.0216,22.4671],[85.0316,22.4698],[85.0354,22.4773],[85.0422,22.4769],[85.0514,22.4794],[85.071,22.4979],[85.0748,22.5146],[85.0626,22.5391],[85.0696,22.564],[85.0737,22.5679],[85.0656,22.582],[85.0665,22.5989],[85.0633,22.6021],[85.0499,22.6081],[85.0504,22.6481],[85.0511,22.6654],[85.0371,22.6779],[85.0471,22.7058],[85.0523,22.7255],[85.0481,22.7382],[85.0418,22.7499],[85.0251,22.7513],[84.985,22.7827],[84.9724,22.7828]]]},"properties":{"NAME_1":"Jharkhand","NAME_2":"Simdega"}}]}