{"type":"FeatureCollection","features":[{"type":"Feature","geometry":{"type":"Polygon","coordinates":[[[76.2399,16.1622],[76.1691,16.1808],[76.1407,16.1774],[76.0632,16.2071],[76.0664,16.2559],[76.0127,16.299],[75.9591,16.2948],[75.9345,16.311],[75.8914,16.3235],[75.8742,16.3406],[75.8386,16.3484],[75.7829,16.3774],[75.7253,16.3879],[75.6446,16.4378],[75.6113,16.4438],[75.5935,16.4355],[75.5731,16.4074],[75.5583,16.4198],[75.5544,16.4538],[75.5379,16.4624],[75.5006,16.4494],[75.495,16.4173],[75.4519,16.4111],[75.4366,16.4353],[75.462,16.4645],[75.4581,16.5035],[75.4884,16.5069],[75.4904,16.5471],[75.4862,16.5678],[75.4919,16.5978],[75.4635,16.6195],[75.4575,16.6611],[75.4476,16.6615],[75.4412,16.695],[75.4862,16.6914],[75.4949,16.7049],[75.4941,16.7432],[75.4496,16.7534],[75.4297,16.7649],[75.39,16.7601],[75.3699,16.7563],[75.3659,16.712],[75.2909,16.7098],[75.2663,16.6765],[75.2697,16.6341],[75.2587,16.6028],[75.2316,16.6149],[75.1728,16.5993],[75.1608,16.5834],[75.1693,16.5485],[75.1613,16.5277],[75.141,16.5233],[75.1271,16.5071],[75.1115,16.5071],[75.0899,16.5552],[75.0737,16.566],[75.0689,16.5383],[75.0116,16.5361],[74.9966,16.506],[74.9993,16.4562],[75.0203,16.4546],[75.0314,16.4302],[75.0807,16.4338],[75.0761,16.401],[75.0375,16.3844],[75.0371,16.3352],[75.0454,16.3169],[75.0744,16.3284],[75.0916,16.3223],[75.1392,16.3204],[75.1296,16.2857],[75.2015,16.2718],[75.2345,16.2574],[75.2303,16.2321],[75.2413,16.2045],[75.2695,16.2065],[75.2833,16.1963],[75.2935,16.1673],[75.2783,16.1158],[75.3265,16.1109],[75.3552,16.1245],[75.3594,16.1114],[75.4175,16.1064],[75.4323,16.0783],[75.4297,16.0554],[75.4181,16.0493],[75.4293,16.0075],[75.4414,15.9978],[75.4415,15.9566],[75.4273,15.9185],[75.443,15.9154],[75.4405,15.8912],[75.457,15.8838],[75.4779,15.8698],[75.502,15.867],[75.5231,15.8391],[75.5409,15.8296],[75.6214,15.8324],[75.6578,15.8243],[75.6641,15.8337],[75.6954,15.8229],[75.7118,15.8256],[75.7459,15.8105],[75.78,15.8144],[75.7786,15.8474],[75.8082,15.8473],[75.8457,15.8347],[75.8247,15.8977],[75.7809,15.8945],[75.7739,15.9108],[75.8524,15.9325],[75.9032,15.9196],[75.9193,15.9032],[75.9446,15.8619],[75.9772,15.8638],[75.9753,15.9787],[75.994,16.0007],[76.0219,16.0046],[76.0522,15.999],[76.0802,16.0069],[76.0854,15.9892],[76.0735,15.9591],[76.0594,15.9015],[76.1015,15.8948],[76.1171,15.8816],[76.1453,15.8894],[76.1551,15.9081],[76.1929,15.9265],[76.2018,15.9375],[76.2272,15.9359],[76.2303,15.9173],[76.2564,15.9174],[76.2601,15.9011],[76.2842,15.8979],[76.2843,15.9222],[76.3011,15.9186],[76.3266,15.9274],[76.3206,15.9493],[76.3008,15.9656],[76.296,15.9935],[76.311,15.994],[76.3016,16.0693],[76.2597,16.07],[76.26,16.0857],[76.2929,16.0841],[76.3282,16.073],[76.3332,16.087],[76.2901,16.1012],[76.2449,16.108],[76.2343,16.127],[76.2399,16.1622]]]},"properties":{"NAME_1":"Karnataka","NAME_2":"Bagalkot"}},{"type":"Feature","geometry":{"type":"Polygon","coordinates":[[[77.3794,13.4924],[77.3666,13.463],[77.3429,13.4451],[77.3563,13.4274],[77.3418,13.4097],[77.336,13.3707],[77.3391,13.3384],[77.332,13.3219],[77.3054,13.3146],[77.3009,13.3029],[77.2235,13.3032],[77.2157,13.2607],[77.2019,13.2543],[77.1817,13.2642],[77.1845,13.2339],[77.1753,13.2196],[77.2006,13.1803],[77.1907,13.1727],[77.1494,13.1837],[77.1137,13.1536],[77.1128,13.1371],[77.0899,13.1356],[77.0657,13.1167],[77.0763,13.0792],[77.0641,13.0594],[77.0655,13.0382],[77.1299,12.9878],[77.1258,12.9662],[77.1526,12.9483],[77.1608,12.9219],[77.1522,12.9039],[77.1359,12.9076],[77.1254,12.8794],[77.1254,12.8504],[77.1425,12.8392],[77.149,12.8172],[77.1331,12.8007],[77.1414,12.7752],[77.1128,12.7639],[77.0923,12.7665],[77.0732,12.7384],[77.0659,12.6934],[77.0686,12.6706],[77.0919,12.6591],[77.0921,12.633],[77.1003,12.5933],[77.1219,12.5598],[77.1066,12.5451],[77.1245,12.4929],[77.1156,12.477],[77.139,12.4536],[77.1579,12.4741],[77.1696,12.4703],[77.2054,12.4778],[77.2306,12.4909],[77.2255,12.4637],[77.2604,12.4567],[77.2781,12.3835],[77.3052,12.3815],[77.3242,12.3446],[77.3133,12.2986],[77.331,12.2743],[77.389,12.2697],[77.4111,12.2789],[77.426,12.2731],[77.4388,12.2416],[77.463,12.2358],[77.4702,12.2619],[77.4932,12.2728],[77.5183,12.2695],[77.5561,12.2972],[77.5686,12.3242],[77.6038,12.3538],[77.6158,12.4049],[77.6252,12.4773],[77.5966,12.4646],[77.6018,12.4917],[77.5785,12.507],[77.5701,12.5579],[77.5815,12.5842],[77.5821,12.6051],[77.5978,12.621],[77.5893,12.6483],[77.5855,12.6555],[77.6086,12.6968],[77.5877,12.71],[77.5644,12.691],[77.55,12.7215],[77.5683,12.7429],[77.5906,12.7575],[77.5433,12.7647],[77.5117,12.7259],[77.4975,12.7269],[77.4685,12.7454],[77.4713,12.797],[77.4447,12.8097],[77.4362,12.7989],[77.4136,12.822],[77.4296,12.8311],[77.4043,12.8675],[77.3696,12.8452],[77.3583,12.8626],[77.3403,12.8594],[77.3293,12.9007],[77.3365,12.929],[77.325,12.9389],[77.3371,12.9619],[77.3717,12.9859],[77.3651,13.0075],[77.3855,13.0202],[77.394,13.0624],[77.4219,13.0597],[77.4113,13.0964],[77.3966,13.1049],[77.4092,13.1392],[77.4215,13.1555],[77.4535,13.1516],[77.4685,13.1869],[77.4715,13.2129],[77.504,13.2158],[77.5133,13.201],[77.5391,13.2232],[77.5619,13.1926],[77.5902,13.1806],[77.6116,13.1964],[77.6449,13.1922],[77.6599,13.1763],[77.6805,13.1835],[77.7202,13.1791],[77.7228,13.1386],[77.7323,13.1132],[77.7527,13.1035],[77.753,13.0662],[77.7612,13.0413],[77.7737,13.037],[77.7681,12.963],[77.7576,12.9288],[77.798,12.9107],[77.8138,12.8978],[77.8256,12.859],[77.8588,12.8576],[77.845,12.8832],[77.8543,12.9036],[77.8328,12.9142],[77.8658,12.9334],[77.8619,12.9672],[77.8786,13.0006],[77.8876,13.0433],[77.9066,13.0391],[77.9221,13.0643],[77.8931,13.09],[77.9142,13.1061],[77.9479,13.1154],[77.9534,13.1768],[77.9472,13.1921],[77.9569,13.2344],[77.9409,13.238],[77.8631,13.2235],[77.8133,13.2412],[77.8021,13.2526],[77.8194,13.3171],[77.7917,13.3298],[77.7836,13.3424],[77.7457,13.3529],[77.7111,13.3422],[77.691,13.3268],[77.6514,13.347],[77.6547,13.3703],[77.6324,13.3843],[77.6261,13.3665],[77.6072,13.3771],[77.6102,13.3931],[77.5956,13.4327],[77.5838,13.4127],[77.5473,13.4092],[77.542,13.4266],[77.5149,13.4253],[77.4977,13.4485],[77.4645,13.4608],[77.4379,13.4543],[77.419,13.4645],[77.4023,13.4893],[77.3794,13.4924]]]},"properties":{"NAME_1":"Karnataka","NAME_2":"Bangalore Rural"}},{"type":"Feature","geometry":{"type":"Polygon","coordinates":[[[77.8256,12.859],[77.8138,12.8978],[77.798,12.9107],[77.7576,12.9288],[77.7681,12.963],[77.7737,13.037],[77.7612,13.0413],[77.753,13.0662],[77.7527,13.1035],[77.7323,13.1132],[77.7228,13.1386],[77.7202,13.1791],[77.6805,13.1835],[77.6599,13.1763],[77.6449,13.1922],[77.6116,13.1964],[77.5902,13.1806],[77.5619,13.1926],[77.5391,13.2232],[77.5133,13.201],[77.504,13.2158],[77.4715,13.2129],[77.4685,13.1869],[77.4535,13.1516],[77.4215,13.1555],[77.4092,13.1392],[77.3966,13.1049],[77.4113,13.0964],[77.4219,13.0597],[77.394,13.0624],[77.3855,13.0202],[77.3651,13.0075],[77.3717,12.9859],[77.3371,12.9619],[77.325,12.9389],[77.3365,12.929],[77.3293,12.9007],[77.3403,12.8594],[77.3583,12.8626],[77.3696,12.8452],[77.4043,12.8675],[77.4296,12.8311],[77.4136,12.822],[77.4362,12.7989],[77.4447,12.8097],[77.4713,12.797],[77.4685,12.7454],[77.4975,12.7269],[77.5117,12.7259],[77.5433,12.7647],[77.5906,12.7575],[77.5683,12.7429],[77.55,12.7215],[77.5644,12.691],[77.5877,12.71],[77.6086,12.6968],[77.5855,12.6555],[77.5893,12.6483],[77.5903,12.6575],[77.6543,12.6742],[77.6703,12.6712],[77.6678,12.6506],[77.6955,12.6512],[77.7038,12.6737],[77.7502,12.6872],[77.763,12.7145],[77.7584,12.7293],[77.785,12.7451],[77.7716,12.7598],[77.7879,12.7813],[77.801,12.8208],[77.7836,12.8283],[77.8221,12.8498],[77.8256,12.859]]]},"properties":{"NAME_1":"Karnataka","NAME_2":"Bangalore Urban"}},{"type":"Feature","geometry":{"type":"Polygon","coordinates":[[[75.3453,16.9525],[75.2846,16.9536],[75.2828,16.8742],[75.2683,16.8609],[75.241,16.863],[75.23,16.8409],[75.1832,16.842],[75.1718,16.8648],[75.1411,16.8735],[75.1384,16.8929],[75.0947,16.9212],[75.0941,16.9472],[75.0481,16.9387],[75.0037,16.9458],[74.9858,16.929],[74.9545,16.93],[74.9384,16.941],[74.927,16.9256],[74.9528,16.9065],[74.9673,16.9054],[74.9641,16.8779],[74.9486,16.8801],[74.912,16.8559],[74.9159,16.7857],[74.9238,16.77],[74.855,16.7708],[74.8503,16.7603],[74.779,16.7486],[74.7366,16.7158],[74.6982,16.7152],[74.6961,16.675],[74.6717,16.6635],[74.6605,16.6376],[74.6943,16.6152],[74.6639,16.6011],[74.6411,16.6047],[74.6405,16.5819],[74.617,16.568],[74.5741,16.552],[74.5597,16.5597],[74.5656,16.5904],[74.5499,16.5922],[74.5514,16.6332],[74.4955,16.6277],[74.4774,16.6608],[74.4648,16.653],[74.4725,16.6048],[74.4408,16.5987],[74.4288,16.5827],[74.4035,16.5787],[74.3957,16.5357],[74.3854,16.5274],[74.3322,16.5537],[74.3069,16.5292],[74.2764,16.5445],[74.2766,16.5206],[74.2889,16.5038],[74.2948,16.4744],[74.3219,16.45],[74.3389,16.4522],[74.3427,16.4005],[74.3237,16.3536],[74.3344,16.3405],[74.3487,16.2915],[74.3287,16.2794],[74.3371,16.2657],[74.3626,16.2871],[74.3801,16.2935],[74.3913,16.2756],[74.4212,16.2806],[74.4225,16.2575],[74.4841,16.2467],[74.5083,16.2229],[74.5129,16.1883],[74.4978,16.1813],[74.491,16.142],[74.4971,16.1124],[74.4891,16.0873],[74.4645,16.1021],[74.4346,16.1106],[74.4041,16.091],[74.371,16.0596],[74.3901,16.0351],[74.4112,16.049],[74.4405,16.057],[74.468,16.0467],[74.4639,16.0226],[74.4497,15.9985],[74.45,15.9832],[74.4352,15.9512],[74.3919,15.9012],[74.3992,15.8743],[74.37,15.8757],[74.3538,15.8481],[74.3874,15.8471],[74.3692,15.8122],[74.3755,15.7967],[74.3509,15.7634],[74.3241,15.7565],[74.2922,15.7393],[74.274,15.7531],[74.2439,15.7444],[74.2352,15.7596],[74.2403,15.7808],[74.2174,15.7788],[74.2113,15.7586],[74.1971,15.7502],[74.1677,15.7493],[74.1601,15.7343],[74.1349,15.7222],[74.1415,15.7004],[74.1336,15.6784],[74.098,15.666],[74.126,15.6503],[74.1734,15.6521],[74.1754,15.6702],[74.2241,15.6503],[74.2316,15.6665],[74.2553,15.6542],[74.2675,15.617],[74.2652,15.5902],[74.2543,15.5658],[74.2829,15.5416],[74.2838,15.5195],[74.3464,15.5165],[74.3814,15.4796],[74.3921,15.4831],[74.4263,15.4596],[74.429,15.4143],[74.4406,15.4014],[74.4731,15.4113],[74.4853,15.3934],[74.5206,15.4009],[74.5396,15.4167],[74.5726,15.4009],[74.6191,15.3562],[74.6588,15.3876],[74.6962,15.3966],[74.7036,15.4074],[74.7468,15.4089],[74.735,15.427],[74.7491,15.4589],[74.7314,15.4866],[74.7509,15.492],[74.7655,15.4671],[74.781,15.457],[74.7912,15.482],[74.8174,15.5006],[74.802,15.5434],[74.8444,15.5718],[74.846,15.6043],[74.8823,15.6143],[74.894,15.6273],[74.9361,15.6199],[74.9672,15.6228],[74.9708,15.6489],[75.0179,15.6422],[75.0333,15.6662],[75.0672,15.6674],[75.0599,15.6287],[75.0849,15.6195],[75.1012,15.6241],[75.1098,15.6691],[75.1453,15.6568],[75.1734,15.6588],[75.2055,15.6472],[75.205,15.6791],[75.2396,15.6767],[75.2529,15.6437],[75.2753,15.6477],[75.2809,15.6863],[75.2776,15.7366],[75.2945,15.7249],[75.316,15.7285],[75.3195,15.7623],[75.307,15.7641],[75.306,15.8082],[75.3671,15.8021],[75.3793,15.8404],[75.3952,15.8352],[75.4293,15.8397],[75.4177,15.7809],[75.4396,15.7769],[75.4616,15.8138],[75.457,15.8838],[75.4405,15.8912],[75.443,15.9154],[75.4273,15.9185],[75.4415,15.9566],[75.4414,15.9978],[75.4293,16.0075],[75.4181,16.0493],[75.4297,16.0554],[75.4323,16.0783],[75.4175,16.1064],[75.3594,16.1114],[75.3552,16.1245],[75.3265,16.1109],[75.2783,16.1158],[75.2935,16.1673],[75.2833,16.1963],[75.2695,16.2065],[75.2413,16.2045],[75.2303,16.2321],[75.2345,16.2574],[75.2015,16.2718],[75.1296,16.2857],[75.1392,16.3204],[75.0916,16.3223],[75.0744,16.3284],[75.0454,16.3169],[75.0371,16.3352],[75.0375,16.3844],[75.0761,16.401],[75.0807,16.4338],[75.0314,16.4302],[75.0203,16.4546],[74.9993,16.4562],[74.9966,16.506],[75.0116,16.5361],[75.0689,16.5383],[75.0737,16.566],[75.0899,16.5552],[75.1115,16.5071],[75.1271,16.5071],[75.141,16.5233],[75.1613,16.5277],[75.1693,16.5485],[75.1608,16.5834],[75.1728,16.5993],[75.2316,16.6149],[75.2587,16.6028],[75.2697,16.6341],[75.2663,16.6765],[75.2909,16.7098],[75.3659,16.712],[75.3699,16.7563],[75.39,16.7601],[75.3801,16.8065],[75.3968,16.8588],[75.337,16.8664],[75.3363,16.9127],[75.3453,16.9525]]]},"properties":{"NAME_1":"Karnataka","NAME_2":"Belgaum"}},{"type":"Feature","geometry":{"type":"Polygon","coordinates":[[[77.1528,15.1316],[77.1645,15.1685],[77.1582,15.1938],[77.1414,15.2181],[77.1209,15.2212],[77.1403,15.2516],[77.1479,15.2857],[77.1154,15.2899],[77.1097,15.3273],[77.0691,15.3195],[77.0629,15.3379],[77.038,15.3588],[77.0438,15.3837],[77.0285,15.4013],[77.0274,15.4352],[77.0061,15.4482],[76.996,15.4675],[76.9704,15.4909],[76.996,15.4997],[77.0266,15.5],[77.0289,15.5251],[77.0237,15.5764],[77.0271,15.6293],[77.0689,15.6409],[77.0814,15.6528],[77.1162,15.6251],[77.125,15.6591],[77.0759,15.6909],[77.0844,15.709],[77.0763,15.7214],[77.0471,15.725],[77.0467,15.7513],[77.0625,15.7784],[77.0639,15.8232],[77.0244,15.8295],[76.9962,15.8048],[76.9241,15.7304],[76.915,15.6953],[76.8701,15.6602],[76.8307,15.6113],[76.8323,15.5567],[76.8106,15.5422],[76.8096,15.5102],[76.7777,15.4884],[76.7239,15.487],[76.6999,15.4808],[76.6665,15.4459],[76.609,15.4372],[76.5889,15.4081],[76.5532,15.3898],[76.5462,15.3799],[76.4883,15.3381],[76.4785,15.3437],[76.4311,15.3343],[76.4048,15.3194],[76.3608,15.3213],[76.3504,15.3075],[76.3319,15.2588],[76.3087,15.2564],[76.2894,15.2371],[76.2794,15.2139],[76.2467,15.1872],[76.2291,15.1865],[76.2188,15.2021],[76.2305,15.2287],[76.1862,15.231],[76.1613,15.2123],[76.1573,15.1935],[76.1287,15.1987],[76.1087,15.1875],[76.1002,15.1626],[76.0584,15.1531],[76.0272,15.1394],[75.9774,15.1492],[75.9495,15.1333],[75.9313,15.137],[75.9046,15.1276],[75.8848,15.0932],[75.9099,15.0717],[75.9065,15.0545],[75.8822,15.0465],[75.8669,15.0296],[75.84,15.0372],[75.8318,15.0234],[75.8099,15.0197],[75.7855,14.9961],[75.7804,14.9731],[75.761,14.9625],[75.7432,14.9404],[75.7018,14.9442],[75.6845,14.9262],[75.697,14.8882],[75.7287,14.8933],[75.7387,14.8835],[75.7336,14.8598],[75.7147,14.8481],[75.6899,14.8502],[75.6657,14.8044],[75.6877,14.782],[75.7237,14.7646],[75.7217,14.7488],[75.7023,14.7257],[75.717,14.7141],[75.7565,14.7344],[75.7604,14.7734],[75.7722,14.7888],[75.8,14.7652],[75.8277,14.7784],[75.8362,14.8018],[75.8182,14.8324],[75.8031,14.8701],[75.8273,14.8939],[75.8566,14.8781],[75.8546,14.8597],[75.8864,14.8655],[75.8996,14.8784],[75.9707,14.9031],[75.996,14.894],[76.0509,14.914],[76.0789,14.8955],[76.0659,14.8791],[76.073,14.8641],[76.1258,14.8653],[76.1547,14.8559],[76.156,14.8435],[76.1886,14.8425],[76.1943,14.8153],[76.1573,14.8256],[76.143,14.8052],[76.152,14.7811],[76.1682,14.7806],[76.2005,14.7461],[76.1983,14.7241],[76.1847,14.6962],[76.229,14.6442],[76.2472,14.6893],[76.2755,14.6821],[76.321,14.6876],[76.3362,14.6813],[76.3419,14.6616],[76.3744,14.6589],[76.3886,14.6442],[76.3915,14.6229],[76.4294,14.614],[76.4219,14.5764],[76.4978,14.5621],[76.5079,14.5563],[76.534,14.5606],[76.5674,14.5881],[76.5745,14.603],[76.5966,14.6165],[76.6094,14.6441],[76.5957,14.6522],[76.6082,14.6815],[76.6354,14.7006],[76.6487,14.7212],[76.6467,14.7516],[76.6628,14.769],[76.6809,14.8014],[76.6985,14.8107],[76.7312,14.8063],[76.7347,14.8213],[76.7108,14.8345],[76.7105,14.8571],[76.6945,14.8839],[76.6751,14.887],[76.662,14.9109],[76.658,14.9368],[76.6959,14.9242],[76.7117,14.9378],[76.7142,14.9675],[76.6887,14.9733],[76.6696,15.0141],[76.7016,15.0139],[76.6998,15.0262],[76.7303,15.028],[76.7248,14.9991],[76.7325,14.982],[76.757,14.983],[76.7846,15.0167],[76.7726,15.0651],[76.7969,15.0908],[76.8606,15.0567],[76.8767,15.0287],[76.9135,15.031],[76.9507,15.0244],[76.9668,15.0132],[77.0007,15.0296],[77.0469,15.0292],[77.041,15.0055],[77.0788,15],[77.0821,15.0223],[77.1096,15.0286],[77.1255,15.0682],[77.1276,15.0936],[77.1477,15.1073],[77.1528,15.1316]]]},"properties":{"NAME_1":"Karnataka","NAME_2":"Bellary"}},{"type":"Feature","geometry":{"type":"Polygon","coordinates":[[[77.55,18.2913],[77.5198,18.3074],[77.5126,18.282],[77.4922,18.2659],[77.4654,18.26],[77.4369,18.282],[77.4364,18.3065],[77.4078,18.2996],[77.3625,18.3083],[77.367,18.3223],[77.3928,18.3405],[77.3918,18.3659],[77.4079,18.3785],[77.4005,18.3978],[77.3698,18.4007],[77.3644,18.4298],[77.3421,18.4303],[77.3256,18.4551],[77.3133,18.4394],[77.2646,18.4184],[77.2402,18.4086],[77.2273,18.3449],[77.21,18.3137],[77.1954,18.3127],[77.2062,18.278],[77.1778,18.2819],[77.1572,18.2531],[77.1395,18.2072],[77.0955,18.1951],[77.1163,18.1676],[77.1089,18.1527],[77.0577,18.1524],[77.0494,18.1732],[77.0328,18.1838],[77.024,18.1627],[76.9978,18.1668],[76.9915,18.1867],[76.9541,18.1849],[76.9438,18.1547],[76.9226,18.1161],[76.9534,18.1101],[76.9683,18.0971],[76.9497,18.0823],[76.9521,18.0377],[76.9177,18.0332],[76.9196,17.9854],[76.9132,17.9372],[76.8812,17.8931],[76.8538,17.8978],[76.8082,17.8831],[76.8028,17.8683],[76.7746,17.877],[76.766,17.8984],[76.7407,17.898],[76.7375,17.8571],[76.7657,17.8508],[76.7882,17.8265],[76.7763,17.7994],[76.7394,17.7791],[76.7194,17.7853],[76.718,17.7479],[76.6924,17.7053],[76.6906,17.68],[76.6971,17.6439],[76.7157,17.6377],[76.7325,17.6642],[76.768,17.6642],[76.7694,17.6449],[76.8347,17.6495],[76.9266,17.6327],[76.9178,17.615],[76.9376,17.6057],[76.9577,17.6344],[76.9783,17.6476],[76.9787,17.6857],[76.9928,17.6933],[77.0357,17.6659],[77.0525,17.668],[77.086,17.6576],[77.1138,17.6826],[77.1321,17.6779],[77.1301,17.6599],[77.1518,17.6264],[77.1879,17.6133],[77.2276,17.6298],[77.2741,17.6244],[77.2978,17.5952],[77.3378,17.5874],[77.3469,17.5987],[77.3751,17.5938],[77.3754,17.5808],[77.4399,17.5815],[77.4405,17.6041],[77.4508,17.6324],[77.4456,17.6575],[77.4579,17.699],[77.4893,17.7068],[77.4943,17.716],[77.5394,17.7254],[77.562,17.7471],[77.5545,17.7613],[77.523,17.7796],[77.5045,17.7826],[77.526,17.8268],[77.5543,17.8305],[77.5674,17.8661],[77.5925,17.8795],[77.5852,17.9082],[77.6166,17.9029],[77.62,17.9445],[77.644,17.9464],[77.6534,17.9694],[77.6462,17.9932],[77.6288,17.9925],[77.6067,18.018],[77.5531,18.0347],[77.5457,18.0538],[77.5673,18.0763],[77.5975,18.0843],[77.5935,18.1279],[77.5978,18.1518],[77.5794,18.1621],[77.57,18.1892],[77.585,18.2167],[77.5725,18.2406],[77.599,18.2729],[77.5978,18.2812],[77.55,18.2913]]]},"properties":{"NAME_1":"Karnataka","NAME_2":"Bidar"}},{"type":"Feature","geometry":{"type":"Polygon","coordinates":[[[76.0735,17.3323],[76.0632,17.3519],[76.0155,17.3506],[76.0003,17.3377],[75.9715,17.3365],[75.9312,17.3241],[75.8937,17.3536],[75.8944,17.4059],[75.8591,17.389],[75.856,17.4077],[75.8389,17.4205],[75.822,17.4197],[75.8113,17.3699],[75.7823,17.3788],[75.7698,17.4068],[75.737,17.4219],[75.7081,17.4083],[75.6912,17.4126],[75.6808,17.454],[75.6356,17.4775],[75.6154,17.422],[75.6158,17.3919],[75.5785,17.3829],[75.5841,17.3513],[75.6131,17.3423],[75.606,17.3033],[75.6247,17.2938],[75.6323,17.2722],[75.6575,17.2706],[75.6639,17.2138],[75.6307,17.1862],[75.6314,17.1601],[75.6527,17.1327],[75.6536,17.1131],[75.6741,17.1136],[75.6811,17.0711],[75.6479,17.0466],[75.6722,17.0357],[75.6687,16.9832],[75.6784,16.9639],[75.645,16.951],[75.6363,16.9658],[75.6107,16.9696],[75.6095,17.0031],[75.5699,17.0062],[75.5703,16.9636],[75.53,16.9658],[75.517,16.9519],[75.493,16.9452],[75.4897,16.9654],[75.4679,16.9853],[75.4438,16.9795],[75.431,16.9635],[75.3948,16.9764],[75.3453,16.9525],[75.3363,16.9127],[75.337,16.8664],[75.3968,16.8588],[75.3801,16.8065],[75.39,16.7601],[75.4297,16.7649],[75.4496,16.7534],[75.4941,16.7432],[75.4949,16.7049],[75.4862,16.6914],[75.4412,16.695],[75.4476,16.6615],[75.4575,16.6611],[75.4635,16.6195],[75.4919,16.5978],[75.4862,16.5678],[75.4904,16.5471],[75.4884,16.5069],[75.4581,16.5035],[75.462,16.4645],[75.4366,16.4353],[75.4519,16.4111],[75.495,16.4173],[75.5006,16.4494],[75.5379,16.4624],[75.5544,16.4538],[75.5583,16.4198],[75.5731,16.4074],[75.5935,16.4355],[75.6113,16.4438],[75.6446,16.4378],[75.7253,16.3879],[75.7829,16.3774],[75.8386,16.3484],[75.8742,16.3406],[75.8914,16.3235],[75.9345,16.311],[75.9591,16.2948],[76.0127,16.299],[76.0664,16.2559],[76.0632,16.2071],[76.1407,16.1774],[76.1691,16.1808],[76.2399,16.1622],[76.2803,16.1466],[76.2971,16.1791],[76.3279,16.1879],[76.3529,16.2227],[76.3447,16.2429],[76.3469,16.2709],[76.3208,16.282],[76.301,16.2803],[76.304,16.3125],[76.2929,16.3215],[76.3148,16.3418],[76.3051,16.3734],[76.3093,16.3918],[76.3327,16.3866],[76.3326,16.421],[76.3826,16.4193],[76.4028,16.4289],[76.4358,16.4319],[76.4301,16.4969],[76.4344,16.5083],[76.4229,16.5472],[76.4163,16.5963],[76.4082,16.6104],[76.4037,16.645],[76.437,16.704],[76.4192,16.7127],[76.4395,16.7389],[76.4341,16.7602],[76.3708,16.7648],[76.3776,16.7983],[76.3537,16.8162],[76.3571,16.8355],[76.3737,16.8561],[76.4282,16.8453],[76.4299,16.835],[76.4688,16.8367],[76.4579,16.8632],[76.4368,16.8647],[76.434,16.8953],[76.4611,16.8962],[76.4579,16.9218],[76.4355,16.939],[76.4179,16.9239],[76.4,16.9322],[76.3995,16.9734],[76.4341,16.9778],[76.437,17.0043],[76.4289,17.0263],[76.4286,17.097],[76.3975,17.0693],[76.3838,17.0967],[76.3632,17.1145],[76.3653,17.1736],[76.3544,17.1831],[76.3229,17.1658],[76.282,17.1632],[76.2546,17.1449],[76.2438,17.1469],[76.2194,17.1821],[76.1951,17.1808],[76.1247,17.2429],[76.0903,17.2542],[76.0979,17.2816],[76.0901,17.2953],[76.0666,17.3075],[76.0735,17.3323]]]},"properties":{"NAME_1":"Karnataka","NAME_2":"Bijapur"}},{"type":"Feature","geometry":{"type":"Polygon","coordinates":[[[77.3133,12.2986],[77.2936,12.2897],[77.2627,12.3042],[77.2405,12.2987],[77.157,12.3009],[77.1608,12.2513],[77.104,12.2342],[77.1258,12.2192],[77.1246,12.2005],[77.0997,12.1814],[77.081,12.1819],[77.0573,12.165],[77.0373,12.1608],[77.0269,12.1324],[77.011,12.1272],[76.9851,12.1677],[76.978,12.1325],[76.9596,12.1031],[76.9384,12.0902],[76.915,12.1059],[76.8848,12.1122],[76.8643,12.1329],[76.8612,12.1612],[76.8348,12.1484],[76.8253,12.1207],[76.84,12.1102],[76.8664,12.108],[76.8749,12.0763],[76.8631,12.0486],[76.9306,12.0188],[76.8961,11.9879],[76.8759,12.0049],[76.8521,11.9888],[76.832,11.9902],[76.8155,12.0028],[76.8129,12.0195],[76.7844,12.0015],[76.7913,11.9799],[76.7736,11.9741],[76.7588,11.9885],[76.7295,11.9931],[76.6987,11.9746],[76.6943,11.9872],[76.6609,12.0004],[76.6454,11.9976],[76.6308,11.9735],[76.5992,11.9819],[76.5758,11.9751],[76.5524,11.9383],[76.5686,11.9139],[76.5499,11.8826],[76.5474,11.8487],[76.5262,11.8636],[76.4833,11.8514],[76.4844,11.8137],[76.4623,11.8098],[76.4542,11.7833],[76.4161,11.7984],[76.4077,11.7533],[76.419,11.7215],[76.4031,11.7068],[76.4022,11.6831],[76.4235,11.6593],[76.4514,11.6551],[76.4737,11.6781],[76.5042,11.698],[76.5404,11.6705],[76.5536,11.6129],[76.6079,11.6004],[76.6257,11.6038],[76.7514,11.6067],[76.8165,11.5972],[76.8373,11.5745],[76.8509,11.6018],[76.8297,11.6293],[76.83,11.649],[76.8536,11.6988],[76.8809,11.7246],[76.888,11.7659],[76.8997,11.7833],[76.9444,11.7813],[76.9596,11.7652],[76.9748,11.791],[77.0044,11.803],[77.0413,11.7776],[77.0501,11.7577],[77.0759,11.7239],[77.0963,11.7231],[77.1139,11.7618],[77.1372,11.772],[77.1897,11.7828],[77.2271,11.7837],[77.2417,11.8025],[77.2783,11.7897],[77.2848,11.7984],[77.3261,11.7589],[77.3457,11.7641],[77.3552,11.7784],[77.3819,11.7762],[77.4125,11.7623],[77.4311,11.7717],[77.4563,11.8391],[77.4539,11.8906],[77.476,11.8896],[77.4904,11.9297],[77.5237,11.9215],[77.548,11.9307],[77.5733,11.924],[77.6367,11.9403],[77.6647,11.9397],[77.6637,11.953],[77.6895,12.0099],[77.7204,12.0534],[77.7461,12.0693],[77.767,12.1091],[77.7402,12.1293],[77.7391,12.1479],[77.7264,12.1673],[77.6554,12.1877],[77.6289,12.1863],[77.6041,12.1952],[77.5558,12.1871],[77.5385,12.1945],[77.5113,12.184],[77.4825,12.1901],[77.4657,12.2023],[77.4737,12.2249],[77.463,12.2358],[77.4388,12.2416],[77.426,12.2731],[77.4111,12.2789],[77.389,12.2697],[77.331,12.2743],[77.3133,12.2986]]]},"properties":{"NAME_1":"Karnataka","NAME_2":"Chamrajnagar"}},{"type":"Feature","geometry":{"type":"Polygon","coordinates":[[[76.3499,13.5719],[76.3303,13.5885],[76.2999,13.5823],[76.2758,13.5996],[76.283,13.6404],[76.2624,13.6421],[76.2327,13.6724],[76.2191,13.6732],[76.2171,13.706],[76.1706,13.7086],[76.1482,13.7243],[76.1308,13.7813],[76.1277,13.8073],[76.1132,13.8064],[76.0957,13.8584],[76.0777,13.8735],[76.0546,13.8757],[76.0478,13.8945],[76.0315,13.8909],[76.0285,13.8644],[76.0068,13.8621],[75.9873,13.8424],[75.9691,13.85],[75.948,13.8279],[75.9417,13.8079],[75.8938,13.8009],[75.823,13.8126],[75.8052,13.7895],[75.7764,13.7842],[75.7589,13.7886],[75.7317,13.7645],[75.6692,13.7588],[75.6424,13.7003],[75.6227,13.7008],[75.6266,13.7289],[75.6053,13.7563],[75.5768,13.7542],[75.5634,13.737],[75.5353,13.7269],[75.5171,13.7486],[75.4884,13.7558],[75.4618,13.7385],[75.4556,13.7202],[75.3942,13.6961],[75.4146,13.6497],[75.407,13.6277],[75.379,13.6124],[75.3416,13.5831],[75.3264,13.5891],[75.296,13.5804],[75.2771,13.5599],[75.244,13.6013],[75.223,13.5999],[75.212,13.5814],[75.2262,13.5662],[75.2243,13.5236],[75.2031,13.5084],[75.1707,13.5023],[75.138,13.4704],[75.1407,13.4591],[75.1551,13.4448],[75.1512,13.4169],[75.1327,13.3879],[75.1275,13.365],[75.1133,13.3539],[75.0919,13.3581],[75.0807,13.3404],[75.1155,13.2803],[75.1388,13.2857],[75.1517,13.2647],[75.1761,13.1974],[75.1997,13.1741],[75.2105,13.1535],[75.2534,13.1243],[75.3098,13.1277],[75.3237,13.1431],[75.3285,13.1658],[75.3513,13.1788],[75.3761,13.1768],[75.4087,13.1424],[75.4098,13.1113],[75.4327,13.1154],[75.4858,13.0876],[75.5113,13.0637],[75.524,13.0435],[75.5191,13.024],[75.5294,12.9955],[75.5139,12.9758],[75.5529,12.9399],[75.5549,12.91],[75.5752,12.934],[75.596,12.939],[75.6015,12.9642],[75.6437,13.0268],[75.7086,13.0307],[75.7376,13.0256],[75.7403,13.0641],[75.7273,13.0862],[75.7329,13.1175],[75.7507,13.1339],[75.7339,13.1474],[75.7279,13.1761],[75.7519,13.2083],[75.7776,13.2036],[75.8066,13.2125],[75.8067,13.2481],[75.8328,13.2452],[75.8932,13.2587],[75.9326,13.2496],[75.9809,13.256],[76.0111,13.2539],[76.0354,13.2409],[76.04,13.2664],[76.0298,13.3411],[76.0372,13.366],[76.0522,13.374],[76.0857,13.3661],[76.0873,13.3871],[76.1371,13.4017],[76.1384,13.4302],[76.1586,13.4643],[76.2271,13.4615],[76.2333,13.5015],[76.287,13.4983],[76.3124,13.5278],[76.3356,13.507],[76.3584,13.5242],[76.3598,13.5403],[76.3499,13.5719]]]},"properties":{"NAME_1":"Karnataka","NAME_2":"Chikmagalur"}},{"type":"Feature","geometry":{"type":"Polygon","coordinates":[[[76.757,14.983],[76.7325,14.982],[76.7248,14.9991],[76.7303,15.028],[76.6998,15.0262],[76.7016,15.0139],[76.6696,15.0141],[76.6887,14.9733],[76.7142,14.9675],[76.7117,14.9378],[76.6959,14.9242],[76.658,14.9368],[76.662,14.9109],[76.6751,14.887],[76.6945,14.8839],[76.7105,14.8571],[76.7108,14.8345],[76.7347,14.8213],[76.7312,14.8063],[76.6985,14.8107],[76.6809,14.8014],[76.6628,14.769],[76.6467,14.7516],[76.6487,14.7212],[76.6354,14.7006],[76.6082,14.6815],[76.5957,14.6522],[76.6094,14.6441],[76.5966,14.6165],[76.5745,14.603],[76.5674,14.5881],[76.534,14.5606],[76.5079,14.5563],[76.5297,14.5302],[76.4804,14.4981],[76.4566,14.4962],[76.4567,14.4459],[76.4244,14.4426],[76.3806,14.4153],[76.3465,14.4131],[76.33,14.4016],[76.2757,14.4007],[76.2588,14.4368],[76.2367,14.4425],[76.2157,14.4373],[76.2023,14.4518],[76.173,14.4523],[76.1696,14.4406],[76.1355,14.4209],[76.1495,14.4014],[76.1543,14.379],[76.1487,14.3589],[76.1544,14.3148],[76.1181,14.317],[76.1085,14.3106],[76.1294,14.2499],[76.0776,14.2388],[76.0597,14.2149],[76.0592,14.154],[76.0313,14.1288],[76.0229,14.1028],[76.0529,14.0673],[76.0457,14.0473],[76.0473,14.0193],[76.0423,13.9811],[76.0698,13.975],[76.0652,13.9364],[76.0439,13.9351],[76.0287,13.9109],[76.0315,13.8909],[76.0478,13.8945],[76.0546,13.8757],[76.0777,13.8735],[76.0957,13.8584],[76.1132,13.8064],[76.1277,13.8073],[76.1308,13.7813],[76.1482,13.7243],[76.1706,13.7086],[76.2171,13.706],[76.2191,13.6732],[76.2327,13.6724],[76.2624,13.6421],[76.283,13.6404],[76.2758,13.5996],[76.2999,13.5823],[76.3303,13.5885],[76.3499,13.5719],[76.3721,13.5855],[76.4062,13.5729],[76.4569,13.5907],[76.4566,13.6108],[76.5073,13.6231],[76.5438,13.6666],[76.5744,13.6817],[76.5686,13.7071],[76.6085,13.7166],[76.6258,13.708],[76.6553,13.7145],[76.6815,13.6823],[76.6846,13.7371],[76.6933,13.7631],[76.7203,13.7899],[76.731,13.7771],[76.7586,13.773],[76.7645,13.7933],[76.762,13.8293],[76.7541,13.8347],[76.7182,13.8887],[76.7767,13.9172],[76.8096,13.9098],[76.8183,13.942],[76.8442,13.9561],[76.8437,13.972],[76.8199,13.9878],[76.8326,14.0087],[76.866,14.0028],[76.8773,14.011],[76.8871,14.0406],[76.9053,14.0547],[76.9217,14.0522],[76.929,14.0736],[76.9463,14.0853],[76.9429,14.1119],[76.9224,14.129],[76.9125,14.1221],[76.8837,14.131],[76.8914,14.159],[76.9172,14.1577],[76.9585,14.1755],[77.0198,14.1727],[76.9985,14.192],[77.0041,14.2316],[76.9825,14.2382],[76.9514,14.2342],[76.9378,14.2401],[76.9249,14.2722],[76.9438,14.2817],[76.9429,14.3054],[76.899,14.3192],[76.8786,14.3514],[76.8831,14.3903],[76.9131,14.4136],[76.9416,14.3995],[76.9438,14.4451],[76.9586,14.4454],[76.9734,14.4783],[76.9065,14.4842],[76.8803,14.4705],[76.8638,14.4747],[76.8439,14.5091],[76.7997,14.5277],[76.7782,14.5793],[76.7609,14.5963],[76.7713,14.6738],[76.7981,14.7346],[76.7803,14.7793],[76.8338,14.7849],[76.8401,14.83],[76.8517,14.8625],[76.8461,14.8903],[76.8603,14.8912],[76.8645,14.964],[76.8412,14.9612],[76.7638,14.9699],[76.757,14.983]]]},"properties":{"NAME_1":"Karnataka","NAME_2":"Chitradurga"}},{"type":"Feature","geometry":{"type":"Polygon","coordinates":[[[75.5549,12.91],[75.5529,12.9399],[75.5139,12.9758],[75.5294,12.9955],[75.5191,13.024],[75.524,13.0435],[75.5113,13.0637],[75.4858,13.0876],[75.4327,13.1154],[75.4098,13.1113],[75.4087,13.1424],[75.3761,13.1768],[75.3513,13.1788],[75.3285,13.1658],[75.3237,13.1431],[75.3098,13.1277],[75.2534,13.1243],[75.2105,13.1535],[75.1997,13.1741],[75.1619,13.129],[75.1302,13.1303],[75.118,13.1046],[75.0991,13.0867],[75.0771,13.041],[75.0478,13.0162],[75.0307,13.0118],[75.0301,12.9933],[75.0145,12.9799],[74.9902,12.9848],[74.9995,13.0084],[74.9784,13.0229],[74.9654,13.0094],[74.9362,13.0107],[74.9356,13.0275],[74.8868,13.0398],[74.8915,13.0915],[74.8749,13.0932],[74.8642,13.1221],[74.816,13.1178],[74.8087,13.1098],[74.8059,13.1108],[74.7966,13.1122],[74.7998,13.1009],[74.7962,13.0937],[74.7877,13.1006],[74.7813,13.0993],[74.7807,13.0991],[74.7799,13.0935],[74.7824,13.0882],[74.7785,13.0782],[74.7821,13.0637],[74.779,13.0543],[74.7974,12.9732],[74.8213,12.8529],[74.8288,12.8465],[74.8451,12.7976],[74.8671,12.7545],[74.8945,12.7561],[74.9542,12.7793],[74.9707,12.7726],[75.0053,12.7855],[75.0086,12.7604],[74.9918,12.7382],[75.0031,12.7137],[75.0497,12.7147],[75.0447,12.6874],[75.0478,12.6601],[75.0831,12.6664],[75.085,12.6897],[75.1044,12.6916],[75.1127,12.6759],[75.1445,12.6729],[75.1613,12.6641],[75.1503,12.6419],[75.1549,12.6196],[75.1826,12.6274],[75.2014,12.6251],[75.214,12.5734],[75.2382,12.5641],[75.2767,12.6117],[75.3015,12.5991],[75.3162,12.5687],[75.2914,12.5749],[75.2709,12.5535],[75.2811,12.5181],[75.3047,12.5173],[75.3043,12.4975],[75.3206,12.4913],[75.3356,12.485],[75.3405,12.4646],[75.3409,12.456],[75.3556,12.458],[75.373,12.4772],[75.3772,12.4864],[75.3811,12.4915],[75.3866,12.4919],[75.3973,12.4978],[75.4042,12.4896],[75.4145,12.4967],[75.4339,12.5232],[75.4697,12.4927],[75.4628,12.4669],[75.489,12.455],[75.4938,12.4772],[75.5263,12.4925],[75.5547,12.4959],[75.5898,12.5319],[75.6026,12.5068],[75.6149,12.5052],[75.6417,12.5327],[75.6695,12.5496],[75.6512,12.6163],[75.64,12.6244],[75.6459,12.6613],[75.6699,12.6952],[75.6351,12.6909],[75.6569,12.7452],[75.6404,12.7562],[75.6202,12.7904],[75.6119,12.7931],[75.6207,12.8521],[75.5936,12.8714],[75.5626,12.8689],[75.5549,12.91]]]},"properties":{"NAME_1":"Karnataka","NAME_2":"Dakshin Kannad"}},{"type":"Feature","geometry":{"type":"Polygon","coordinates":[[[76.5079,14.5563],[76.4978,14.5621],[76.4219,14.5764],[76.4294,14.614],[76.3915,14.6229],[76.3886,14.6442],[76.3744,14.6589],[76.3419,14.6616],[76.3362,14.6813],[76.321,14.6876],[76.2755,14.6821],[76.2472,14.6893],[76.229,14.6442],[76.1847,14.6962],[76.1983,14.7241],[76.2005,14.7461],[76.1682,14.7806],[76.152,14.7811],[76.143,14.8052],[76.1573,14.8256],[76.1943,14.8153],[76.1886,14.8425],[76.156,14.8435],[76.1547,14.8559],[76.1258,14.8653],[76.073,14.8641],[76.0659,14.8791],[76.0789,14.8955],[76.0509,14.914],[75.996,14.894],[75.9707,14.9031],[75.8996,14.8784],[75.8864,14.8655],[75.8546,14.8597],[75.8566,14.8781],[75.8273,14.8939],[75.8031,14.8701],[75.8182,14.8324],[75.8362,14.8018],[75.8277,14.7784],[75.8,14.7652],[75.7722,14.7888],[75.7604,14.7734],[75.7565,14.7344],[75.7605,14.7138],[75.7431,14.6995],[75.7395,14.6808],[75.7706,14.67],[75.7933,14.6778],[75.8114,14.6471],[75.8044,14.595],[75.8179,14.5577],[75.7966,14.5282],[75.7949,14.5043],[75.7721,14.5135],[75.7537,14.5094],[75.721,14.4724],[75.7076,14.469],[75.6874,14.4856],[75.6698,14.4562],[75.6357,14.4599],[75.6297,14.4386],[75.6411,14.4264],[75.6377,14.4016],[75.6237,14.3615],[75.6222,14.3326],[75.6322,14.3095],[75.6092,14.31],[75.6023,14.289],[75.5791,14.2723],[75.5361,14.2729],[75.5275,14.2495],[75.5284,14.2057],[75.5078,14.2124],[75.4788,14.2105],[75.4532,14.1997],[75.4853,14.1699],[75.4608,14.1691],[75.4259,14.1438],[75.4004,14.1103],[75.4516,14.0907],[75.4721,14.0969],[75.5159,14.0921],[75.5855,14.0529],[75.6116,14.0549],[75.6173,14.0715],[75.6351,14.0742],[75.6698,14.0611],[75.7218,14.07],[75.7254,14.0497],[75.7022,14.0488],[75.6812,14.0283],[75.6719,14.0063],[75.6817,13.9736],[75.7077,13.9391],[75.7117,13.9107],[75.6743,13.9072],[75.6504,13.8633],[75.6103,13.8391],[75.6043,13.8161],[75.6053,13.7563],[75.6266,13.7289],[75.6227,13.7008],[75.6424,13.7003],[75.6692,13.7588],[75.7317,13.7645],[75.7589,13.7886],[75.7764,13.7842],[75.8052,13.7895],[75.823,13.8126],[75.8938,13.8009],[75.9417,13.8079],[75.948,13.8279],[75.9691,13.85],[75.9873,13.8424],[76.0068,13.8621],[76.0285,13.8644],[76.0315,13.8909],[76.0287,13.9109],[76.0439,13.9351],[76.0652,13.9364],[76.0698,13.975],[76.0423,13.9811],[76.0473,14.0193],[76.0457,14.0473],[76.0529,14.0673],[76.0229,14.1028],[76.0313,14.1288],[76.0592,14.154],[76.0597,14.2149],[76.0776,14.2388],[76.1294,14.2499],[76.1085,14.3106],[76.1181,14.317],[76.1544,14.3148],[76.1487,14.3589],[76.1543,14.379],[76.1495,14.4014],[76.1355,14.4209],[76.1696,14.4406],[76.173,14.4523],[76.2023,14.4518],[76.2157,14.4373],[76.2367,14.4425],[76.2588,14.4368],[76.2757,14.4007],[76.33,14.4016],[76.3465,14.4131],[76.3806,14.4153],[76.4244,14.4426],[76.4567,14.4459],[76.4566,14.4962],[76.4804,14.4981],[76.5297,14.5302],[76.5079,14.5563]]]},"properties":{"NAME_1":"Karnataka","NAME_2":"Davanagere"}},{"type":"Feature","geometry":{"type":"Polygon","coordinates":[[[75.4199,15.0568],[75.4196,15.0829],[75.4365,15.1026],[75.4035,15.1705],[75.4029,15.1953],[75.4356,15.1952],[75.45,15.2047],[75.4428,15.223],[75.4267,15.2215],[75.4195,15.2577],[75.4058,15.2694],[75.4163,15.2975],[75.4524,15.2986],[75.4513,15.3258],[75.4599,15.3455],[75.4472,15.3821],[75.4707,15.383],[75.494,15.369],[75.4995,15.4223],[75.4961,15.4678],[75.4741,15.4901],[75.4777,15.5177],[75.487,15.5278],[75.5328,15.5354],[75.5362,15.5873],[75.5517,15.613],[75.5573,15.6445],[75.5051,15.6454],[75.4906,15.6993],[75.4719,15.6987],[75.4686,15.6796],[75.4281,15.6679],[75.4152,15.6528],[75.3663,15.6661],[75.3627,15.6432],[75.3386,15.6453],[75.3388,15.6715],[75.2978,15.6886],[75.2809,15.6863],[75.2753,15.6477],[75.2529,15.6437],[75.2396,15.6767],[75.205,15.6791],[75.2055,15.6472],[75.1734,15.6588],[75.1453,15.6568],[75.1098,15.6691],[75.1012,15.6241],[75.0849,15.6195],[75.0599,15.6287],[75.0672,15.6674],[75.0333,15.6662],[75.0179,15.6422],[74.9708,15.6489],[74.9672,15.6228],[74.9361,15.6199],[74.894,15.6273],[74.8823,15.6143],[74.846,15.6043],[74.8444,15.5718],[74.802,15.5434],[74.8174,15.5006],[74.7912,15.482],[74.781,15.457],[74.7655,15.4671],[74.7509,15.492],[74.7314,15.4866],[74.7491,15.4589],[74.735,15.427],[74.7468,15.4089],[74.7865,15.3913],[74.803,15.3742],[74.825,15.3812],[74.8301,15.3407],[74.863,15.3267],[74.9022,15.2962],[74.9124,15.2479],[74.8767,15.2102],[74.8805,15.1904],[74.8536,15.1663],[74.8324,15.1305],[74.8466,15.1238],[74.8621,15.1008],[74.8859,15.0966],[74.8845,15.0811],[74.8964,15.0419],[74.9429,15.0489],[74.9436,15.0633],[75.0254,15.0658],[75.0588,15.0778],[75.0838,15.0695],[75.0826,15.1067],[75.1171,15.1129],[75.1106,15.1352],[75.1579,15.142],[75.1404,15.114],[75.1447,15.0967],[75.1938,15.0934],[75.2291,15.0959],[75.3123,15.1368],[75.3114,15.1514],[75.3398,15.1563],[75.344,15.062],[75.3701,15.044],[75.4199,15.0568]]]},"properties":{"NAME_1":"Karnataka","NAME_2":"Dharwad"}},{"type":"Feature","geometry":{"type":"Polygon","coordinates":[[[75.8457,15.8347],[75.8082,15.8473],[75.7786,15.8474],[75.78,15.8144],[75.7459,15.8105],[75.7118,15.8256],[75.6954,15.8229],[75.6641,15.8337],[75.6578,15.8243],[75.6214,15.8324],[75.5409,15.8296],[75.5231,15.8391],[75.502,15.867],[75.4779,15.8698],[75.457,15.8838],[75.4616,15.8138],[75.4396,15.7769],[75.4177,15.7809],[75.4293,15.8397],[75.3952,15.8352],[75.3793,15.8404],[75.3671,15.8021],[75.306,15.8082],[75.307,15.7641],[75.3195,15.7623],[75.316,15.7285],[75.2945,15.7249],[75.2776,15.7366],[75.2809,15.6863],[75.2978,15.6886],[75.3388,15.6715],[75.3386,15.6453],[75.3627,15.6432],[75.3663,15.6661],[75.4152,15.6528],[75.4281,15.6679],[75.4686,15.6796],[75.4719,15.6987],[75.4906,15.6993],[75.5051,15.6454],[75.5573,15.6445],[75.5517,15.613],[75.5362,15.5873],[75.5328,15.5354],[75.487,15.5278],[75.4777,15.5177],[75.4741,15.4901],[75.4961,15.4678],[75.4995,15.4223],[75.494,15.369],[75.4707,15.383],[75.4472,15.3821],[75.4599,15.3455],[75.4513,15.3258],[75.4524,15.2986],[75.4163,15.2975],[75.4058,15.2694],[75.4195,15.2577],[75.4267,15.2215],[75.4428,15.223],[75.45,15.2047],[75.4356,15.1952],[75.4029,15.1953],[75.4035,15.1705],[75.4365,15.1026],[75.4196,15.0829],[75.4199,15.0568],[75.4534,15.057],[75.4639,15.0398],[75.4997,15.0433],[75.5395,15.0231],[75.5447,14.9746],[75.5693,14.9743],[75.6005,14.9512],[75.6115,14.9685],[75.634,14.9817],[75.6707,14.9827],[75.6915,14.9704],[75.7018,14.9442],[75.7432,14.9404],[75.761,14.9625],[75.7804,14.9731],[75.7855,14.9961],[75.8099,15.0197],[75.8318,15.0234],[75.84,15.0372],[75.8669,15.0296],[75.8822,15.0465],[75.9065,15.0545],[75.9099,15.0717],[75.8848,15.0932],[75.9046,15.1276],[75.9313,15.137],[75.9495,15.1333],[75.9479,15.1617],[75.9251,15.1774],[75.9121,15.2348],[75.9042,15.2336],[75.8894,15.2843],[75.8914,15.3309],[75.9016,15.3498],[75.9029,15.3988],[75.8654,15.4041],[75.8593,15.441],[75.8254,15.4466],[75.8109,15.4724],[75.8182,15.5047],[75.8597,15.5103],[75.8677,15.558],[75.8679,15.5915],[75.8989,15.6035],[75.8863,15.6313],[75.8863,15.6677],[75.8722,15.6702],[75.8713,15.7122],[75.8878,15.7157],[75.8972,15.7466],[75.9202,15.7246],[75.9154,15.6979],[75.9404,15.6898],[75.9445,15.6745],[75.968,15.6616],[76.011,15.6602],[75.9823,15.6875],[76.0066,15.7134],[76.0245,15.7068],[76.0453,15.7218],[76.0394,15.7652],[76.0101,15.7795],[75.9956,15.7772],[75.9891,15.7989],[75.9631,15.781],[75.9272,15.7897],[75.8761,15.8235],[75.8457,15.8347]]]},"properties":{"NAME_1":"Karnataka","NAME_2":"Gadag"}},{"type":"Feature","geometry":{"type":"Polygon","coordinates":[[[76.6906,17.68],[76.6631,17.6879],[76.6552,17.7164],[76.6307,17.729],[76.627,17.756],[76.6041,17.7558],[76.5988,17.728],[76.587,17.7079],[76.5694,17.7037],[76.5681,17.7398],[76.5598,17.7631],[76.5237,17.7589],[76.5236,17.7152],[76.4864,17.7135],[76.4846,17.6696],[76.4287,17.6444],[76.4157,17.6042],[76.3317,17.5949],[76.34,17.5426],[76.3609,17.5363],[76.3664,17.5167],[76.3463,17.5115],[76.35,17.4721],[76.3308,17.4688],[76.3337,17.4323],[76.3732,17.4344],[76.362,17.3751],[76.4081,17.3693],[76.4106,17.3477],[76.393,17.3363],[76.3817,17.3118],[76.3523,17.3106],[76.3436,17.3499],[76.313,17.3433],[76.3172,17.3294],[76.2759,17.3305],[76.2702,17.3565],[76.229,17.3632],[76.1829,17.3565],[76.1631,17.3409],[76.1212,17.3663],[76.102,17.3623],[76.0735,17.3323],[76.0666,17.3075],[76.0901,17.2953],[76.0979,17.2816],[76.0903,17.2542],[76.1247,17.2429],[76.1951,17.1808],[76.2194,17.1821],[76.2438,17.1469],[76.2546,17.1449],[76.282,17.1632],[76.3229,17.1658],[76.3544,17.1831],[76.3653,17.1736],[76.3632,17.1145],[76.3838,17.0967],[76.3975,17.0693],[76.4286,17.097],[76.4289,17.0263],[76.437,17.0043],[76.4341,16.9778],[76.3995,16.9734],[76.4,16.9322],[76.4179,16.9239],[76.4355,16.939],[76.4579,16.9218],[76.4611,16.8962],[76.434,16.8953],[76.4368,16.8647],[76.4579,16.8632],[76.4688,16.8367],[76.4299,16.835],[76.4282,16.8453],[76.3737,16.8561],[76.3571,16.8355],[76.3537,16.8162],[76.3776,16.7983],[76.3708,16.7648],[76.4341,16.7602],[76.4395,16.7389],[76.4192,16.7127],[76.437,16.704],[76.4037,16.645],[76.4082,16.6104],[76.4163,16.5963],[76.4229,16.5472],[76.4344,16.5083],[76.4301,16.4969],[76.4358,16.4319],[76.4028,16.4289],[76.3826,16.4193],[76.3326,16.421],[76.3327,16.3866],[76.3093,16.3918],[76.3051,16.3734],[76.3148,16.3418],[76.2929,16.3215],[76.304,16.3125],[76.301,16.2803],[76.3208,16.282],[76.3469,16.2709],[76.3447,16.2429],[76.3529,16.2227],[76.3279,16.1879],[76.3452,16.1931],[76.3685,16.2127],[76.4054,16.232],[76.4167,16.2469],[76.477,16.2869],[76.5132,16.2961],[76.5446,16.3117],[76.5784,16.3371],[76.603,16.3361],[76.6461,16.3554],[76.6686,16.3708],[76.7447,16.4087],[76.7597,16.4239],[76.7829,16.4129],[76.8453,16.43],[76.8797,16.4896],[76.9095,16.4823],[76.9671,16.5016],[76.9736,16.5101],[76.9694,16.5496],[76.9969,16.5552],[77.0079,16.5419],[77.0035,16.5123],[77.0234,16.4981],[77.0555,16.514],[77.1115,16.4785],[77.1418,16.4745],[77.1607,16.4576],[77.1675,16.4312],[77.2399,16.4127],[77.2639,16.3981],[77.2847,16.403],[77.2644,16.4301],[77.2515,16.4679],[77.292,16.4736],[77.2966,16.4915],[77.3244,16.4809],[77.3663,16.4841],[77.3812,16.5115],[77.4153,16.5178],[77.421,16.5652],[77.4367,16.5812],[77.4564,16.581],[77.4539,16.6074],[77.4713,16.6435],[77.4614,16.6488],[77.4329,16.6376],[77.4166,16.6628],[77.465,16.6783],[77.4688,16.7087],[77.4234,16.7145],[77.4372,16.7631],[77.4353,16.7776],[77.4673,16.7766],[77.4718,16.7963],[77.4566,16.8237],[77.4604,16.8441],[77.4534,16.909],[77.4677,16.9171],[77.4641,16.9527],[77.4792,16.968],[77.4784,16.9902],[77.4994,17.0073],[77.4932,17.033],[77.4781,17.061],[77.4626,17.1041],[77.4037,17.1232],[77.3763,17.1379],[77.36,17.1616],[77.3708,17.1901],[77.3915,17.1924],[77.3804,17.2198],[77.4545,17.2759],[77.434,17.2883],[77.4496,17.3149],[77.4564,17.345],[77.4516,17.3705],[77.4753,17.3682],[77.4826,17.3545],[77.5208,17.3621],[77.5213,17.3863],[77.5336,17.3988],[77.5107,17.4125],[77.5101,17.4273],[77.5335,17.441],[77.5726,17.4295],[77.5732,17.4542],[77.6106,17.4442],[77.6109,17.4699],[77.6481,17.4812],[77.684,17.4729],[77.6856,17.5056],[77.6566,17.5213],[77.6212,17.5223],[77.5917,17.5327],[77.5854,17.5584],[77.5484,17.5495],[77.5274,17.5732],[77.5016,17.5409],[77.49,17.5663],[77.4399,17.5815],[77.3754,17.5808],[77.3751,17.5938],[77.3469,17.5987],[77.3378,17.5874],[77.2978,17.5952],[77.2741,17.6244],[77.2276,17.6298],[77.1879,17.6133],[77.1518,17.6264],[77.1301,17.6599],[77.1321,17.6779],[77.1138,17.6826],[77.086,17.6576],[77.0525,17.668],[77.0357,17.6659],[76.9928,17.6933],[76.9787,17.6857],[76.9783,17.6476],[76.9577,17.6344],[76.9376,17.6057],[76.9178,17.615],[76.9266,17.6327],[76.8347,17.6495],[76.7694,17.6449],[76.768,17.6642],[76.7325,17.6642],[76.7157,17.6377],[76.6971,17.6439],[76.6906,17.68]]]},"properties":{"NAME_1":"Karnataka","NAME_2":"Gulbarga"}},{"type":"Feature","geometry":{"type":"Polygon","coordinates":[[[76.6258,12.999],[76.6025,13.002],[76.5976,13.036],[76.6113,13.0567],[76.5277,13.0709],[76.5118,13.0621],[76.4952,13.0783],[76.4632,13.0891],[76.4709,13.1345],[76.4521,13.1394],[76.4477,13.157],[76.4223,13.1781],[76.3903,13.1908],[76.3675,13.1925],[76.3754,13.225],[76.3517,13.2443],[76.3511,13.2796],[76.3435,13.2956],[76.3477,13.3181],[76.3419,13.3539],[76.3773,13.3576],[76.3886,13.3803],[76.3961,13.4141],[76.4137,13.4414],[76.403,13.4528],[76.4101,13.4714],[76.3933,13.4852],[76.4224,13.5175],[76.3972,13.5182],[76.3598,13.5403],[76.3584,13.5242],[76.3356,13.507],[76.3124,13.5278],[76.287,13.4983],[76.2333,13.5015],[76.2271,13.4615],[76.1586,13.4643],[76.1384,13.4302],[76.1371,13.4017],[76.0873,13.3871],[76.0857,13.3661],[76.0522,13.374],[76.0372,13.366],[76.0298,13.3411],[76.04,13.2664],[76.0354,13.2409],[76.0111,13.2539],[75.9809,13.256],[75.9326,13.2496],[75.8932,13.2587],[75.8328,13.2452],[75.8067,13.2481],[75.8066,13.2125],[75.7776,13.2036],[75.7519,13.2083],[75.7279,13.1761],[75.7339,13.1474],[75.7507,13.1339],[75.7329,13.1175],[75.7273,13.0862],[75.7403,13.0641],[75.7376,13.0256],[75.7086,13.0307],[75.6437,13.0268],[75.6015,12.9642],[75.596,12.939],[75.5752,12.934],[75.5549,12.91],[75.5626,12.8689],[75.5936,12.8714],[75.6207,12.8521],[75.6119,12.7931],[75.6202,12.7904],[75.6404,12.7562],[75.6569,12.7452],[75.6351,12.6909],[75.6699,12.6952],[75.704,12.703],[75.729,12.6941],[75.7591,12.6696],[75.7746,12.683],[75.8084,12.6945],[75.8357,12.663],[75.8836,12.6709],[75.8836,12.6994],[75.8533,12.7172],[75.8511,12.7445],[75.8704,12.7744],[75.8617,12.8147],[75.8735,12.8267],[75.9025,12.8106],[75.9246,12.8131],[75.9667,12.7904],[75.949,12.7579],[75.9353,12.7555],[75.9331,12.7281],[75.9404,12.7107],[75.9626,12.6944],[75.9355,12.6386],[75.9454,12.6202],[75.9387,12.5963],[75.9623,12.5528],[75.9745,12.5537],[75.9934,12.5775],[76.0162,12.5606],[76.0437,12.5667],[76.0959,12.5227],[76.1271,12.5198],[76.1483,12.5385],[76.1633,12.5726],[76.1881,12.5678],[76.2044,12.6229],[76.2234,12.6369],[76.264,12.6125],[76.3061,12.6145],[76.3394,12.6496],[76.357,12.6829],[76.3593,12.7038],[76.3391,12.7257],[76.3522,12.746],[76.3401,12.7593],[76.3272,12.7915],[76.3333,12.8064],[76.3652,12.8141],[76.3848,12.8392],[76.4061,12.8394],[76.4222,12.8188],[76.4402,12.8159],[76.464,12.7884],[76.4719,12.7657],[76.4883,12.7808],[76.4871,12.8014],[76.5166,12.8347],[76.5707,12.8412],[76.5765,12.8657],[76.5952,12.8956],[76.5993,12.9302],[76.6262,12.9652],[76.6258,12.999]]]},"properties":{"NAME_1":"Karnataka","NAME_2":"Hassan"}},{"type":"Feature","geometry":{"type":"Polygon","coordinates":[[[75.4199,15.0568],[75.3701,15.044],[75.344,15.062],[75.3398,15.1563],[75.3114,15.1514],[75.3123,15.1368],[75.2291,15.0959],[75.1938,15.0934],[75.1447,15.0967],[75.1404,15.114],[75.1579,15.142],[75.1106,15.1352],[75.1171,15.1129],[75.0826,15.1067],[75.0838,15.0695],[75.0721,15.0127],[75.089,14.9533],[75.1033,14.9519],[75.1061,14.9228],[75.0731,14.9149],[75.078,14.8465],[75.0736,14.7765],[75.0448,14.7656],[75.0504,14.7434],[75.0347,14.7035],[75.0343,14.669],[75.0535,14.6453],[75.0772,14.6501],[75.1034,14.6451],[75.1465,14.616],[75.1689,14.6296],[75.2091,14.6111],[75.211,14.5704],[75.2324,14.5773],[75.2666,14.5756],[75.298,14.5348],[75.2705,14.5218],[75.2774,14.5062],[75.3215,14.5076],[75.3481,14.4792],[75.3448,14.4306],[75.382,14.4278],[75.3789,14.4063],[75.3572,14.4018],[75.3497,14.3837],[75.3713,14.3662],[75.3921,14.3627],[75.4285,14.345],[75.4774,14.313],[75.4815,14.3364],[75.4996,14.3394],[75.5027,14.3027],[75.5198,14.2969],[75.5361,14.2729],[75.5791,14.2723],[75.6023,14.289],[75.6092,14.31],[75.6322,14.3095],[75.6222,14.3326],[75.6237,14.3615],[75.6377,14.4016],[75.6411,14.4264],[75.6297,14.4386],[75.6357,14.4599],[75.6698,14.4562],[75.6874,14.4856],[75.7076,14.469],[75.721,14.4724],[75.7537,14.5094],[75.7721,14.5135],[75.7949,14.5043],[75.7966,14.5282],[75.8179,14.5577],[75.8044,14.595],[75.8114,14.6471],[75.7933,14.6778],[75.7706,14.67],[75.7395,14.6808],[75.7431,14.6995],[75.7605,14.7138],[75.7565,14.7344],[75.717,14.7141],[75.7023,14.7257],[75.7217,14.7488],[75.7237,14.7646],[75.6877,14.782],[75.6657,14.8044],[75.6899,14.8502],[75.7147,14.8481],[75.7336,14.8598],[75.7387,14.8835],[75.7287,14.8933],[75.697,14.8882],[75.6845,14.9262],[75.7018,14.9442],[75.6915,14.9704],[75.6707,14.9827],[75.634,14.9817],[75.6115,14.9685],[75.6005,14.9512],[75.5693,14.9743],[75.5447,14.9746],[75.5395,15.0231],[75.4997,15.0433],[75.4639,15.0398],[75.4534,15.057],[75.4199,15.0568]]]},"properties":{"NAME_1":"Karnataka","NAME_2":"Haveri"}},{"type":"Feature","geometry":{"type":"Polygon","coordinates":[[[76.0162,12.5606],[75.9934,12.5775],[75.9745,12.5537],[75.9623,12.5528],[75.9387,12.5963],[75.9454,12.6202],[75.9355,12.6386],[75.9626,12.6944],[75.9404,12.7107],[75.9331,12.7281],[75.9353,12.7555],[75.949,12.7579],[75.9667,12.7904],[75.9246,12.8131],[75.9025,12.8106],[75.8735,12.8267],[75.8617,12.8147],[75.8704,12.7744],[75.8511,12.7445],[75.8533,12.7172],[75.8836,12.6994],[75.8836,12.6709],[75.8357,12.663],[75.8084,12.6945],[75.7746,12.683],[75.7591,12.6696],[75.729,12.6941],[75.704,12.703],[75.6699,12.6952],[75.6459,12.6613],[75.64,12.6244],[75.6512,12.6163],[75.6695,12.5496],[75.6417,12.5327],[75.6149,12.5052],[75.6026,12.5068],[75.5898,12.5319],[75.5547,12.4959],[75.5263,12.4925],[75.4938,12.4772],[75.489,12.455],[75.4628,12.4669],[75.4697,12.4927],[75.4339,12.5232],[75.4145,12.4967],[75.4243,12.4663],[75.4147,12.4541],[75.4035,12.4476],[75.3919,12.4451],[75.3666,12.4517],[75.3694,12.4456],[75.3656,12.407],[75.3786,12.3867],[75.3943,12.3798],[75.4011,12.3757],[75.4034,12.3726],[75.4189,12.3695],[75.4214,12.3619],[75.4143,12.3439],[75.4112,12.3378],[75.4231,12.3081],[75.4304,12.2995],[75.4191,12.2864],[75.4307,12.292],[75.4414,12.29],[75.4672,12.2954],[75.4925,12.2668],[75.494,12.2651],[75.5039,12.2632],[75.5111,12.2533],[75.5131,12.2493],[75.5193,12.2359],[75.5199,12.2332],[75.5234,12.2289],[75.5253,12.2196],[75.538,12.2068],[75.533,12.1991],[75.5404,12.1924],[75.5439,12.192],[75.5511,12.1844],[75.5638,12.1668],[75.5827,12.1504],[75.5914,12.143],[75.5947,12.1454],[75.6081,12.1487],[75.6269,12.1451],[75.6294,12.1416],[75.6368,12.1404],[75.6425,12.1308],[75.6624,12.0912],[75.6727,12.0907],[75.692,12.1026],[75.7003,12.088],[75.7065,12.0828],[75.7142,12.0692],[75.7171,12.0621],[75.763,12.0786],[75.7953,12.0742],[75.8,12.0303],[75.8275,12.0028],[75.8244,11.9843],[75.8511,11.957],[75.8767,11.9407],[75.9252,11.9329],[75.9484,11.9339],[75.9763,11.925],[76.0296,11.9328],[76.0728,11.9613],[76.1079,11.9706],[76.1228,11.9776],[76.1564,12.0165],[76.1726,12.0203],[76.1831,12.0458],[76.1738,12.0622],[76.165,12.1119],[76.1387,12.1502],[76.1277,12.1863],[76.0961,12.1923],[76.0569,12.2437],[76.0179,12.2457],[76.0106,12.2831],[75.995,12.2996],[75.995,12.3191],[75.957,12.3392],[75.9069,12.396],[75.9262,12.4315],[75.9687,12.4462],[75.9575,12.4804],[75.9595,12.4971],[75.9851,12.5299],[76.0162,12.5606]]]},"properties":{"NAME_1":"Karnataka","NAME_2":"Kodagu"}},{"type":"Feature","geometry":{"type":"Polygon","coordinates":[[[78.1182,13.7769],[78.1077,13.8036],[78.1173,13.8218],[78.106,13.8535],[78.0749,13.8549],[78.0709,13.872],[78.0412,13.8867],[78.0378,13.8528],[77.9852,13.8617],[77.9658,13.8202],[77.9481,13.8248],[77.9418,13.8711],[77.9495,13.8845],[77.978,13.8933],[77.9735,13.9242],[77.9786,13.9477],[77.9613,13.95],[77.9508,13.9279],[77.9116,13.8972],[77.8897,13.9114],[77.887,13.9312],[77.8624,13.9268],[77.8142,13.931],[77.8064,13.9176],[77.821,13.8892],[77.8277,13.8606],[77.8028,13.8407],[77.7741,13.8317],[77.7692,13.8085],[77.7284,13.8017],[77.7129,13.7905],[77.711,13.7377],[77.6955,13.7614],[77.6685,13.7523],[77.6702,13.7775],[77.6491,13.7758],[77.6143,13.7603],[77.5815,13.7306],[77.5481,13.7204],[77.5395,13.7437],[77.5197,13.7438],[77.5278,13.707],[77.4797,13.7032],[77.4765,13.6776],[77.4498,13.6758],[77.4282,13.6652],[77.3948,13.665],[77.3765,13.653],[77.3552,13.6054],[77.3576,13.5853],[77.3761,13.5632],[77.377,13.5366],[77.3855,13.5246],[77.3794,13.4924],[77.4023,13.4893],[77.419,13.4645],[77.4379,13.4543],[77.4645,13.4608],[77.4977,13.4485],[77.5149,13.4253],[77.542,13.4266],[77.5473,13.4092],[77.5838,13.4127],[77.5956,13.4327],[77.6102,13.3931],[77.6072,13.3771],[77.6261,13.3665],[77.6324,13.3843],[77.6547,13.3703],[77.6514,13.347],[77.691,13.3268],[77.7111,13.3422],[77.7457,13.3529],[77.7836,13.3424],[77.7917,13.3298],[77.8194,13.3171],[77.8021,13.2526],[77.8133,13.2412],[77.8631,13.2235],[77.9409,13.238],[77.9569,13.2344],[77.9472,13.1921],[77.9534,13.1768],[77.9479,13.1154],[77.9142,13.1061],[77.8931,13.09],[77.9221,13.0643],[77.9066,13.0391],[77.8876,13.0433],[77.8786,13.0006],[77.8619,12.9672],[77.8658,12.9334],[77.8328,12.9142],[77.8543,12.9036],[77.845,12.8832],[77.8588,12.8576],[77.9144,12.8735],[77.9278,12.8505],[77.9153,12.8443],[77.9092,12.822],[77.933,12.8129],[77.9399,12.8293],[77.958,12.8363],[77.9813,12.8104],[77.9933,12.8137],[78.0222,12.8412],[78.0646,12.8302],[78.0865,12.8033],[78.1145,12.7871],[78.1207,12.77],[78.1581,12.7602],[78.1662,12.765],[78.2206,12.7526],[78.2295,12.762],[78.2419,12.8123],[78.2411,12.8474],[78.2626,12.8566],[78.3031,12.8472],[78.3165,12.8926],[78.3272,12.8892],[78.3454,12.9281],[78.3783,12.8952],[78.3884,12.9055],[78.4173,12.889],[78.4358,12.9007],[78.4214,12.9235],[78.4227,12.9686],[78.4579,12.9632],[78.4614,12.9791],[78.4504,13.0149],[78.4516,13.0315],[78.5046,13.0528],[78.4986,13.0698],[78.5138,13.0847],[78.5088,13.1196],[78.5354,13.1307],[78.5388,13.1516],[78.5691,13.1565],[78.5533,13.1892],[78.5599,13.2334],[78.5775,13.262],[78.5672,13.2718],[78.5288,13.2759],[78.5208,13.2556],[78.5012,13.2772],[78.4702,13.2939],[78.4664,13.3101],[78.436,13.2984],[78.4291,13.3171],[78.3913,13.3037],[78.3974,13.3323],[78.3552,13.3551],[78.3713,13.391],[78.3626,13.4521],[78.3673,13.4952],[78.3978,13.5662],[78.3803,13.5813],[78.3437,13.5778],[78.3125,13.5835],[78.2497,13.5743],[78.2277,13.5872],[78.2085,13.5819],[78.189,13.5564],[78.1795,13.5789],[78.1937,13.5949],[78.1939,13.6162],[78.1605,13.6234],[78.159,13.6452],[78.1462,13.6497],[78.08,13.6504],[78.0659,13.6645],[78.0641,13.6882],[78.0852,13.6806],[78.1054,13.6844],[78.1094,13.7102],[78.0849,13.7335],[78.1182,13.7769]]]},"properties":{"NAME_1":"Karnataka","NAME_2":"Kolar"}},{"type":"Feature","geometry":{"type":"Polygon","coordinates":[[[76.2842,15.8979],[76.2601,15.9011],[76.2564,15.9174],[76.2303,15.9173],[76.2272,15.9359],[76.2018,15.9375],[76.1929,15.9265],[76.1551,15.9081],[76.1453,15.8894],[76.1171,15.8816],[76.1015,15.8948],[76.0594,15.9015],[76.0735,15.9591],[76.0854,15.9892],[76.0802,16.0069],[76.0522,15.999],[76.0219,16.0046],[75.994,16.0007],[75.9753,15.9787],[75.9772,15.8638],[75.9446,15.8619],[75.9193,15.9032],[75.9032,15.9196],[75.8524,15.9325],[75.7739,15.9108],[75.7809,15.8945],[75.8247,15.8977],[75.8457,15.8347],[75.8761,15.8235],[75.9272,15.7897],[75.9631,15.781],[75.9891,15.7989],[75.9956,15.7772],[76.0101,15.7795],[76.0394,15.7652],[76.0453,15.7218],[76.0245,15.7068],[76.0066,15.7134],[75.9823,15.6875],[76.011,15.6602],[75.968,15.6616],[75.9445,15.6745],[75.9404,15.6898],[75.9154,15.6979],[75.9202,15.7246],[75.8972,15.7466],[75.8878,15.7157],[75.8713,15.7122],[75.8722,15.6702],[75.8863,15.6677],[75.8863,15.6313],[75.8989,15.6035],[75.8679,15.5915],[75.8677,15.558],[75.8597,15.5103],[75.8182,15.5047],[75.8109,15.4724],[75.8254,15.4466],[75.8593,15.441],[75.8654,15.4041],[75.9029,15.3988],[75.9016,15.3498],[75.8914,15.3309],[75.8894,15.2843],[75.9042,15.2336],[75.9121,15.2348],[75.9251,15.1774],[75.9479,15.1617],[75.9495,15.1333],[75.9774,15.1492],[76.0272,15.1394],[76.0584,15.1531],[76.1002,15.1626],[76.1087,15.1875],[76.1287,15.1987],[76.1573,15.1935],[76.1613,15.2123],[76.1862,15.231],[76.2305,15.2287],[76.2188,15.2021],[76.2291,15.1865],[76.2467,15.1872],[76.2794,15.2139],[76.2894,15.2371],[76.3087,15.2564],[76.3319,15.2588],[76.3504,15.3075],[76.3608,15.3213],[76.4048,15.3194],[76.4311,15.3343],[76.4785,15.3437],[76.4883,15.3381],[76.5462,15.3799],[76.5532,15.3898],[76.5889,15.4081],[76.609,15.4372],[76.6665,15.4459],[76.6999,15.4808],[76.7239,15.487],[76.7777,15.4884],[76.8096,15.5102],[76.8106,15.5422],[76.772,15.5528],[76.7541,15.5645],[76.7448,15.5861],[76.6875,15.5902],[76.6783,15.6025],[76.6918,15.6184],[76.6896,15.6412],[76.6514,15.6609],[76.5973,15.6688],[76.5853,15.6927],[76.5591,15.7013],[76.5295,15.6954],[76.5099,15.7116],[76.4812,15.71],[76.4419,15.7322],[76.4382,15.7801],[76.411,15.7983],[76.4425,15.8209],[76.4492,15.8473],[76.4197,15.8613],[76.4257,15.8841],[76.3932,15.8979],[76.3556,15.9024],[76.3076,15.8885],[76.2842,15.8979]]]},"properties":{"NAME_1":"Karnataka","NAME_2":"Koppal"}},{"type":"Feature","geometry":{"type":"Polygon","coordinates":[[[77.0732,12.7384],[77.0438,12.7399],[77.0354,12.7688],[77.0181,12.7538],[77.0028,12.7564],[76.9636,12.7951],[76.9178,12.797],[76.8845,12.8461],[76.8849,12.8821],[76.8619,12.8921],[76.8572,12.9206],[76.8336,12.9419],[76.8327,12.9644],[76.8452,12.9702],[76.8051,13.0035],[76.7809,13.0048],[76.7767,13.0201],[76.7559,13.0278],[76.6963,13.0325],[76.6678,13.0472],[76.6467,12.9998],[76.6258,12.999],[76.6262,12.9652],[76.5993,12.9302],[76.5952,12.8956],[76.5765,12.8657],[76.5707,12.8412],[76.5166,12.8347],[76.4871,12.8014],[76.4883,12.7808],[76.4719,12.7657],[76.464,12.7884],[76.4402,12.8159],[76.4222,12.8188],[76.4061,12.8394],[76.3848,12.8392],[76.3652,12.8141],[76.3333,12.8064],[76.3272,12.7915],[76.3401,12.7593],[76.3522,12.746],[76.3391,12.7257],[76.3593,12.7038],[76.357,12.6829],[76.3394,12.6496],[76.3606,12.6221],[76.3751,12.5682],[76.4074,12.5492],[76.435,12.5051],[76.4466,12.501],[76.4464,12.4766],[76.476,12.4645],[76.5286,12.4311],[76.5613,12.4176],[76.5504,12.3841],[76.555,12.3553],[76.5735,12.3418],[76.5928,12.358],[76.6179,12.3605],[76.6437,12.3884],[76.6759,12.3819],[76.674,12.3595],[76.6932,12.3429],[76.7121,12.3477],[76.7241,12.3334],[76.7253,12.312],[76.7449,12.2945],[76.756,12.3005],[76.7557,12.3276],[76.8039,12.3524],[76.8104,12.3787],[76.8281,12.3948],[76.8571,12.39],[76.8888,12.4008],[76.8998,12.4307],[76.9119,12.4339],[76.9286,12.3939],[76.9311,12.3463],[76.9157,12.3428],[76.9226,12.3162],[76.9689,12.3446],[76.978,12.3181],[76.9646,12.2818],[76.9839,12.2733],[76.9813,12.2532],[76.9911,12.2358],[77.0265,12.2255],[77.0663,12.2289],[77.0795,12.2106],[77.098,12.2122],[77.104,12.2342],[77.1608,12.2513],[77.157,12.3009],[77.2405,12.2987],[77.2627,12.3042],[77.2936,12.2897],[77.3133,12.2986],[77.3242,12.3446],[77.3052,12.3815],[77.2781,12.3835],[77.2604,12.4567],[77.2255,12.4637],[77.2306,12.4909],[77.2054,12.4778],[77.1696,12.4703],[77.1579,12.4741],[77.139,12.4536],[77.1156,12.477],[77.1245,12.4929],[77.1066,12.5451],[77.1219,12.5598],[77.1003,12.5933],[77.0921,12.633],[77.0919,12.6591],[77.0686,12.6706],[77.0659,12.6934],[77.0732,12.7384]]]},"properties":{"NAME_1":"Karnataka","NAME_2":"Mandya"}},{"type":"Feature","geometry":{"type":"Polygon","coordinates":[[[77.104,12.2342],[77.098,12.2122],[77.0795,12.2106],[77.0663,12.2289],[77.0265,12.2255],[76.9911,12.2358],[76.9813,12.2532],[76.9839,12.2733],[76.9646,12.2818],[76.978,12.3181],[76.9689,12.3446],[76.9226,12.3162],[76.9157,12.3428],[76.9311,12.3463],[76.9286,12.3939],[76.9119,12.4339],[76.8998,12.4307],[76.8888,12.4008],[76.8571,12.39],[76.8281,12.3948],[76.8104,12.3787],[76.8039,12.3524],[76.7557,12.3276],[76.756,12.3005],[76.7449,12.2945],[76.7253,12.312],[76.7241,12.3334],[76.7121,12.3477],[76.6932,12.3429],[76.674,12.3595],[76.6759,12.3819],[76.6437,12.3884],[76.6179,12.3605],[76.5928,12.358],[76.5735,12.3418],[76.555,12.3553],[76.5504,12.3841],[76.5613,12.4176],[76.5286,12.4311],[76.476,12.4645],[76.4464,12.4766],[76.4466,12.501],[76.435,12.5051],[76.4074,12.5492],[76.3751,12.5682],[76.3606,12.6221],[76.3394,12.6496],[76.3061,12.6145],[76.264,12.6125],[76.2234,12.6369],[76.2044,12.6229],[76.1881,12.5678],[76.1633,12.5726],[76.1483,12.5385],[76.1271,12.5198],[76.0959,12.5227],[76.0437,12.5667],[76.0162,12.5606],[75.9851,12.5299],[75.9595,12.4971],[75.9575,12.4804],[75.9687,12.4462],[75.9262,12.4315],[75.9069,12.396],[75.957,12.3392],[75.995,12.3191],[75.995,12.2996],[76.0106,12.2831],[76.0179,12.2457],[76.0569,12.2437],[76.0961,12.1923],[76.1277,12.1863],[76.1387,12.1502],[76.165,12.1119],[76.1738,12.0622],[76.1831,12.0458],[76.1726,12.0203],[76.1564,12.0165],[76.1228,11.9776],[76.1079,11.9706],[76.1081,11.8512],[76.1256,11.8448],[76.139,11.8571],[76.184,11.8638],[76.2034,11.8491],[76.2055,11.8196],[76.2185,11.8],[76.2444,11.7953],[76.2751,11.8008],[76.3,11.7762],[76.3105,11.7439],[76.335,11.7306],[76.356,11.7399],[76.3723,11.7362],[76.4077,11.7533],[76.4161,11.7984],[76.4542,11.7833],[76.4623,11.8098],[76.4844,11.8137],[76.4833,11.8514],[76.5262,11.8636],[76.5474,11.8487],[76.5499,11.8826],[76.5686,11.9139],[76.5524,11.9383],[76.5758,11.9751],[76.5992,11.9819],[76.6308,11.9735],[76.6454,11.9976],[76.6609,12.0004],[76.6943,11.9872],[76.6987,11.9746],[76.7295,11.9931],[76.7588,11.9885],[76.7736,11.9741],[76.7913,11.9799],[76.7844,12.0015],[76.8129,12.0195],[76.8155,12.0028],[76.832,11.9902],[76.8521,11.9888],[76.8759,12.0049],[76.8961,11.9879],[76.9306,12.0188],[76.8631,12.0486],[76.8749,12.0763],[76.8664,12.108],[76.84,12.1102],[76.8253,12.1207],[76.8348,12.1484],[76.8612,12.1612],[76.8643,12.1329],[76.8848,12.1122],[76.915,12.1059],[76.9384,12.0902],[76.9596,12.1031],[76.978,12.1325],[76.9851,12.1677],[77.011,12.1272],[77.0269,12.1324],[77.0373,12.1608],[77.0573,12.165],[77.081,12.1819],[77.0997,12.1814],[77.1246,12.2005],[77.1258,12.2192],[77.104,12.2342]]]},"properties":{"NAME_1":"Karnataka","NAME_2":"Mysore"}},{"type":"Feature","geometry":{"type":"Polygon","coordinates":[[[77.2847,16.403],[77.2639,16.3981],[77.2399,16.4127],[77.1675,16.4312],[77.1607,16.4576],[77.1418,16.4745],[77.1115,16.4785],[77.0555,16.514],[77.0234,16.4981],[77.0035,16.5123],[77.0079,16.5419],[76.9969,16.5552],[76.9694,16.5496],[76.9736,16.5101],[76.9671,16.5016],[76.9095,16.4823],[76.8797,16.4896],[76.8453,16.43],[76.7829,16.4129],[76.7597,16.4239],[76.7447,16.4087],[76.6686,16.3708],[76.6461,16.3554],[76.603,16.3361],[76.5784,16.3371],[76.5446,16.3117],[76.5132,16.2961],[76.477,16.2869],[76.4167,16.2469],[76.4054,16.232],[76.3685,16.2127],[76.3452,16.1931],[76.3279,16.1879],[76.2971,16.1791],[76.2803,16.1466],[76.2399,16.1622],[76.2343,16.127],[76.2449,16.108],[76.2901,16.1012],[76.3332,16.087],[76.3282,16.073],[76.2929,16.0841],[76.26,16.0857],[76.2597,16.07],[76.3016,16.0693],[76.311,15.994],[76.296,15.9935],[76.3008,15.9656],[76.3206,15.9493],[76.3266,15.9274],[76.3011,15.9186],[76.2843,15.9222],[76.2842,15.8979],[76.3076,15.8885],[76.3556,15.9024],[76.3932,15.8979],[76.4257,15.8841],[76.4197,15.8613],[76.4492,15.8473],[76.4425,15.8209],[76.411,15.7983],[76.4382,15.7801],[76.4419,15.7322],[76.4812,15.71],[76.5099,15.7116],[76.5295,15.6954],[76.5591,15.7013],[76.5853,15.6927],[76.5973,15.6688],[76.6514,15.6609],[76.6896,15.6412],[76.6918,15.6184],[76.6783,15.6025],[76.6875,15.5902],[76.7448,15.5861],[76.7541,15.5645],[76.772,15.5528],[76.8106,15.5422],[76.8323,15.5567],[76.8307,15.6113],[76.8701,15.6602],[76.915,15.6953],[76.9241,15.7304],[76.9962,15.8048],[77.0244,15.8295],[77.0332,15.8531],[77.0768,15.9097],[77.1434,15.9406],[77.1806,15.9501],[77.2361,15.9527],[77.2489,15.9577],[77.2824,15.9474],[77.3536,15.9437],[77.3762,15.9333],[77.4264,15.9423],[77.467,15.9276],[77.5095,15.9209],[77.5149,15.9632],[77.5055,15.9727],[77.5101,16.0023],[77.4907,16.0306],[77.5029,16.0732],[77.4867,16.1158],[77.4836,16.1586],[77.4949,16.1871],[77.4953,16.213],[77.4876,16.2498],[77.5012,16.2678],[77.5244,16.2698],[77.565,16.2977],[77.5807,16.2861],[77.5908,16.312],[77.5844,16.328],[77.5352,16.3529],[77.5189,16.3701],[77.4814,16.3778],[77.4381,16.3744],[77.4117,16.3627],[77.3732,16.3799],[77.3525,16.3766],[77.3327,16.3883],[77.2847,16.403]]]},"properties":{"NAME_1":"Karnataka","NAME_2":"Raichur"}},{"type":"Feature","geometry":{"type":"Polygon","coordinates":[[[75.5361,14.2729],[75.5198,14.2969],[75.5027,14.3027],[75.4996,14.3394],[75.4815,14.3364],[75.4774,14.313],[75.4285,14.345],[75.3921,14.3627],[75.3713,14.3662],[75.3497,14.3837],[75.3572,14.4018],[75.3789,14.4063],[75.382,14.4278],[75.3448,14.4306],[75.3481,14.4792],[75.3215,14.5076],[75.2774,14.5062],[75.2705,14.5218],[75.298,14.5348],[75.2666,14.5756],[75.2324,14.5773],[75.211,14.5704],[75.2091,14.6111],[75.1689,14.6296],[75.1465,14.616],[75.1034,14.6451],[75.0772,14.6501],[75.0535,14.6453],[75.0293,14.605],[75.0288,14.5557],[75.055,14.5284],[75.0414,14.523],[75.0449,14.4974],[74.9899,14.4836],[74.9958,14.5006],[74.9815,14.5491],[74.9336,14.5255],[74.9086,14.5261],[74.8961,14.4915],[74.8978,14.4716],[74.8807,14.4458],[74.8888,14.4279],[74.9242,14.4293],[74.9372,14.4048],[74.9514,14.3995],[74.9554,14.3763],[74.944,14.3584],[74.9783,14.3317],[74.9618,14.3204],[74.9287,14.3183],[74.9129,14.2857],[74.9319,14.2773],[74.943,14.2577],[74.9212,14.2278],[74.9028,14.2294],[74.885,14.2138],[74.8595,14.2103],[74.8246,14.2301],[74.7881,14.2287],[74.7703,14.235],[74.7435,14.26],[74.7256,14.2416],[74.7205,14.2307],[74.7322,14.1752],[74.7517,14.148],[74.7465,14.1491],[74.7152,14.1649],[74.7008,14.1729],[74.6702,14.1842],[74.6549,14.1696],[74.6304,14.1616],[74.6328,14.1431],[74.6476,14.1408],[74.6504,14.1146],[74.6437,14.0941],[74.6638,14.0583],[74.6595,14.0406],[74.6809,14.0347],[74.6704,13.9928],[74.6711,13.981],[74.7042,13.9468],[74.7201,13.9035],[74.739,13.9108],[74.7945,13.9107],[74.8245,13.9052],[74.8491,13.8911],[74.8654,13.861],[74.9029,13.8615],[74.9165,13.8536],[74.9352,13.7727],[74.9429,13.7623],[75.0003,13.7354],[75.0031,13.708],[75.0208,13.6955],[75.0136,13.6783],[75.0186,13.6328],[75.0373,13.6111],[75.0605,13.6038],[75.0611,13.5887],[75.037,13.5745],[75.0502,13.5367],[75.0716,13.52],[75.0807,13.4921],[75.1028,13.4879],[75.1128,13.4582],[75.1407,13.4591],[75.138,13.4704],[75.1707,13.5023],[75.2031,13.5084],[75.2243,13.5236],[75.2262,13.5662],[75.212,13.5814],[75.223,13.5999],[75.244,13.6013],[75.2771,13.5599],[75.296,13.5804],[75.3264,13.5891],[75.3416,13.5831],[75.379,13.6124],[75.407,13.6277],[75.4146,13.6497],[75.3942,13.6961],[75.4556,13.7202],[75.4618,13.7385],[75.4884,13.7558],[75.5171,13.7486],[75.5353,13.7269],[75.5634,13.737],[75.5768,13.7542],[75.6053,13.7563],[75.6043,13.8161],[75.6103,13.8391],[75.6504,13.8633],[75.6743,13.9072],[75.7117,13.9107],[75.7077,13.9391],[75.6817,13.9736],[75.6719,14.0063],[75.6812,14.0283],[75.7022,14.0488],[75.7254,14.0497],[75.7218,14.07],[75.6698,14.0611],[75.6351,14.0742],[75.6173,14.0715],[75.6116,14.0549],[75.5855,14.0529],[75.5159,14.0921],[75.4721,14.0969],[75.4516,14.0907],[75.4004,14.1103],[75.4259,14.1438],[75.4608,14.1691],[75.4853,14.1699],[75.4532,14.1997],[75.4788,14.2105],[75.5078,14.2124],[75.5284,14.2057],[75.5275,14.2495],[75.5361,14.2729]]]},"properties":{"NAME_1":"Karnataka","NAME_2":"Shimoga"}},{"type":"Feature","geometry":{"type":"MultiPolygon","coordinates":[[[[77.4498,13.6758],[77.4448,13.6958],[77.4568,13.7126],[77.4626,13.7436],[77.4508,13.7855],[77.4087,13.7993],[77.4247,13.8267],[77.3729,13.8313],[77.3522,13.8444],[77.32,13.8258],[77.3069,13.8572],[77.2855,13.846],[77.2504,13.8395],[77.2401,13.8941],[77.2255,13.8955],[77.1927,13.8562],[77.1751,13.8614],[77.1822,13.9013],[77.1559,13.8998],[77.1649,13.8662],[77.1394,13.859],[77.1253,13.843],[77.1458,13.8349],[77.1619,13.8155],[77.1541,13.8006],[77.1713,13.772],[77.1666,13.7547],[77.1235,13.7509],[77.0953,13.7609],[77.06,13.7389],[77.0352,13.7693],[77.0199,13.7699],[77.0114,13.7327],[76.9926,13.7426],[76.9812,13.7858],[76.9688,13.8102],[77.006,13.8501],[77.0173,13.8934],[77.0413,13.8974],[77.0358,13.9256],[76.989,13.9567],[76.9944,13.9815],[76.9486,14.0068],[76.9311,14.0227],[76.938,14.0476],[76.9715,14.0524],[76.9681,14.0797],[76.9463,14.0853],[76.929,14.0736],[76.9217,14.0522],[76.9053,14.0547],[76.8871,14.0406],[76.8773,14.011],[76.866,14.0028],[76.8326,14.0087],[76.8199,13.9878],[76.8437,13.972],[76.8442,13.9561],[76.8183,13.942],[76.8096,13.9098],[76.7767,13.9172],[76.7182,13.8887],[76.7541,13.8347],[76.762,13.8293],[76.7645,13.7933],[76.7586,13.773],[76.731,13.7771],[76.7203,13.7899],[76.6933,13.7631],[76.6846,13.7371],[76.6815,13.6823],[76.6553,13.7145],[76.6258,13.708],[76.6085,13.7166],[76.5686,13.7071],[76.5744,13.6817],[76.5438,13.6666],[76.5073,13.6231],[76.4566,13.6108],[76.4569,13.5907],[76.4062,13.5729],[76.3721,13.5855],[76.3499,13.5719],[76.3598,13.5403],[76.3972,13.5182],[76.4224,13.5175],[76.3933,13.4852],[76.4101,13.4714],[76.403,13.4528],[76.4137,13.4414],[76.3961,13.4141],[76.3886,13.3803],[76.3773,13.3576],[76.3419,13.3539],[76.3477,13.3181],[76.3435,13.2956],[76.3511,13.2796],[76.3517,13.2443],[76.3754,13.225],[76.3675,13.1925],[76.3903,13.1908],[76.4223,13.1781],[76.4477,13.157],[76.4521,13.1394],[76.4709,13.1345],[76.4632,13.0891],[76.4952,13.0783],[76.5118,13.0621],[76.5277,13.0709],[76.6113,13.0567],[76.5976,13.036],[76.6025,13.002],[76.6258,12.999],[76.6467,12.9998],[76.6678,13.0472],[76.6963,13.0325],[76.7559,13.0278],[76.7767,13.0201],[76.7809,13.0048],[76.8051,13.0035],[76.8452,12.9702],[76.8327,12.9644],[76.8336,12.9419],[76.8572,12.9206],[76.8619,12.8921],[76.8849,12.8821],[76.8845,12.8461],[76.9178,12.797],[76.9636,12.7951],[77.0028,12.7564],[77.0181,12.7538],[77.0354,12.7688],[77.0438,12.7399],[77.0732,12.7384],[77.0923,12.7665],[77.1128,12.7639],[77.1414,12.7752],[77.1331,12.8007],[77.149,12.8172],[77.1425,12.8392],[77.1254,12.8504],[77.1254,12.8794],[77.1359,12.9076],[77.1522,12.9039],[77.1608,12.9219],[77.1526,12.9483],[77.1258,12.9662],[77.1299,12.9878],[77.0655,13.0382],[77.0641,13.0594],[77.0763,13.0792],[77.0657,13.1167],[77.0899,13.1356],[77.1128,13.1371],[77.1137,13.1536],[77.1494,13.1837],[77.1907,13.1727],[77.2006,13.1803],[77.1753,13.2196],[77.1845,13.2339],[77.1817,13.2642],[77.2019,13.2543],[77.2157,13.2607],[77.2235,13.3032],[77.3009,13.3029],[77.3054,13.3146],[77.332,13.3219],[77.3391,13.3384],[77.336,13.3707],[77.3418,13.4097],[77.3563,13.4274],[77.3429,13.4451],[77.3666,13.463],[77.3794,13.4924],[77.3855,13.5246],[77.377,13.5366],[77.3761,13.5632],[77.3576,13.5853],[77.3552,13.6054],[77.3765,13.653],[77.3948,13.665],[77.4282,13.6652],[77.4498,13.6758]]],[[[77.0198,14.1727],[77.0104,14.092],[77.024,14.0834],[77.0237,14.0533],[77.069,14.0472],[77.0908,14.0383],[77.1211,14.0422],[77.1343,13.9981],[77.1544,13.9906],[77.1714,14.0086],[77.1946,14.0029],[77.2426,14.0063],[77.2715,14.0281],[77.2785,14.0069],[77.3036,14.0267],[77.3135,14.0248],[77.3335,13.9881],[77.3538,13.9823],[77.3437,13.9509],[77.3626,13.9423],[77.3426,13.9122],[77.3483,13.8965],[77.3904,13.8977],[77.3971,13.8805],[77.419,13.8949],[77.4077,13.9361],[77.4287,13.9433],[77.4306,13.9688],[77.4205,13.9769],[77.3865,13.974],[77.3732,13.9817],[77.3834,14.0074],[77.3262,14.0229],[77.338,14.0538],[77.3501,14.0534],[77.3724,14.0719],[77.3954,14.1034],[77.3897,14.1186],[77.3525,14.1054],[77.3477,14.1243],[77.3767,14.1296],[77.3897,14.1653],[77.4633,14.1642],[77.5004,14.151],[77.5104,14.172],[77.4901,14.2276],[77.4994,14.2605],[77.4791,14.2837],[77.4547,14.2722],[77.4436,14.2776],[77.4423,14.3098],[77.3949,14.3292],[77.3788,14.3171],[77.375,14.2952],[77.3899,14.2614],[77.401,14.2604],[77.4149,14.2032],[77.3838,14.1918],[77.3766,14.2167],[77.3554,14.23],[77.3593,14.2693],[77.2796,14.2761],[77.2811,14.3311],[77.2451,14.3145],[77.1964,14.3143],[77.1522,14.3377],[77.1319,14.3306],[77.1258,14.3015],[77.1119,14.2875],[77.1155,14.2568],[77.1099,14.2215],[77.0952,14.2095],[77.0753,14.2093],[77.0496,14.2395],[77.0041,14.2316],[76.9985,14.192],[77.0198,14.1727]]]]},"properties":{"NAME_1":"Karnataka","NAME_2":"Tumkur"}},{"type":"Feature","geometry":{"type":"Polygon","coordinates":[[[75.1407,13.4591],[75.1128,13.4582],[75.1028,13.4879],[75.0807,13.4921],[75.0716,13.52],[75.0502,13.5367],[75.037,13.5745],[75.0611,13.5887],[75.0605,13.6038],[75.0373,13.6111],[75.0186,13.6328],[75.0136,13.6783],[75.0208,13.6955],[75.0031,13.708],[75.0003,13.7354],[74.9429,13.7623],[74.9352,13.7727],[74.9165,13.8536],[74.9029,13.8615],[74.8654,13.861],[74.8491,13.8911],[74.8245,13.9052],[74.7945,13.9107],[74.739,13.9108],[74.7201,13.9035],[74.7042,13.9468],[74.6711,13.981],[74.6612,13.9728],[74.6504,13.9562],[74.6555,13.9469],[74.6112,13.938],[74.6038,13.9403],[74.6015,13.9407],[74.5929,13.927],[74.5843,13.9235],[74.5946,13.8885],[74.6093,13.8621],[74.6276,13.786],[74.6507,13.6676],[74.6618,13.6554],[74.6813,13.549],[74.6904,13.4607],[74.6943,13.454],[74.6982,13.3526],[74.7143,13.3346],[74.7335,13.2371],[74.7579,13.1507],[74.7696,13.0954],[74.7735,13.0832],[74.7799,13.0899],[74.7779,13.0982],[74.7813,13.1004],[74.7877,13.1006],[74.7962,13.0937],[74.7998,13.1009],[74.7966,13.1122],[74.8059,13.1108],[74.8087,13.1098],[74.816,13.1178],[74.8642,13.1221],[74.8749,13.0932],[74.8915,13.0915],[74.8868,13.0398],[74.9356,13.0275],[74.9362,13.0107],[74.9654,13.0094],[74.9784,13.0229],[74.9995,13.0084],[74.9902,12.9848],[75.0145,12.9799],[75.0301,12.9933],[75.0307,13.0118],[75.0478,13.0162],[75.0771,13.041],[75.0991,13.0867],[75.118,13.1046],[75.1302,13.1303],[75.1619,13.129],[75.1997,13.1741],[75.1761,13.1974],[75.1517,13.2647],[75.1388,13.2857],[75.1155,13.2803],[75.0807,13.3404],[75.0919,13.3581],[75.1133,13.3539],[75.1275,13.365],[75.1327,13.3879],[75.1512,13.4169],[75.1551,13.4448],[75.1407,13.4591]]]},"properties":{"NAME_1":"Karnataka","NAME_2":"Udupi"}},{"type":"Feature","geometry":{"type":"Polygon","coordinates":[[[74.7468,15.4089],[74.7036,15.4074],[74.6962,15.3966],[74.6588,15.3876],[74.6191,15.3562],[74.5726,15.4009],[74.5396,15.4167],[74.5206,15.4009],[74.4853,15.3934],[74.4731,15.4113],[74.4406,15.4014],[74.429,15.4143],[74.4263,15.4596],[74.3921,15.4831],[74.3814,15.4796],[74.3464,15.5165],[74.2838,15.5195],[74.2563,15.4895],[74.2825,15.4431],[74.2756,15.4239],[74.29,15.3812],[74.3284,15.3673],[74.3233,15.3296],[74.3417,15.2929],[74.3341,15.2829],[74.3023,15.2859],[74.2766,15.2744],[74.2635,15.2419],[74.3021,15.2281],[74.3219,15.1841],[74.3109,15.162],[74.2896,15.1431],[74.2931,15.12],[74.2811,15.1018],[74.2872,15.0694],[74.3023,15.0399],[74.2891,15.0301],[74.2898,15.0216],[74.2819,15.0156],[74.271,14.9988],[74.2716,14.9977],[74.2739,14.9752],[74.2666,14.9668],[74.2621,14.9576],[74.251,14.9608],[74.2439,14.9575],[74.2193,14.9314],[74.2031,14.9274],[74.2042,14.9379],[74.1974,14.9433],[74.1699,14.9473],[74.1697,14.9422],[74.166,14.9368],[74.1752,14.9162],[74.1754,14.9089],[74.1457,14.9174],[74.1334,14.9159],[74.1042,14.9038],[74.0993,14.8804],[74.1246,14.8374],[74.1263,14.816],[74.0926,14.8032],[74.1101,14.7846],[74.1429,14.7779],[74.1599,14.7549],[74.1935,14.7351],[74.2496,14.7396],[74.2818,14.6779],[74.2782,14.6587],[74.284,14.631],[74.2735,14.6271],[74.3112,14.5518],[74.3162,14.519],[74.354,14.5212],[74.3499,14.544],[74.369,14.5585],[74.3832,14.5371],[74.3607,14.5199],[74.3596,14.5018],[74.3926,14.4188],[74.4054,14.3721],[74.4132,14.3174],[74.4532,14.2015],[74.4668,14.1968],[74.4743,14.1688],[74.4882,14.0868],[74.4993,14.0499],[74.5015,14.0226],[74.5146,13.9862],[74.5504,13.9482],[74.5668,13.949],[74.5843,13.9235],[74.5929,13.927],[74.6015,13.9407],[74.6038,13.9403],[74.6112,13.938],[74.6555,13.9469],[74.6504,13.9562],[74.6612,13.9728],[74.6704,13.9928],[74.6809,14.0347],[74.6595,14.0406],[74.6638,14.0583],[74.6437,14.0941],[74.6504,14.1146],[74.6476,14.1408],[74.6328,14.1431],[74.6304,14.1616],[74.6549,14.1696],[74.6702,14.1842],[74.7008,14.1729],[74.7152,14.1649],[74.7465,14.1491],[74.7517,14.148],[74.7322,14.1752],[74.7205,14.2307],[74.7256,14.2416],[74.7435,14.26],[74.7703,14.235],[74.7881,14.2287],[74.8246,14.2301],[74.8595,14.2103],[74.885,14.2138],[74.9028,14.2294],[74.9212,14.2278],[74.943,14.2577],[74.9319,14.2773],[74.9129,14.2857],[74.9287,14.3183],[74.9618,14.3204],[74.9783,14.3317],[74.944,14.3584],[74.9554,14.3763],[74.9514,14.3995],[74.9372,14.4048],[74.9242,14.4293],[74.8888,14.4279],[74.8807,14.4458],[74.8978,14.4716],[74.8961,14.4915],[74.9086,14.5261],[74.9336,14.5255],[74.9815,14.5491],[74.9958,14.5006],[74.9899,14.4836],[75.0449,14.4974],[75.0414,14.523],[75.055,14.5284],[75.0288,14.5557],[75.0293,14.605],[75.0535,14.6453],[75.0343,14.669],[75.0347,14.7035],[75.0504,14.7434],[75.0448,14.7656],[75.0736,14.7765],[75.078,14.8465],[75.0731,14.9149],[75.1061,14.9228],[75.1033,14.9519],[75.089,14.9533],[75.0721,15.0127],[75.0838,15.0695],[75.0588,15.0778],[75.0254,15.0658],[74.9436,15.0633],[74.9429,15.0489],[74.8964,15.0419],[74.8845,15.0811],[74.8859,15.0966],[74.8621,15.1008],[74.8466,15.1238],[74.8324,15.1305],[74.8536,15.1663],[74.8805,15.1904],[74.8767,15.2102],[74.9124,15.2479],[74.9022,15.2962],[74.863,15.3267],[74.8301,15.3407],[74.825,15.3812],[74.803,15.3742],[74.7865,15.3913],[74.7468,15.4089]]]},"properties":{"NAME_1":"Karnataka","NAME_2":"Uttar Kannand"}}]}