{"type":"FeatureCollection","features":[{"type":"Feature","geometry":{"type":"MultiPolygon","coordinates":[[[[76.4346,9.5515],[76.4054,9.5421],[76.4063,9.5276],[76.434,9.5285],[76.4346,9.5515]]],[[[76.4639,9.5282],[76.3571,9.5254],[76.3532,9.5399],[76.3593,9.5749],[76.3676,9.5832],[76.3671,9.611],[76.3907,9.6582],[76.391,9.6796],[76.3654,9.6963],[76.3718,9.7415],[76.3679,9.7768],[76.3596,9.7968],[76.3707,9.8174],[76.3426,9.8349],[76.3304,9.8726],[76.2854,9.8446],[76.2752,9.8418],[76.2709,9.8235],[76.2838,9.7501],[76.3004,9.5863],[76.3107,9.5229],[76.3288,9.4485],[76.3518,9.3779],[76.4724,9.1147],[76.5,9.129],[76.5284,9.1287],[76.5364,9.1028],[76.5702,9.1066],[76.5759,9.1207],[76.5992,9.1199],[76.641,9.1418],[76.6582,9.1441],[76.661,9.1629],[76.6534,9.1906],[76.6296,9.204],[76.6262,9.2227],[76.6442,9.2321],[76.6496,9.2596],[76.6782,9.2747],[76.6663,9.2863],[76.6411,9.281],[76.6403,9.297],[76.6102,9.3326],[76.5825,9.3419],[76.5498,9.3424],[76.5405,9.3165],[76.4875,9.3138],[76.4663,9.3188],[76.4759,9.3396],[76.4986,9.3457],[76.4975,9.3637],[76.4985,9.3693],[76.4997,9.3903],[76.4961,9.3949],[76.4946,9.4076],[76.4952,9.4144],[76.4948,9.4175],[76.4924,9.4292],[76.4881,9.4535],[76.4924,9.4611],[76.4935,9.4706],[76.4945,9.488],[76.4855,9.4952],[76.4682,9.4988],[76.4639,9.5282]]]]},"properties":{"NAME_1":"Kerala","NAME_2":"Alappuzha"}},{"type":"Feature","geometry":{"type":"MultiPolygon","coordinates":[[[[76.2854,9.8446],[76.2696,9.8663],[76.2585,9.8993],[76.2862,9.9024],[76.2926,9.9215],[76.2676,9.9321],[76.2599,9.9624],[76.2371,9.9649],[76.2607,9.8782],[76.2709,9.8235],[76.2752,9.8418],[76.2854,9.8446]]],[[[76.2607,9.9707],[76.2671,9.9399],[76.2896,9.9374],[76.2749,9.9663],[76.2607,9.9707]]],[[[76.2418,10.0143],[76.2465,9.9765],[76.2601,9.9815],[76.2532,10.006],[76.2418,10.0143]]],[[[76.6771,10.2595],[76.6347,10.2735],[76.614,10.2662],[76.5925,10.2744],[76.5676,10.2943],[76.5418,10.2754],[76.5301,10.2808],[76.4066,10.2886],[76.3616,10.2329],[76.3331,10.2256],[76.3196,10.2015],[76.3025,10.1985],[76.3038,10.1737],[76.2923,10.1766],[76.2657,10.1673],[76.2536,10.1893],[76.2507,10.1932],[76.2261,10.1957],[76.2111,10.2],[76.1939,10.1887],[76.1822,10.1852],[76.1774,10.1836],[76.1665,10.1715],[76.1821,10.1307],[76.2015,10.0526],[76.224,9.9771],[76.2429,9.9843],[76.2387,10.0304],[76.2029,10.1335],[76.221,10.1263],[76.2593,10.0865],[76.251,10.0538],[76.2726,10.0154],[76.2701,9.9896],[76.2926,9.9421],[76.3143,9.9132],[76.3193,9.889],[76.3432,9.8851],[76.3326,9.9135],[76.354,9.9107],[76.3643,9.8932],[76.3932,9.8211],[76.4058,9.8152],[76.4335,9.8248],[76.45,9.841],[76.4703,9.8407],[76.4756,9.8395],[76.4977,9.844],[76.511,9.8168],[76.5303,9.806],[76.5317,9.7987],[76.571,9.8195],[76.5707,9.8342],[76.5969,9.8321],[76.6201,9.8482],[76.626,9.871],[76.619,9.9018],[76.6255,9.9105],[76.6781,9.9145],[76.7055,9.9505],[76.7139,9.9737],[76.7357,9.9822],[76.753,9.9742],[76.7536,10.0036],[76.7815,10.0339],[76.7146,10.0868],[76.6609,10.1336],[76.646,10.1332],[76.6312,10.1539],[76.64,10.1838],[76.6616,10.2062],[76.6685,10.244],[76.6771,10.2595]]]]},"properties":{"NAME_1":"Kerala","NAME_2":"Ernakulam"}},{"type":"Feature","geometry":{"type":"Polygon","coordinates":[[[77.2748,10.2205],[77.2512,10.2244],[77.2505,10.2538],[77.2145,10.3058],[77.2222,10.3403],[77.163,10.3463],[77.1143,10.3106],[77.0734,10.2958],[77.0461,10.2743],[77.0386,10.2482],[77.0186,10.2418],[76.9815,10.2199],[76.9588,10.2187],[76.9278,10.2296],[76.9093,10.2232],[76.8918,10.2431],[76.8667,10.2608],[76.8271,10.276],[76.7942,10.2776],[76.7492,10.2618],[76.7381,10.2701],[76.6771,10.2595],[76.6685,10.244],[76.6616,10.2062],[76.64,10.1838],[76.6312,10.1539],[76.646,10.1332],[76.6609,10.1336],[76.7146,10.0868],[76.7815,10.0339],[76.7536,10.0036],[76.753,9.9742],[76.7357,9.9822],[76.7139,9.9737],[76.7055,9.9505],[76.6781,9.9145],[76.6255,9.9105],[76.619,9.9018],[76.626,9.871],[76.6201,9.8482],[76.6504,9.8314],[76.6595,9.8358],[76.7084,9.8063],[76.7334,9.7958],[76.7441,9.8069],[76.7699,9.7968],[76.8003,9.7755],[76.8407,9.7256],[76.8738,9.7085],[76.8915,9.6671],[76.9151,9.6427],[76.9101,9.6259],[76.8859,9.6239],[76.8753,9.6088],[76.881,9.5765],[76.874,9.5594],[76.8754,9.5289],[76.9108,9.4993],[76.9406,9.4823],[76.9523,9.4981],[76.9704,9.4766],[76.9697,9.4586],[76.9461,9.4517],[76.9249,9.4322],[76.9253,9.4216],[76.9484,9.4212],[76.9992,9.4114],[77.0145,9.399],[77.0523,9.408],[77.0332,9.4426],[77.0725,9.4527],[77.089,9.4698],[77.1263,9.4807],[77.14,9.4605],[77.1657,9.4617],[77.174,9.4413],[77.1893,9.4421],[77.2321,9.3763],[77.2205,9.3402],[77.2208,9.3167],[77.211,9.2872],[77.2676,9.2624],[77.2668,9.2909],[77.2868,9.3081],[77.3206,9.3511],[77.3241,9.4082],[77.3343,9.4311],[77.3516,9.4497],[77.3722,9.4453],[77.3868,9.4674],[77.3962,9.4965],[77.3868,9.5167],[77.3707,9.5087],[77.3505,9.5263],[77.3506,9.5403],[77.321,9.5674],[77.3043,9.593],[77.2865,9.5873],[77.2611,9.5667],[77.2228,9.5728],[77.186,9.6059],[77.1555,9.6015],[77.1657,9.6482],[77.1796,9.6604],[77.1917,9.6862],[77.1899,9.7155],[77.2082,9.7217],[77.2098,9.7799],[77.234,9.7885],[77.219,9.8133],[77.2237,9.843],[77.1991,9.866],[77.2044,9.8943],[77.2219,9.9228],[77.2614,9.9637],[77.2498,9.9728],[77.2407,10.0029],[77.2489,10.0158],[77.2044,10.0685],[77.1881,10.0957],[77.2305,10.1201],[77.2533,10.1114],[77.261,10.1287],[77.2644,10.1797],[77.2804,10.2073],[77.2748,10.2205]]]},"properties":{"NAME_1":"Kerala","NAME_2":"Idukki"}},{"type":"Feature","geometry":{"type":"Polygon","coordinates":[[[75.4672,12.2954],[75.4414,12.29],[75.4307,12.292],[75.4191,12.2864],[75.3697,12.278],[75.3465,12.2628],[75.3057,12.2657],[75.2882,12.2531],[75.2914,12.2318],[75.2455,12.213],[75.2318,12.2158],[75.1853,12.168],[75.1882,12.131],[75.196,12.1179],[75.1876,12.0938],[75.1749,12.0838],[75.1868,12.0371],[75.2046,12.0049],[75.2265,12.0227],[75.2282,12.0232],[75.2285,12.0238],[75.2293,12.0238],[75.2301,12.024],[75.2301,12.0243],[75.2307,12.0243],[75.2307,12.0241],[75.2311,12.0246],[75.2249,12.0319],[75.2274,12.0443],[75.2237,12.0545],[75.2242,12.0744],[75.2223,12.0782],[75.2225,12.0856],[75.2211,12.101],[75.2559,12.1086],[75.266,12.1037],[75.2778,12.1018],[75.2839,12.115],[75.3107,12.1247],[75.3252,12.1449],[75.3462,12.1386],[75.3667,12.1354],[75.3784,12.146],[75.3998,12.1405],[75.4022,12.1341],[75.3823,12.1291],[75.3793,12.1221],[75.3685,12.1213],[75.3553,12.1094],[75.3091,12.1027],[75.3092,12.0784],[75.3088,12.0538],[75.3087,12.0474],[75.3068,12.0387],[75.3118,12.0326],[75.3057,12.0324],[75.3004,12.0154],[75.2793,12.0218],[75.2654,12.0071],[75.2907,11.9863],[75.3029,11.9615],[75.3007,11.9399],[75.3249,11.9038],[75.3676,11.8518],[75.3776,11.8588],[75.4074,11.8349],[75.4424,11.7974],[75.4538,11.7701],[75.4735,11.7629],[75.5068,11.7329],[75.5301,11.7029],[75.552,11.696],[75.5599,11.6745],[75.5734,11.6708],[75.5988,11.6821],[75.587,11.7082],[75.6058,11.7118],[75.6814,11.7707],[75.6869,11.7898],[75.7123,11.7891],[75.7236,11.7772],[75.7501,11.7788],[75.7722,11.7919],[75.7917,11.8085],[75.7849,11.8296],[75.8026,11.8488],[75.8958,11.8349],[75.9231,11.8371],[75.9237,11.8735],[75.9316,11.8877],[75.9194,11.9147],[75.9252,11.9329],[75.8767,11.9407],[75.8511,11.957],[75.8244,11.9843],[75.8275,12.0028],[75.8,12.0303],[75.7953,12.0742],[75.763,12.0786],[75.7171,12.0621],[75.7142,12.0692],[75.7065,12.0828],[75.7003,12.088],[75.692,12.1026],[75.6727,12.0907],[75.6624,12.0912],[75.6425,12.1308],[75.6368,12.1404],[75.6294,12.1416],[75.6269,12.1451],[75.6081,12.1487],[75.5947,12.1454],[75.5914,12.143],[75.5827,12.1504],[75.5638,12.1668],[75.5511,12.1844],[75.5439,12.192],[75.5404,12.1924],[75.533,12.1991],[75.538,12.2068],[75.5253,12.2196],[75.5234,12.2289],[75.5199,12.2332],[75.5193,12.2359],[75.5131,12.2493],[75.5111,12.2533],[75.5039,12.2632],[75.494,12.2651],[75.4925,12.2668],[75.4672,12.2954]]]},"properties":{"NAME_1":"Kerala","NAME_2":"Kannur"}},{"type":"Feature","geometry":{"type":"Polygon","coordinates":[[[75.3206,12.4913],[75.3043,12.4975],[75.3047,12.5173],[75.2811,12.5181],[75.2709,12.5535],[75.2914,12.5749],[75.3162,12.5687],[75.3015,12.5991],[75.2767,12.6117],[75.2382,12.5641],[75.214,12.5734],[75.2014,12.6251],[75.1826,12.6274],[75.1549,12.6196],[75.1503,12.6419],[75.1613,12.6641],[75.1445,12.6729],[75.1127,12.6759],[75.1044,12.6916],[75.085,12.6897],[75.0831,12.6664],[75.0478,12.6601],[75.0447,12.6874],[75.0497,12.7147],[75.0031,12.7137],[74.9918,12.7382],[75.0086,12.7604],[75.0053,12.7855],[74.9707,12.7726],[74.9542,12.7793],[74.8945,12.7561],[74.8671,12.7545],[74.8838,12.7096],[74.9104,12.656],[74.9618,12.5318],[74.9735,12.4987],[75.0146,12.4168],[75.0451,12.379],[75.0721,12.3199],[75.1179,12.2057],[75.1374,12.1854],[75.1712,12.1151],[75.1882,12.131],[75.1853,12.168],[75.2318,12.2158],[75.2455,12.213],[75.2914,12.2318],[75.2882,12.2531],[75.3057,12.2657],[75.3465,12.2628],[75.3697,12.278],[75.4191,12.2864],[75.4304,12.2995],[75.4231,12.3081],[75.4112,12.3378],[75.4143,12.3439],[75.4214,12.3619],[75.4189,12.3695],[75.4034,12.3726],[75.4011,12.3757],[75.3943,12.3798],[75.3786,12.3867],[75.3656,12.407],[75.3694,12.4456],[75.3666,12.4517],[75.3919,12.4451],[75.4035,12.4476],[75.4147,12.4541],[75.4243,12.4663],[75.4145,12.4967],[75.4042,12.4896],[75.3973,12.4978],[75.3866,12.4919],[75.3811,12.4915],[75.3772,12.4864],[75.373,12.4772],[75.3556,12.458],[75.3409,12.456],[75.3405,12.4646],[75.3356,12.485],[75.3206,12.4913]]]},"properties":{"NAME_1":"Kerala","NAME_2":"Kasaragod"}},{"type":"Feature","geometry":{"type":"Polygon","coordinates":[[[77.1915,9.062],[77.15,9.0673],[77.0909,9.0875],[77.0396,9.1137],[76.984,9.1241],[76.9147,9.1636],[76.9133,9.1311],[76.9327,9.1085],[76.8744,9.1164],[76.8598,9.1225],[76.8351,9.1047],[76.8334,9.0907],[76.8133,9.0857],[76.7979,9.0997],[76.7692,9.1059],[76.7518,9.09],[76.7435,9.0656],[76.7232,9.0787],[76.7096,9.0743],[76.6451,9.0863],[76.641,9.1418],[76.5992,9.1199],[76.5759,9.1207],[76.5702,9.1066],[76.5364,9.1028],[76.5284,9.1287],[76.5,9.129],[76.4724,9.1147],[76.5185,9.0179],[76.5413,8.9154],[76.5685,8.879],[76.5935,8.8737],[76.6193,8.8504],[76.6766,8.7757],[76.7061,8.7938],[76.7438,8.7871],[76.7573,8.8005],[76.776,8.8007],[76.778,8.8191],[76.7648,8.8339],[76.7707,8.8488],[76.8314,8.8271],[76.8382,8.8097],[76.87,8.7973],[76.8853,8.8027],[76.9029,8.7838],[76.8987,8.7707],[76.9178,8.7529],[76.9352,8.763],[76.9788,8.7735],[76.989,8.7624],[77.0121,8.7659],[76.9961,8.8004],[77.0172,8.8332],[77.0354,8.8363],[77.0648,8.829],[77.1057,8.8096],[77.1176,8.7986],[77.183,8.7611],[77.2147,8.7758],[77.2174,8.797],[77.247,8.8319],[77.2399,8.8681],[77.2063,8.8932],[77.1802,8.947],[77.1584,8.9782],[77.1342,9],[77.1322,9.0119],[77.1538,9.0366],[77.1802,9.0448],[77.1915,9.062]]]},"properties":{"NAME_1":"Kerala","NAME_2":"Kollam"}},{"type":"Feature","geometry":{"type":"Polygon","coordinates":[[[76.9253,9.4216],[76.9249,9.4322],[76.9461,9.4517],[76.9697,9.4586],[76.9704,9.4766],[76.9523,9.4981],[76.9406,9.4823],[76.9108,9.4993],[76.8754,9.5289],[76.874,9.5594],[76.881,9.5765],[76.8753,9.6088],[76.8859,9.6239],[76.9101,9.6259],[76.9151,9.6427],[76.8915,9.6671],[76.8738,9.7085],[76.8407,9.7256],[76.8003,9.7755],[76.7699,9.7968],[76.7441,9.8069],[76.7334,9.7958],[76.7084,9.8063],[76.6595,9.8358],[76.6504,9.8314],[76.6201,9.8482],[76.5969,9.8321],[76.5707,9.8342],[76.571,9.8195],[76.5317,9.7987],[76.5303,9.806],[76.511,9.8168],[76.4977,9.844],[76.4756,9.8395],[76.4703,9.8407],[76.45,9.841],[76.4335,9.8248],[76.4058,9.8152],[76.3932,9.8211],[76.3915,9.8212],[76.3824,9.8243],[76.3868,9.811],[76.369,9.7943],[76.3732,9.7726],[76.391,9.7421],[76.3832,9.7054],[76.4137,9.6968],[76.4026,9.6474],[76.4299,9.6121],[76.4165,9.5718],[76.4179,9.5596],[76.501,9.5293],[76.4639,9.5282],[76.4682,9.4988],[76.4855,9.4952],[76.4945,9.488],[76.4935,9.4706],[76.4924,9.4611],[76.4881,9.4535],[76.4924,9.4292],[76.4948,9.4175],[76.4952,9.4144],[76.4946,9.4076],[76.4961,9.3949],[76.5018,9.3931],[76.5204,9.409],[76.5516,9.4043],[76.5772,9.4101],[76.5777,9.4366],[76.589,9.4494],[76.6223,9.4557],[76.6399,9.4728],[76.6858,9.4681],[76.6948,9.4466],[76.7332,9.4657],[76.7497,9.4314],[76.7876,9.446],[76.8358,9.4388],[76.8404,9.4491],[76.8706,9.4365],[76.9097,9.4099],[76.9253,9.4216]]]},"properties":{"NAME_1":"Kerala","NAME_2":"Kottayam"}},{"type":"Feature","geometry":{"type":"Polygon","coordinates":[[[75.9841,11.5267],[75.9523,11.555],[75.951,11.5732],[75.9022,11.5965],[75.8919,11.6133],[75.8982,11.6601],[75.9103,11.6819],[75.8907,11.6926],[75.8453,11.6935],[75.8391,11.7063],[75.7803,11.7531],[75.7875,11.7833],[75.7722,11.7919],[75.7501,11.7788],[75.7236,11.7772],[75.7123,11.7891],[75.6869,11.7898],[75.6814,11.7707],[75.6058,11.7118],[75.587,11.7082],[75.5988,11.6821],[75.5734,11.6708],[75.5599,11.6745],[75.552,11.696],[75.5301,11.7029],[75.5554,11.6538],[75.6179,11.4888],[75.6326,11.4626],[75.6457,11.4679],[75.6813,11.4499],[75.7024,11.4168],[75.7374,11.3485],[75.7337,11.334],[75.7474,11.319],[75.7729,11.2421],[75.8024,11.1632],[75.8249,11.1254],[75.8582,11.1581],[75.8833,11.1735],[75.8827,11.1796],[75.8714,11.1785],[75.8539,11.1879],[75.8648,11.2021],[75.8921,11.2263],[75.8958,11.2374],[75.9118,11.2314],[75.9298,11.2422],[75.9518,11.2446],[75.9611,11.2556],[75.9782,11.2532],[76.001,11.2533],[76.0138,11.2615],[76.0301,11.2607],[76.0438,11.262],[76.0505,11.2671],[76.0643,11.2876],[76.0833,11.3035],[76.1118,11.3166],[76.1106,11.3296],[76.0914,11.3339],[76.0865,11.3462],[76.0942,11.3634],[76.0942,11.3895],[76.1046,11.403],[76.1258,11.4185],[76.1374,11.4202],[76.1276,11.4491],[76.0978,11.4736],[76.0835,11.482],[76.0844,11.4914],[76.068,11.5136],[76.0516,11.5024],[76.0417,11.4987],[76.0352,11.4949],[76.0107,11.5083],[75.9841,11.5267]]]},"properties":{"NAME_1":"Kerala","NAME_2":"Kozhikode"}},{"type":"Feature","geometry":{"type":"Polygon","coordinates":[[[76.438,11.1945],[76.4464,11.2305],[76.5135,11.262],[76.5398,11.321],[76.5382,11.3516],[76.5095,11.3466],[76.5101,11.3612],[76.4484,11.3814],[76.4082,11.4148],[76.3615,11.448],[76.3337,11.4587],[76.3209,11.4447],[76.2781,11.4745],[76.2579,11.4732],[76.2332,11.5187],[76.1945,11.4999],[76.1755,11.4756],[76.1769,11.4645],[76.1353,11.4427],[76.1374,11.4202],[76.1258,11.4185],[76.1046,11.403],[76.0942,11.3895],[76.0942,11.3634],[76.0865,11.3462],[76.0914,11.3339],[76.1106,11.3296],[76.1118,11.3166],[76.0833,11.3035],[76.0643,11.2876],[76.0505,11.2671],[76.0438,11.262],[76.0301,11.2607],[76.0138,11.2615],[76.001,11.2533],[75.9782,11.2532],[75.9611,11.2556],[75.9518,11.2446],[75.9298,11.2422],[75.9118,11.2314],[75.8958,11.2374],[75.8921,11.2263],[75.8648,11.2021],[75.8539,11.1879],[75.8714,11.1785],[75.8827,11.1796],[75.8833,11.1735],[75.8582,11.1581],[75.8293,11.1224],[75.8768,10.944],[75.9101,10.7924],[75.9571,10.6839],[75.9614,10.6869],[75.9953,10.6849],[76.0098,10.6866],[76.047,10.7065],[76.0615,10.7208],[76.0401,10.7364],[76.0318,10.7554],[76.035,10.7867],[76.0253,10.8189],[76.0373,10.8394],[76.0599,10.8303],[76.0857,10.8322],[76.1243,10.8896],[76.138,10.8816],[76.1507,10.9026],[76.1746,10.9032],[76.224,10.8788],[76.243,10.8797],[76.2619,10.9096],[76.3117,10.9047],[76.3211,10.9714],[76.3543,10.9678],[76.3617,10.9891],[76.3276,10.9913],[76.3215,11.0148],[76.2778,11.0171],[76.2885,11.0423],[76.3155,11.0414],[76.3434,11.0856],[76.383,11.0949],[76.4031,11.1121],[76.4075,11.1633],[76.3978,11.1759],[76.4025,11.1982],[76.438,11.1945]]]},"properties":{"NAME_1":"Kerala","NAME_2":"Malappuram"}},{"type":"Feature","geometry":{"type":"Polygon","coordinates":[[[76.8268,10.3303],[76.8393,10.3597],[76.8157,10.3865],[76.8073,10.4149],[76.8175,10.4385],[76.8203,10.4907],[76.832,10.5292],[76.8245,10.5376],[76.8297,10.5851],[76.8154,10.5883],[76.805,10.6263],[76.8726,10.6294],[76.8702,10.6641],[76.8551,10.6724],[76.875,10.7067],[76.8975,10.7708],[76.8883,10.7999],[76.86,10.7998],[76.8371,10.8155],[76.8452,10.8265],[76.8176,10.8618],[76.7853,10.8715],[76.773,10.8816],[76.7327,10.881],[76.7004,10.9008],[76.6846,10.9024],[76.6528,10.92],[76.6604,10.9605],[76.6778,10.9797],[76.6904,11.0175],[76.7121,11.0325],[76.757,11.0246],[76.7511,11.0468],[76.7345,11.0639],[76.7457,11.0839],[76.7406,11.1099],[76.6967,11.1327],[76.686,11.1577],[76.7064,11.1796],[76.7212,11.1845],[76.7265,11.2065],[76.697,11.2313],[76.623,11.1857],[76.6021,11.1955],[76.5778,11.1968],[76.5212,11.1903],[76.506,11.202],[76.4659,11.1987],[76.4527,11.1802],[76.438,11.1945],[76.4025,11.1982],[76.3978,11.1759],[76.4075,11.1633],[76.4031,11.1121],[76.383,11.0949],[76.3434,11.0856],[76.3155,11.0414],[76.2885,11.0423],[76.2778,11.0171],[76.3215,11.0148],[76.3276,10.9913],[76.3617,10.9891],[76.3543,10.9678],[76.3211,10.9714],[76.3117,10.9047],[76.2619,10.9096],[76.243,10.8797],[76.224,10.8788],[76.1746,10.9032],[76.1507,10.9026],[76.138,10.8816],[76.1243,10.8896],[76.0857,10.8322],[76.0599,10.8303],[76.0373,10.8394],[76.0253,10.8189],[76.035,10.7867],[76.0318,10.7554],[76.0401,10.7364],[76.0615,10.7208],[76.0901,10.7176],[76.1163,10.7032],[76.1233,10.7135],[76.1544,10.6979],[76.1941,10.7466],[76.1951,10.7613],[76.2146,10.7743],[76.2361,10.7611],[76.2427,10.7403],[76.2788,10.7501],[76.316,10.7375],[76.3469,10.737],[76.3556,10.7565],[76.3783,10.7571],[76.3862,10.7406],[76.4608,10.7442],[76.4698,10.725],[76.4571,10.7123],[76.4423,10.6697],[76.4201,10.6431],[76.4098,10.6211],[76.4156,10.6001],[76.3954,10.5914],[76.4013,10.5711],[76.43,10.547],[76.4244,10.5248],[76.4414,10.5134],[76.4697,10.4771],[76.5181,10.4558],[76.5477,10.4263],[76.5751,10.4279],[76.5898,10.4118],[76.6102,10.3738],[76.6508,10.376],[76.6749,10.3554],[76.7154,10.3645],[76.7455,10.3536],[76.743,10.3286],[76.7936,10.3301],[76.8062,10.34],[76.8268,10.3303]]]},"properties":{"NAME_1":"Kerala","NAME_2":"Palakkad"}},{"type":"Feature","geometry":{"type":"Polygon","coordinates":[[[77.2676,9.2624],[77.211,9.2872],[77.2208,9.3167],[77.2205,9.3402],[77.2321,9.3763],[77.1893,9.4421],[77.174,9.4413],[77.1657,9.4617],[77.14,9.4605],[77.1263,9.4807],[77.089,9.4698],[77.0725,9.4527],[77.0332,9.4426],[77.0523,9.408],[77.0145,9.399],[76.9992,9.4114],[76.9484,9.4212],[76.9253,9.4216],[76.9097,9.4099],[76.8706,9.4365],[76.8404,9.4491],[76.8358,9.4388],[76.7876,9.446],[76.7497,9.4314],[76.7332,9.4657],[76.6948,9.4466],[76.6858,9.4681],[76.6399,9.4728],[76.6223,9.4557],[76.589,9.4494],[76.5777,9.4366],[76.5772,9.4101],[76.5516,9.4043],[76.5204,9.409],[76.5018,9.3931],[76.4997,9.3903],[76.4985,9.3693],[76.4975,9.3637],[76.4986,9.3457],[76.4759,9.3396],[76.4663,9.3188],[76.4875,9.3138],[76.5405,9.3165],[76.5498,9.3424],[76.5825,9.3419],[76.6102,9.3326],[76.6403,9.297],[76.6411,9.281],[76.6663,9.2863],[76.6782,9.2747],[76.6496,9.2596],[76.6442,9.2321],[76.6262,9.2227],[76.6296,9.204],[76.6534,9.1906],[76.661,9.1629],[76.6582,9.1441],[76.641,9.1418],[76.6451,9.0863],[76.7096,9.0743],[76.7232,9.0787],[76.7435,9.0656],[76.7518,9.09],[76.7692,9.1059],[76.7979,9.0997],[76.8133,9.0857],[76.8334,9.0907],[76.8351,9.1047],[76.8598,9.1225],[76.8744,9.1164],[76.9327,9.1085],[76.9133,9.1311],[76.9147,9.1636],[76.984,9.1241],[77.0396,9.1137],[77.0909,9.0875],[77.15,9.0673],[77.1915,9.062],[77.1959,9.0884],[77.2326,9.1179],[77.2518,9.143],[77.2503,9.1902],[77.2668,9.2088],[77.2595,9.2244],[77.2676,9.2624]]]},"properties":{"NAME_1":"Kerala","NAME_2":"Pattanamtitta"}},{"type":"Feature","geometry":{"type":"Polygon","coordinates":[[[77.183,8.7611],[77.1176,8.7986],[77.1057,8.8096],[77.0648,8.829],[77.0354,8.8363],[77.0172,8.8332],[76.9961,8.8004],[77.0121,8.7659],[76.989,8.7624],[76.9788,8.7735],[76.9352,8.763],[76.9178,8.7529],[76.8987,8.7707],[76.9029,8.7838],[76.8853,8.8027],[76.87,8.7973],[76.8382,8.8097],[76.8314,8.8271],[76.7707,8.8488],[76.7648,8.8339],[76.778,8.8191],[76.776,8.8007],[76.7573,8.8005],[76.7438,8.7871],[76.7061,8.7938],[76.6766,8.7757],[76.7046,8.7343],[76.7857,8.6324],[76.8893,8.5046],[76.9632,8.4174],[76.9788,8.3815],[77.0163,8.3565],[77.0907,8.2975],[77.1047,8.3016],[77.1219,8.3229],[77.1498,8.3219],[77.1568,8.3452],[77.1348,8.3785],[77.1537,8.3774],[77.1798,8.4091],[77.1887,8.4347],[77.2095,8.4377],[77.1909,8.4882],[77.2064,8.5044],[77.2226,8.4883],[77.2475,8.5014],[77.2652,8.5374],[77.2515,8.571],[77.2284,8.5978],[77.2283,8.6129],[77.1985,8.6411],[77.1793,8.6996],[77.167,8.7076],[77.1553,8.7376],[77.1765,8.735],[77.183,8.7611]]]},"properties":{"NAME_1":"Kerala","NAME_2":"Thiruvananthapuram"}},{"type":"Feature","geometry":{"type":"Polygon","coordinates":[[[76.8268,10.3303],[76.8062,10.34],[76.7936,10.3301],[76.743,10.3286],[76.7455,10.3536],[76.7154,10.3645],[76.6749,10.3554],[76.6508,10.376],[76.6102,10.3738],[76.5898,10.4118],[76.5751,10.4279],[76.5477,10.4263],[76.5181,10.4558],[76.4697,10.4771],[76.4414,10.5134],[76.4244,10.5248],[76.43,10.547],[76.4013,10.5711],[76.3954,10.5914],[76.4156,10.6001],[76.4098,10.6211],[76.4201,10.6431],[76.4423,10.6697],[76.4571,10.7123],[76.4698,10.725],[76.4608,10.7442],[76.3862,10.7406],[76.3783,10.7571],[76.3556,10.7565],[76.3469,10.737],[76.316,10.7375],[76.2788,10.7501],[76.2427,10.7403],[76.2361,10.7611],[76.2146,10.7743],[76.1951,10.7613],[76.1941,10.7466],[76.1544,10.6979],[76.1233,10.7135],[76.1163,10.7032],[76.0901,10.7176],[76.0615,10.7208],[76.047,10.7065],[76.0098,10.6866],[75.9953,10.6849],[75.9614,10.6869],[75.9571,10.6839],[75.9996,10.589],[76.0796,10.4276],[76.1132,10.3426],[76.1365,10.259],[76.1599,10.1885],[76.1774,10.1836],[76.1822,10.1852],[76.1939,10.1887],[76.2111,10.2],[76.2261,10.1957],[76.2507,10.1932],[76.2536,10.1893],[76.2657,10.1673],[76.2923,10.1766],[76.3038,10.1737],[76.3025,10.1985],[76.3196,10.2015],[76.3331,10.2256],[76.3616,10.2329],[76.4066,10.2886],[76.5301,10.2808],[76.5418,10.2754],[76.5676,10.2943],[76.5925,10.2744],[76.614,10.2662],[76.6347,10.2735],[76.6771,10.2595],[76.7381,10.2701],[76.7492,10.2618],[76.7942,10.2776],[76.8271,10.276],[76.8667,10.2608],[76.8918,10.2431],[76.8623,10.2671],[76.8621,10.2825],[76.8319,10.2838],[76.8197,10.2952],[76.8268,10.3303]]]},"properties":{"NAME_1":"Kerala","NAME_2":"Thrissur"}},{"type":"Feature","geometry":{"type":"Polygon","coordinates":[[[76.1079,11.9706],[76.0728,11.9613],[76.0296,11.9328],[75.9763,11.925],[75.9484,11.9339],[75.9252,11.9329],[75.9194,11.9147],[75.9316,11.8877],[75.9237,11.8735],[75.9231,11.8371],[75.8958,11.8349],[75.8026,11.8488],[75.7849,11.8296],[75.7917,11.8085],[75.7722,11.7919],[75.7875,11.7833],[75.7803,11.7531],[75.8391,11.7063],[75.8453,11.6935],[75.8907,11.6926],[75.9103,11.6819],[75.8982,11.6601],[75.8919,11.6133],[75.9022,11.5965],[75.951,11.5732],[75.9523,11.555],[75.9841,11.5267],[76.0107,11.5083],[76.0352,11.4949],[76.0417,11.4987],[76.0516,11.5024],[76.068,11.5136],[76.0844,11.4914],[76.0835,11.482],[76.0978,11.4736],[76.1276,11.4491],[76.1353,11.4427],[76.1769,11.4645],[76.1755,11.4756],[76.1945,11.4999],[76.2332,11.5187],[76.243,11.5242],[76.2257,11.5644],[76.271,11.5929],[76.2906,11.5806],[76.2979,11.5643],[76.3286,11.5886],[76.3356,11.5783],[76.3707,11.5935],[76.3801,11.6224],[76.4213,11.6251],[76.4342,11.6335],[76.4235,11.6593],[76.4022,11.6831],[76.4031,11.7068],[76.419,11.7215],[76.4077,11.7533],[76.3723,11.7362],[76.356,11.7399],[76.335,11.7306],[76.3105,11.7439],[76.3,11.7762],[76.2751,11.8008],[76.2444,11.7953],[76.2185,11.8],[76.2055,11.8196],[76.2034,11.8491],[76.184,11.8638],[76.139,11.8571],[76.1256,11.8448],[76.1081,11.8512],[76.1079,11.9706]]]},"properties":{"NAME_1":"Kerala","NAME_2":"Wayanad"}}]}