{"type":"FeatureCollection","features":[{"type":"Feature","geometry":{"type":"Polygon","coordinates":[[[93.8777,24.5571],[93.8734,24.5757],[93.8906,24.5905],[93.8577,24.6141],[93.8506,24.6292],[93.8219,24.6117],[93.8076,24.6268],[93.8021,24.6734],[93.838,24.6846],[93.8782,24.6846],[93.8926,24.6947],[93.8941,24.7149],[93.8253,24.7243],[93.8067,24.7356],[93.7752,24.742],[93.7664,24.6892],[93.7535,24.6867],[93.7534,24.6527],[93.726,24.5962],[93.7345,24.5522],[93.7341,24.5036],[93.7212,24.4886],[93.7096,24.4484],[93.7153,24.427],[93.7595,24.4031],[93.8109,24.3941],[93.8037,24.3665],[93.8451,24.3576],[93.8536,24.3139],[93.8824,24.2908],[93.8679,24.3153],[93.8564,24.3165],[93.8511,24.4166],[93.8425,24.4279],[93.8583,24.4467],[93.8584,24.4618],[93.8858,24.4932],[93.8719,24.5431],[93.8777,24.5571]]]},"properties":{"NAME_1":"Manipur","NAME_2":"Bishnupur"}},{"type":"Feature","geometry":{"type":"Polygon","coordinates":[[[94.409,24.4896],[94.3925,24.4961],[94.3689,24.525],[94.3763,24.5561],[94.3389,24.561],[94.2877,24.6072],[94.2735,24.6019],[94.2568,24.6215],[94.2055,24.632],[94.1792,24.641],[94.1523,24.6239],[94.1535,24.6089],[94.1255,24.6108],[94.1043,24.565],[94.0743,24.5599],[94.0914,24.5232],[94.0565,24.5224],[94.0384,24.5074],[94.053,24.4753],[94.0242,24.4493],[93.9876,24.473],[93.9654,24.4104],[93.954,24.4129],[93.9209,24.3737],[93.9136,24.3425],[93.9421,24.3],[93.9135,24.254],[93.8861,24.2461],[93.8824,24.2908],[93.8663,24.2677],[93.8817,24.2297],[93.8545,24.2171],[93.8387,24.1882],[93.8144,24.172],[93.8029,24.1494],[93.7829,24.1431],[93.7797,24.11],[93.7628,24.0546],[93.7486,24.0344],[93.7466,24.0085],[93.7622,24.0041],[93.7735,23.9824],[93.7935,23.9675],[93.8081,23.9331],[93.8662,23.9379],[93.8961,23.9548],[93.921,23.9568],[93.9538,23.9502],[93.9694,23.9339],[94.0177,23.934],[94.0432,23.918],[94.0511,23.9004],[94.0961,23.8936],[94.1226,23.8427],[94.1393,23.8559],[94.1615,23.8528],[94.1682,23.8891],[94.1695,23.9287],[94.196,23.9377],[94.1945,23.965],[94.2453,24.0442],[94.2597,24.0896],[94.258,24.1429],[94.2627,24.1677],[94.2837,24.1799],[94.2951,24.2399],[94.3132,24.2541],[94.328,24.2924],[94.3263,24.3389],[94.3518,24.342],[94.3861,24.3846],[94.3653,24.3997],[94.3992,24.4131],[94.4075,24.4312],[94.409,24.4896]]]},"properties":{"NAME_1":"Manipur","NAME_2":"Chandel"}},{"type":"Feature","geometry":{"type":"Polygon","coordinates":[[[93.7018,24.6163],[93.6631,24.6113],[93.6516,24.5949],[93.6244,24.605],[93.6085,24.5748],[93.5914,24.5723],[93.5728,24.5949],[93.5441,24.5823],[93.5341,24.5597],[93.514,24.5685],[93.494,24.5546],[93.4668,24.5709],[93.4496,24.542],[93.431,24.5583],[93.3493,24.5783],[93.3379,24.5694],[93.2892,24.5693],[93.2621,24.5265],[93.2363,24.5139],[93.2235,24.4975],[93.2077,24.5163],[93.1733,24.5313],[93.1847,24.5489],[93.2119,24.5704],[93.2247,24.6408],[93.2074,24.6709],[93.2174,24.6973],[93.2074,24.7061],[93.1613,24.7122],[93.1421,24.7013],[93.1206,24.6653],[93.1206,24.6146],[93.1544,24.5885],[93.1362,24.5641],[93.107,24.5836],[93.0973,24.5825],[93.0871,24.5712],[93.0712,24.5761],[93.0727,24.5611],[93.0513,24.5372],[93.0528,24.5196],[93.04,24.5108],[93.0457,24.4818],[93.0379,24.4612],[93.0322,24.4289],[93.0392,24.4111],[93.016,24.4025],[93.0064,24.4119],[93.0244,24.3905],[93.0221,24.3742],[93.0216,24.3468],[93.0434,24.3434],[93.0352,24.3184],[93.0239,24.3007],[93.0111,24.2881],[93.0139,24.2717],[93.0067,24.254],[93.0266,24.2326],[93.0194,24.2251],[93.0223,24.2101],[93.003,24.1975],[93.0033,24.174],[93.0055,24.1632],[92.9911,24.1503],[92.9909,24.1469],[92.9894,24.1318],[92.9776,24.1264],[92.9893,24.1163],[93.0097,24.11],[93.0141,24.1045],[93.0273,24.1036],[93.0347,24.0992],[93.0537,24.0907],[93.0795,24.103],[93.0852,24.0904],[93.1023,24.074],[93.1038,24.0526],[93.1066,24.0489],[93.1123,24.0552],[93.1208,24.0603],[93.1479,24.0881],[93.1585,24.0838],[93.167,24.0612],[93.1698,24.055],[93.1983,24.0525],[93.2167,24.0501],[93.2253,24.074],[93.2224,24.0815],[93.2267,24.0865],[93.248,24.0853],[93.2637,24.0678],[93.2623,24.0577],[93.2567,24.0288],[93.2553,24.0238],[93.2768,24.0402],[93.2882,24.0515],[93.3374,24.0534],[93.334,24.0901],[93.3538,24.0977],[93.4154,24.0792],[93.4329,24.0617],[93.444,24.0278],[93.467,23.9993],[93.4722,23.9707],[93.5151,23.9472],[93.5305,23.9608],[93.6093,23.9734],[93.6209,23.9912],[93.6163,24.0107],[93.6524,24.0135],[93.74,23.9992],[93.7466,24.0085],[93.7486,24.0344],[93.7628,24.0546],[93.7797,24.11],[93.7829,24.1431],[93.8029,24.1494],[93.8144,24.172],[93.8387,24.1882],[93.8545,24.2171],[93.8817,24.2297],[93.8663,24.2677],[93.8824,24.2908],[93.8536,24.3139],[93.8451,24.3576],[93.8037,24.3665],[93.8109,24.3941],[93.7595,24.4031],[93.7153,24.427],[93.7096,24.4484],[93.7212,24.4886],[93.7341,24.5036],[93.7345,24.5522],[93.726,24.5962],[93.7018,24.6163]]]},"properties":{"NAME_1":"Manipur","NAME_2":"Churachandpur"}},{"type":"Feature","geometry":{"type":"MultiPolygon","coordinates":[[[[93.1613,24.7122],[93.1457,24.7147],[93.18,24.7864],[93.2058,24.7827],[93.2244,24.7979],[93.2444,24.857],[93.2143,24.8619],[93.2001,24.8578],[93.1986,24.8527],[93.2016,24.8439],[93.1944,24.8439],[93.1987,24.8402],[93.2016,24.8402],[93.1958,24.8376],[93.193,24.8364],[93.193,24.8263],[93.1959,24.8163],[93.1974,24.8113],[93.1945,24.8088],[93.1816,24.8049],[93.1759,24.7974],[93.1529,24.7935],[93.1443,24.7998],[93.1399,24.8048],[93.127,24.8085],[93.1213,24.8085],[93.1198,24.8173],[93.1112,24.8123],[93.1056,24.7846],[93.1028,24.7733],[93.1015,24.7494],[93.1044,24.7369],[93.0944,24.7243],[93.0944,24.7205],[93.0888,24.7092],[93.0759,24.7104],[93.0903,24.6929],[93.0932,24.6765],[93.1047,24.6753],[93.0976,24.6628],[93.0977,24.659],[93.0963,24.6527],[93.0848,24.6477],[93.0822,24.6276],[93.0794,24.6213],[93.0867,24.6138],[93.0868,24.6113],[93.0754,24.5962],[93.0798,24.5925],[93.107,24.5836],[93.1362,24.5641],[93.1544,24.5885],[93.1206,24.6146],[93.1206,24.6653],[93.1421,24.7013],[93.1613,24.7122]]],[[[94.089,24.6981],[94.0632,24.708],[94.0676,24.746],[94.0799,24.7576],[94.0895,24.8118],[94.1122,24.8584],[94.1291,24.9054],[94.0718,24.8849],[94.062,24.9063],[94.0699,24.9458],[94.0484,24.9626],[94.0368,24.9912],[94.0197,24.9596],[94.0015,24.9608],[93.9868,24.9387],[93.956,24.9431],[93.9481,24.9013],[93.9365,24.9013],[93.9028,24.8663],[93.9473,24.8373],[93.9359,24.7541],[93.9443,24.7204],[93.9699,24.7098],[93.9753,24.7284],[94.0017,24.7327],[94.0194,24.7057],[94.0196,24.6758],[94.0776,24.6901],[94.089,24.6981]]]]},"properties":{"NAME_1":"Manipur","NAME_2":"East Imphal"}},{"type":"Feature","geometry":{"type":"Polygon","coordinates":[[[94.2055,24.632],[94.2024,24.6602],[94.1877,24.6766],[94.193,24.7187],[94.1786,24.7404],[94.1859,24.7714],[94.1647,24.8029],[94.1393,24.8098],[94.1556,24.8411],[94.1518,24.8808],[94.1634,24.8911],[94.1752,24.9312],[94.1659,24.9704],[94.1505,25.006],[94.1542,25.0288],[94.1426,25.0538],[94.1222,25.0745],[94.1331,25.1175],[94.1667,25.1413],[94.1777,25.1641],[94.1972,25.1816],[94.2234,25.1876],[94.2475,25.2088],[94.2601,25.2334],[94.3003,25.2547],[94.3277,25.2841],[94.3406,25.3132],[94.382,25.3631],[94.3793,25.3937],[94.4205,25.4771],[94.4343,25.5153],[94.4652,25.5605],[94.4714,25.5884],[94.4934,25.6143],[94.4912,25.6198],[94.474,25.6216],[94.4493,25.6011],[94.4478,25.598],[94.4377,25.5959],[94.43,25.5927],[94.4224,25.576],[94.4264,25.5615],[94.4203,25.5427],[94.3885,25.5366],[94.3647,25.5215],[94.329,25.5084],[94.3135,25.4945],[94.309,25.4938],[94.299,25.5007],[94.2907,25.5095],[94.2867,25.5117],[94.2799,25.5055],[94.2669,25.5024],[94.2521,25.4991],[94.2317,25.4983],[94.223,25.4968],[94.1907,25.5308],[94.1901,25.5346],[94.1918,25.551],[94.1828,25.5533],[94.1518,25.5419],[94.1482,25.5317],[94.1387,25.5237],[94.1061,25.5289],[94.0921,25.5327],[94.095,25.5464],[94.0694,25.559],[94.0647,25.5664],[94.046,25.5809],[94.039,25.5799],[94.0349,25.5815],[94.0334,25.5847],[94.0147,25.5961],[94.0078,25.5875],[94.0074,25.5699],[94.0006,25.5739],[93.9779,25.5662],[93.9726,25.5612],[93.9574,25.5568],[93.9193,25.564],[93.9109,25.5675],[93.892,25.5684],[93.8622,25.5575],[93.8442,25.5617],[93.8335,25.5614],[93.8233,25.5482],[93.8078,25.5445],[93.7795,25.538],[93.7706,25.5403],[93.771,25.536],[93.7682,25.5253],[93.7658,25.4999],[93.7734,25.4978],[93.7972,25.5044],[93.8139,25.4847],[93.809,25.4656],[93.8229,25.4651],[93.8339,25.4315],[93.89,25.4275],[93.923,25.4014],[93.8941,25.3554],[93.9,25.3373],[93.9218,25.3331],[93.9565,25.2913],[93.9271,25.276],[93.9064,25.276],[93.8563,25.233],[93.8314,25.2256],[93.7992,25.1741],[93.7785,25.1545],[93.797,25.117],[93.8052,25.0652],[93.8208,25.0216],[93.8009,25.0211],[93.7955,24.9671],[93.7271,24.938],[93.7068,24.9154],[93.7114,24.8965],[93.7319,24.8764],[93.7178,24.825],[93.6963,24.8187],[93.6663,24.7973],[93.6885,24.7116],[93.7018,24.6163],[93.726,24.5962],[93.7534,24.6527],[93.7535,24.6867],[93.7664,24.6892],[93.7752,24.742],[93.7967,24.7793],[93.7852,24.8095],[93.7895,24.8233],[93.8124,24.841],[93.8095,24.8687],[93.8295,24.8951],[93.8492,24.9557],[93.8673,24.9609],[93.9022,25.0359],[93.923,25.0603],[93.9767,25.0801],[93.9859,25.0602],[93.9593,25.0318],[93.9163,25.0053],[93.9131,24.9761],[93.9275,24.9593],[93.9223,24.9077],[93.9365,24.9013],[93.9481,24.9013],[93.956,24.9431],[93.9868,24.9387],[94.0015,24.9608],[94.0197,24.9596],[94.0368,24.9912],[94.0484,24.9626],[94.0699,24.9458],[94.062,24.9063],[94.0718,24.8849],[94.1291,24.9054],[94.1122,24.8584],[94.0895,24.8118],[94.0799,24.7576],[94.0676,24.746],[94.0632,24.708],[94.089,24.6981],[94.1231,24.7135],[94.1282,24.6884],[94.1033,24.6744],[94.117,24.6429],[94.1349,24.6266],[94.1523,24.6239],[94.1792,24.641],[94.2055,24.632]]]},"properties":{"NAME_1":"Manipur","NAME_2":"Senapati"}},{"type":"Feature","geometry":{"type":"Polygon","coordinates":[[[93.7018,24.6163],[93.6885,24.7116],[93.6663,24.7973],[93.6963,24.8187],[93.7178,24.825],[93.7319,24.8764],[93.7114,24.8965],[93.7068,24.9154],[93.7271,24.938],[93.7955,24.9671],[93.8009,25.0211],[93.8208,25.0216],[93.8052,25.0652],[93.797,25.117],[93.7785,25.1545],[93.7992,25.1741],[93.8314,25.2256],[93.8563,25.233],[93.9064,25.276],[93.9271,25.276],[93.9565,25.2913],[93.9218,25.3331],[93.9,25.3373],[93.8941,25.3554],[93.923,25.4014],[93.89,25.4275],[93.8339,25.4315],[93.8229,25.4651],[93.809,25.4656],[93.7984,25.4539],[93.7902,25.4434],[93.7845,25.4319],[93.7811,25.4247],[93.7603,25.4141],[93.7401,25.3952],[93.7116,25.3581],[93.7,25.3594],[93.6839,25.3296],[93.6656,25.2984],[93.6319,25.2429],[93.608,25.2021],[93.5903,25.2199],[93.5881,25.2222],[93.5782,25.2257],[93.5631,25.2466],[93.5472,25.2485],[93.5206,25.2488],[93.5051,25.2441],[93.5108,25.2756],[93.5044,25.2758],[93.4875,25.2759],[93.4726,25.2854],[93.4751,25.2997],[93.4656,25.2991],[93.4448,25.2923],[93.4233,25.2722],[93.4121,25.2635],[93.3887,25.2459],[93.3848,25.2257],[93.3706,25.2036],[93.3622,25.1956],[93.3531,25.1818],[93.3488,25.1572],[93.3486,25.1535],[93.3461,25.1299],[93.3492,25.1254],[93.3405,25.1144],[93.3358,25.0958],[93.3236,25.0917],[93.3223,25.0884],[93.3108,25.0726],[93.3061,25.0644],[93.3046,25.048],[93.3024,25.0519],[93.2993,25.0505],[93.2869,25.0468],[93.2678,25.0488],[93.2629,25.0418],[93.2638,25.0359],[93.2556,25.0287],[93.2538,25.0214],[93.2517,25.016],[93.2467,25.0042],[93.2475,25.0033],[93.2487,25.0029],[93.2494,25.0029],[93.2506,25.0032],[93.2512,25.0035],[93.2535,25.0064],[93.2552,25.0042],[93.2571,25.0032],[93.2577,25.0035],[93.2625,25.006],[93.2571,25.0009],[93.2557,25.0022],[93.2571,24.9985],[93.2533,24.9864],[93.2515,24.9814],[93.2529,24.9751],[93.2632,24.9664],[93.2608,24.9539],[93.2624,24.9514],[93.2492,24.9551],[93.2498,24.9426],[93.24,24.9376],[93.2472,24.9363],[93.2445,24.9301],[93.2419,24.915],[93.2434,24.9075],[93.2434,24.9037],[93.2362,24.9025],[93.2305,24.8949],[93.2291,24.8848],[93.2291,24.8773],[93.2162,24.8647],[93.2143,24.8619],[93.2444,24.857],[93.2244,24.7979],[93.2058,24.7827],[93.18,24.7864],[93.1457,24.7147],[93.1613,24.7122],[93.2074,24.7061],[93.2174,24.6973],[93.2074,24.6709],[93.2247,24.6408],[93.2119,24.5704],[93.1847,24.5489],[93.1733,24.5313],[93.2077,24.5163],[93.2235,24.4975],[93.2363,24.5139],[93.2621,24.5265],[93.2892,24.5693],[93.3379,24.5694],[93.3493,24.5783],[93.431,24.5583],[93.4496,24.542],[93.4668,24.5709],[93.494,24.5546],[93.514,24.5685],[93.5341,24.5597],[93.5441,24.5823],[93.5728,24.5949],[93.5914,24.5723],[93.6085,24.5748],[93.6244,24.605],[93.6516,24.5949],[93.6631,24.6113],[93.7018,24.6163]]]},"properties":{"NAME_1":"Manipur","NAME_2":"Tamenglong"}},{"type":"Feature","geometry":{"type":"Polygon","coordinates":[[[94.089,24.6981],[94.0776,24.6901],[94.0196,24.6758],[94.0194,24.7057],[94.0017,24.7327],[93.9753,24.7284],[93.9699,24.7098],[93.9443,24.7204],[93.9098,24.6999],[93.9111,24.677],[93.9369,24.6669],[93.9224,24.6416],[93.9023,24.6329],[93.915,24.6115],[93.9135,24.5745],[93.9035,24.5621],[93.8777,24.5571],[93.8719,24.5431],[93.8858,24.4932],[93.8584,24.4618],[93.8583,24.4467],[93.8425,24.4279],[93.8511,24.4166],[93.8564,24.3165],[93.8679,24.3153],[93.8824,24.2908],[93.8861,24.2461],[93.9135,24.254],[93.9421,24.3],[93.9136,24.3425],[93.9209,24.3737],[93.954,24.4129],[93.9654,24.4104],[93.9876,24.473],[94.0242,24.4493],[94.053,24.4753],[94.0384,24.5074],[94.0565,24.5224],[94.0914,24.5232],[94.0743,24.5599],[94.1043,24.565],[94.1255,24.6108],[94.1535,24.6089],[94.1523,24.6239],[94.1349,24.6266],[94.117,24.6429],[94.1033,24.6744],[94.1282,24.6884],[94.1231,24.7135],[94.089,24.6981]]]},"properties":{"NAME_1":"Manipur","NAME_2":"Thoubal"}},{"type":"Feature","geometry":{"type":"Polygon","coordinates":[[[94.5869,25.6466],[94.5768,25.6528],[94.5874,25.6718],[94.5881,25.6773],[94.59,25.6812],[94.5871,25.6919],[94.568,25.6922],[94.5522,25.6674],[94.5447,25.6575],[94.5315,25.6501],[94.5282,25.6443],[94.5145,25.6305],[94.5109,25.6299],[94.5054,25.617],[94.4999,25.6188],[94.4934,25.6143],[94.4714,25.5884],[94.4652,25.5605],[94.4343,25.5153],[94.4205,25.4771],[94.3793,25.3937],[94.382,25.3631],[94.3406,25.3132],[94.3277,25.2841],[94.3003,25.2547],[94.2601,25.2334],[94.2475,25.2088],[94.2234,25.1876],[94.1972,25.1816],[94.1777,25.1641],[94.1667,25.1413],[94.1331,25.1175],[94.1222,25.0745],[94.1426,25.0538],[94.1542,25.0288],[94.1505,25.006],[94.1659,24.9704],[94.1752,24.9312],[94.1634,24.8911],[94.1518,24.8808],[94.1556,24.8411],[94.1393,24.8098],[94.1647,24.8029],[94.1859,24.7714],[94.1786,24.7404],[94.193,24.7187],[94.1877,24.6766],[94.2024,24.6602],[94.2055,24.632],[94.2568,24.6215],[94.2735,24.6019],[94.2877,24.6072],[94.3389,24.561],[94.3763,24.5561],[94.3689,24.525],[94.3925,24.4961],[94.409,24.4896],[94.4296,24.4933],[94.4655,24.5756],[94.4853,24.5822],[94.5208,24.6168],[94.5507,24.6749],[94.551,24.7165],[94.591,24.7109],[94.6108,24.7221],[94.6333,24.765],[94.6254,24.7848],[94.6412,24.8487],[94.6568,24.8736],[94.6921,24.8999],[94.7059,24.9343],[94.7191,24.9425],[94.7019,24.9684],[94.7132,24.9937],[94.7422,25.0252],[94.7507,25.0635],[94.7457,25.1366],[94.6478,25.1744],[94.6309,25.1904],[94.6017,25.1952],[94.5854,25.2157],[94.5993,25.2669],[94.5987,25.2891],[94.6221,25.3368],[94.6312,25.3873],[94.6492,25.4064],[94.6762,25.4206],[94.6824,25.4597],[94.6698,25.4554],[94.633,25.4657],[94.5949,25.4881],[94.5872,25.4925],[94.5574,25.5128],[94.5613,25.5307],[94.5635,25.5397],[94.5629,25.5495],[94.5614,25.5605],[94.5604,25.568],[94.5615,25.5783],[94.5651,25.6026],[94.5728,25.6113],[94.5785,25.6263],[94.5905,25.6403],[94.5869,25.6466]]]},"properties":{"NAME_1":"Manipur","NAME_2":"Ukhrul"}},{"type":"Feature","geometry":{"type":"Polygon","coordinates":[[[93.9365,24.9013],[93.9223,24.9077],[93.9275,24.9593],[93.9131,24.9761],[93.9163,25.0053],[93.9593,25.0318],[93.9859,25.0602],[93.9767,25.0801],[93.923,25.0603],[93.9022,25.0359],[93.8673,24.9609],[93.8492,24.9557],[93.8295,24.8951],[93.8095,24.8687],[93.8124,24.841],[93.7895,24.8233],[93.7852,24.8095],[93.7967,24.7793],[93.7752,24.742],[93.8067,24.7356],[93.8253,24.7243],[93.8941,24.7149],[93.8926,24.6947],[93.8782,24.6846],[93.838,24.6846],[93.8021,24.6734],[93.8076,24.6268],[93.8219,24.6117],[93.8506,24.6292],[93.8577,24.6141],[93.8906,24.5905],[93.8734,24.5757],[93.8777,24.5571],[93.9035,24.5621],[93.9135,24.5745],[93.915,24.6115],[93.9023,24.6329],[93.9224,24.6416],[93.9369,24.6669],[93.9111,24.677],[93.9098,24.6999],[93.9443,24.7204],[93.9359,24.7541],[93.9473,24.8373],[93.9028,24.8663],[93.9365,24.9013]]]},"properties":{"NAME_1":"Manipur","NAME_2":"West Imphal"}}]}