{"type":"FeatureCollection","features":[{"type":"Feature","geometry":{"type":"Polygon","coordinates":[[[90.1187,25.9613],[90.1109,25.9541],[90.1809,25.901],[90.2243,25.9254],[90.2922,25.9323],[90.3281,25.9305],[90.3605,25.9411],[90.4218,25.9529],[90.4137,25.9224],[90.3816,25.8676],[90.3831,25.8407],[90.3416,25.828],[90.3399,25.8022],[90.391,25.7987],[90.4062,25.7506],[90.441,25.6958],[90.4062,25.6003],[90.4026,25.5513],[90.3438,25.4939],[90.3195,25.4654],[90.335,25.4601],[90.365,25.4543],[90.4047,25.458],[90.4462,25.4509],[90.4757,25.4535],[90.5186,25.433],[90.5516,25.4333],[90.5798,25.4211],[90.6049,25.4246],[90.6445,25.4158],[90.6589,25.452],[90.7017,25.507],[90.7499,25.5476],[90.7664,25.5542],[90.7789,25.5855],[90.7997,25.5817],[90.8491,25.5907],[90.8798,25.6109],[90.8942,25.6358],[90.9082,25.6408],[90.9312,25.677],[90.9516,25.6948],[90.9547,25.7108],[90.9824,25.7445],[90.9434,25.753],[90.9438,25.7704],[91.0008,25.8223],[91.0131,25.8572],[91.0265,25.8666],[91.0292,25.888],[90.9675,25.8872],[90.9579,25.9339],[90.9159,25.9432],[90.9191,25.9133],[90.883,25.9517],[90.8696,25.9424],[90.8204,25.9484],[90.7971,25.9415],[90.7781,25.9083],[90.7405,25.9152],[90.7403,25.9409],[90.7131,25.9522],[90.686,25.9508],[90.6757,25.9365],[90.6273,25.917],[90.629,25.9374],[90.5788,25.958],[90.5714,25.939],[90.5534,25.9291],[90.5255,25.901],[90.5345,25.958],[90.5057,25.996],[90.4773,26.0153],[90.4575,25.9996],[90.4286,25.989],[90.3965,26.0142],[90.365,26.0103],[90.3299,25.9885],[90.3243,25.9744],[90.2866,25.9639],[90.2128,25.9539],[90.1187,25.9613]]]},"properties":{"NAME_1":"Meghalaya","NAME_2":"East Garo Hills"}},{"type":"Feature","geometry":{"type":"Polygon","coordinates":[[[91.8109,25.6554],[91.8009,25.6103],[91.7821,25.5904],[91.7406,25.5744],[91.6971,25.5433],[91.6901,25.5266],[91.6596,25.5286],[91.6547,25.5525],[91.614,25.5425],[91.5826,25.5212],[91.5426,25.5116],[91.5571,25.4533],[91.5569,25.4294],[91.5418,25.4014],[91.5401,25.3743],[91.5261,25.3448],[91.5472,25.3344],[91.5536,25.3051],[91.5448,25.2799],[91.4969,25.2837],[91.4856,25.2653],[91.4393,25.2733],[91.4238,25.2622],[91.4036,25.2639],[91.3864,25.2398],[91.3548,25.2293],[91.364,25.2055],[91.3888,25.1664],[91.4252,25.1658],[91.4741,25.1339],[91.5136,25.1453],[91.5589,25.1493],[91.5803,25.1728],[91.6033,25.16],[91.6071,25.1431],[91.6445,25.1227],[91.679,25.1382],[91.6958,25.1391],[91.7073,25.1588],[91.7381,25.1507],[91.7574,25.1797],[91.7788,25.1686],[91.8374,25.1824],[91.8578,25.1776],[91.9222,25.1871],[91.9732,25.1822],[91.9889,25.1756],[92.018,25.1894],[91.9867,25.2465],[91.9876,25.2763],[92.0238,25.3112],[92.0496,25.3209],[92.087,25.3097],[92.115,25.3087],[92.1218,25.3303],[92.1108,25.3563],[92.1134,25.3802],[92.1038,25.3984],[92.1144,25.4119],[92.0983,25.4545],[92.1112,25.4672],[92.0978,25.4939],[92.115,25.544],[92.1082,25.5628],[92.122,25.5835],[92.1225,25.6047],[92.157,25.6532],[92.153,25.6684],[92.1067,25.6472],[92.0504,25.6412],[91.972,25.6557],[91.9558,25.683],[91.9396,25.6838],[91.9191,25.6625],[91.8927,25.6557],[91.8747,25.6599],[91.8654,25.6437],[91.8109,25.6554]]]},"properties":{"NAME_1":"Meghalaya","NAME_2":"East Khasi Hills"}},{"type":"Feature","geometry":{"type":"Polygon","coordinates":[[[92.1605,25.6733],[92.153,25.6684],[92.157,25.6532],[92.1225,25.6047],[92.122,25.5835],[92.1082,25.5628],[92.115,25.544],[92.0978,25.4939],[92.1112,25.4672],[92.0983,25.4545],[92.1144,25.4119],[92.1038,25.3984],[92.1134,25.3802],[92.1108,25.3563],[92.1218,25.3303],[92.115,25.3087],[92.087,25.3097],[92.0496,25.3209],[92.0238,25.3112],[91.9876,25.2763],[91.9867,25.2465],[92.018,25.1894],[92.0306,25.1821],[92.0656,25.19],[92.132,25.1669],[92.1395,25.1455],[92.192,25.1209],[92.2033,25.1283],[92.2294,25.1007],[92.3101,25.0732],[92.3385,25.0813],[92.356,25.0734],[92.3472,25.0522],[92.4011,25.0415],[92.4259,25.0318],[92.451,25.041],[92.466,25.0572],[92.4843,25.1081],[92.5265,25.1059],[92.5429,25.0996],[92.5252,25.1256],[92.5817,25.1319],[92.6216,25.1177],[92.6441,25.1512],[92.677,25.1822],[92.7471,25.2078],[92.7796,25.2031],[92.8031,25.2215],[92.7722,25.2333],[92.7698,25.2689],[92.7922,25.2868],[92.7844,25.3325],[92.7606,25.3353],[92.7361,25.3738],[92.7181,25.375],[92.6738,25.4171],[92.6505,25.4317],[92.607,25.4185],[92.5982,25.4717],[92.5715,25.4641],[92.5678,25.4808],[92.581,25.4952],[92.6216,25.5158],[92.6447,25.5374],[92.6607,25.5818],[92.6605,25.5851],[92.6535,25.5922],[92.6341,25.5789],[92.6306,25.5707],[92.6261,25.568],[92.6211,25.5683],[92.6026,25.5574],[92.5814,25.5598],[92.5609,25.5827],[92.5563,25.5928],[92.5586,25.609],[92.5445,25.6143],[92.5332,25.6159],[92.5106,25.6172],[92.4979,25.627],[92.4813,25.6639],[92.4654,25.6825],[92.4552,25.6842],[92.443,25.6877],[92.4405,25.6881],[92.4321,25.691],[92.4272,25.7104],[92.4364,25.7156],[92.432,25.732],[92.4133,25.734],[92.4048,25.7437],[92.3835,25.7474],[92.3675,25.7424],[92.3683,25.7404],[92.3481,25.7319],[92.3335,25.7252],[92.3139,25.7247],[92.3061,25.7231],[92.288,25.7159],[92.2705,25.7109],[92.2557,25.7107],[92.2326,25.7151],[92.229,25.7162],[92.2106,25.6959],[92.2016,25.6897],[92.1983,25.6864],[92.1879,25.6834],[92.171,25.6669],[92.1645,25.6693],[92.1605,25.6733]]]},"properties":{"NAME_1":"Meghalaya","NAME_2":"Jaintia Hills"}},{"type":"Feature","geometry":{"type":"Polygon","coordinates":[[[92.3016,26.0765],[92.2737,26.0659],[92.2412,26.0625],[92.212,26.071],[92.1894,26.0669],[92.1783,26.0795],[92.1505,26.0649],[92.1331,26.0459],[92.0934,26.0485],[92.0529,26.0328],[92.0361,26.0394],[91.9911,26.041],[91.9782,26.0259],[91.934,26.0147],[91.9075,26.0271],[91.8832,26.03],[91.8693,26.0569],[91.8758,26.0977],[91.8193,26.1187],[91.7904,26.087],[91.7785,26.0912],[91.7595,26.0713],[91.7313,26.0592],[91.7232,26.0303],[91.7202,25.9541],[91.6693,25.9054],[91.6479,25.9137],[91.6112,25.9399],[91.6301,25.9446],[91.6379,25.9648],[91.6247,25.9859],[91.6322,26.0224],[91.5968,26.0208],[91.57,26.0275],[91.5654,26.0018],[91.5513,25.9749],[91.5185,25.9582],[91.5198,25.9409],[91.5016,25.9208],[91.5012,25.8985],[91.4834,25.8911],[91.4687,25.859],[91.4412,25.8416],[91.4127,25.8539],[91.3425,25.8361],[91.3598,25.8069],[91.3806,25.8013],[91.4186,25.8035],[91.423,25.7936],[91.4589,25.7889],[91.4804,25.7971],[91.5319,25.8022],[91.5875,25.8125],[91.6323,25.8105],[91.66,25.815],[91.6986,25.8054],[91.7246,25.8277],[91.7504,25.8279],[91.7893,25.783],[91.7662,25.7505],[91.7857,25.7326],[91.8092,25.7341],[91.8143,25.7063],[91.8291,25.6895],[91.8282,25.6701],[91.8109,25.6554],[91.8654,25.6437],[91.8747,25.6599],[91.8927,25.6557],[91.9191,25.6625],[91.9396,25.6838],[91.9558,25.683],[91.972,25.6557],[92.0504,25.6412],[92.1067,25.6472],[92.153,25.6684],[92.1605,25.6733],[92.1644,25.6849],[92.161,25.6973],[92.1511,25.7118],[92.151,25.7194],[92.1537,25.7227],[92.1609,25.7263],[92.1655,25.7344],[92.1582,25.7572],[92.156,25.7645],[92.1541,25.7729],[92.1552,25.7786],[92.151,25.7836],[92.1537,25.7955],[92.1531,25.8127],[92.1633,25.8258],[92.181,25.8514],[92.1791,25.8679],[92.2033,25.8901],[92.2129,25.8921],[92.2238,25.9007],[92.225,25.9016],[92.2238,25.9104],[92.2006,25.9082],[92.1832,25.9109],[92.1743,25.9092],[92.1637,25.9118],[92.1602,25.926],[92.1575,25.9393],[92.1608,25.9515],[92.1656,25.9644],[92.1916,25.9852],[92.2074,25.9882],[92.211,25.9947],[92.2152,25.9963],[92.2217,25.9986],[92.2557,26.0289],[92.3016,26.0765]]]},"properties":{"NAME_1":"Meghalaya","NAME_2":"Ri-Bhoi"}},{"type":"Feature","geometry":{"type":"Polygon","coordinates":[[[90.335,25.4601],[90.322,25.422],[90.322,25.3642],[90.305,25.3548],[90.2776,25.3131],[90.2861,25.2828],[90.2813,25.2421],[90.2681,25.2232],[90.2776,25.2001],[90.3181,25.1897],[90.3374,25.1942],[90.3827,25.1631],[90.4164,25.1593],[90.455,25.1444],[90.5081,25.1714],[90.5964,25.1757],[90.6369,25.1722],[90.667,25.1875],[90.6793,25.1705],[90.7044,25.1553],[90.7199,25.1665],[90.7398,25.1623],[90.7854,25.184],[90.8144,25.1625],[90.8535,25.1558],[90.8857,25.1643],[90.9299,25.1606],[90.9705,25.1714],[90.972,25.1914],[90.9503,25.2146],[90.9592,25.2464],[90.926,25.267],[90.9009,25.2966],[90.8574,25.2933],[90.84,25.3124],[90.8419,25.3514],[90.8062,25.368],[90.7649,25.3678],[90.7494,25.3804],[90.7628,25.3977],[90.7574,25.4317],[90.7745,25.4756],[90.7919,25.4861],[90.7902,25.5077],[90.7664,25.5542],[90.7499,25.5476],[90.7017,25.507],[90.6589,25.452],[90.6445,25.4158],[90.6049,25.4246],[90.5798,25.4211],[90.5516,25.4333],[90.5186,25.433],[90.4757,25.4535],[90.4462,25.4509],[90.4047,25.458],[90.365,25.4543],[90.335,25.4601]]]},"properties":{"NAME_1":"Meghalaya","NAME_2":"South Garo Hills"}},{"type":"Feature","geometry":{"type":"Polygon","coordinates":[[[89.8738,25.5493],[89.8715,25.5373],[89.8757,25.5285],[89.8738,25.5136],[89.88,25.4886],[89.8687,25.4764],[89.8551,25.476],[89.8553,25.4597],[89.8398,25.4386],[89.8217,25.3854],[89.8255,25.3492],[89.8606,25.2878],[89.8897,25.2899],[89.9064,25.3074],[89.9486,25.2982],[89.9755,25.3013],[89.9859,25.2824],[90.0055,25.2831],[90.0343,25.267],[90.0569,25.2641],[90.0807,25.2449],[90.1196,25.2255],[90.1749,25.224],[90.1983,25.2131],[90.2776,25.2001],[90.2681,25.2232],[90.2813,25.2421],[90.2861,25.2828],[90.2776,25.3131],[90.305,25.3548],[90.322,25.3642],[90.322,25.422],[90.335,25.4601],[90.3195,25.4654],[90.3438,25.4939],[90.4026,25.5513],[90.4062,25.6003],[90.441,25.6958],[90.4062,25.7506],[90.391,25.7987],[90.3399,25.8022],[90.3416,25.828],[90.3831,25.8407],[90.3816,25.8676],[90.4137,25.9224],[90.4218,25.9529],[90.3605,25.9411],[90.3281,25.9305],[90.2922,25.9323],[90.2243,25.9254],[90.1809,25.901],[90.1109,25.9541],[90.1005,25.9421],[90.0724,25.9193],[90.0522,25.8987],[90.0279,25.8943],[90.0047,25.8787],[90.0214,25.8685],[90.0115,25.8497],[90.0003,25.8486],[89.9974,25.8442],[90.0016,25.8422],[89.9978,25.8397],[89.9759,25.834],[89.968,25.8262],[89.952,25.8109],[89.9526,25.7834],[89.9552,25.7745],[89.9467,25.7647],[89.9337,25.7525],[89.9335,25.7446],[89.9219,25.7392],[89.8954,25.7441],[89.8942,25.7272],[89.9185,25.7027],[89.9211,25.6944],[89.9417,25.6781],[89.947,25.6588],[89.9804,25.6376],[89.9833,25.6267],[89.9993,25.6219],[90.0184,25.6084],[90.0058,25.5884],[89.9954,25.5863],[89.9792,25.5907],[89.9728,25.5746],[89.9494,25.5683],[89.9358,25.5627],[89.9181,25.5626],[89.8738,25.5493]]]},"properties":{"NAME_1":"Meghalaya","NAME_2":"West Garo Hills"}},{"type":"Feature","geometry":{"type":"Polygon","coordinates":[[[91.3425,25.8361],[91.3324,25.8321],[91.2756,25.7469],[91.2554,25.7478],[91.2239,25.7234],[91.1887,25.7389],[91.1799,25.7763],[91.2026,25.8405],[91.1529,25.8501],[91.1208,25.8313],[91.0665,25.8258],[91.0659,25.8464],[91.0491,25.8488],[91.0208,25.8226],[91.0008,25.8223],[90.9438,25.7704],[90.9434,25.753],[90.9824,25.7445],[90.9547,25.7108],[90.9516,25.6948],[90.9312,25.677],[90.9082,25.6408],[90.8942,25.6358],[90.8798,25.6109],[90.8491,25.5907],[90.7997,25.5817],[90.7789,25.5855],[90.7664,25.5542],[90.7902,25.5077],[90.7919,25.4861],[90.7745,25.4756],[90.7574,25.4317],[90.7628,25.3977],[90.7494,25.3804],[90.7649,25.3678],[90.8062,25.368],[90.8419,25.3514],[90.84,25.3124],[90.8574,25.2933],[90.9009,25.2966],[90.926,25.267],[90.9592,25.2464],[90.9503,25.2146],[90.972,25.1914],[90.9705,25.1714],[91.0709,25.1914],[91.0825,25.1975],[91.1383,25.1936],[91.199,25.1996],[91.2557,25.1951],[91.2738,25.2043],[91.3077,25.183],[91.3406,25.1728],[91.368,25.1756],[91.3888,25.1664],[91.364,25.2055],[91.3548,25.2293],[91.3864,25.2398],[91.4036,25.2639],[91.4238,25.2622],[91.4393,25.2733],[91.4856,25.2653],[91.4969,25.2837],[91.5448,25.2799],[91.5536,25.3051],[91.5472,25.3344],[91.5261,25.3448],[91.5401,25.3743],[91.5418,25.4014],[91.5569,25.4294],[91.5571,25.4533],[91.5426,25.5116],[91.5826,25.5212],[91.614,25.5425],[91.6547,25.5525],[91.6596,25.5286],[91.6901,25.5266],[91.6971,25.5433],[91.7406,25.5744],[91.7821,25.5904],[91.8009,25.6103],[91.8109,25.6554],[91.8282,25.6701],[91.8291,25.6895],[91.8143,25.7063],[91.8092,25.7341],[91.7857,25.7326],[91.7662,25.7505],[91.7893,25.783],[91.7504,25.8279],[91.7246,25.8277],[91.6986,25.8054],[91.66,25.815],[91.6323,25.8105],[91.5875,25.8125],[91.5319,25.8022],[91.4804,25.7971],[91.4589,25.7889],[91.423,25.7936],[91.4186,25.8035],[91.3806,25.8013],[91.3598,25.8069],[91.3425,25.8361]]]},"properties":{"NAME_1":"Meghalaya","NAME_2":"West Khasi Hills"}}]}