{"type":"FeatureCollection","features":[{"type":"Feature","geometry":{"type":"Polygon","coordinates":[[[93.0005,24.4033],[92.9803,24.4097],[92.9603,24.3959],[92.9357,24.3955],[92.9115,24.4129],[92.8964,24.3943],[92.8912,24.3594],[92.8619,24.3167],[92.8744,24.2847],[92.8651,24.272],[92.8642,24.2441],[92.8916,24.2449],[92.9035,24.2245],[92.8958,24.1761],[92.8756,24.1417],[92.8799,24.1317],[92.8619,24.1081],[92.8576,24.0741],[92.8488,24.0579],[92.8484,24.0296],[92.7859,24.0206],[92.7246,23.9775],[92.6898,23.9825],[92.6848,23.9692],[92.6598,23.9592],[92.6283,23.9561],[92.6279,23.9349],[92.6456,23.9318],[92.6587,23.9223],[92.6639,23.9108],[92.6463,23.8984],[92.6422,23.8945],[92.644,23.883],[92.6578,23.8475],[92.6655,23.838],[92.6623,23.8344],[92.6526,23.833],[92.6459,23.8258],[92.6471,23.8223],[92.6492,23.8127],[92.634,23.8101],[92.6307,23.7952],[92.6423,23.7946],[92.6433,23.7856],[92.6358,23.7699],[92.6306,23.7647],[92.6508,23.7199],[92.6584,23.7138],[92.6646,23.7133],[92.6574,23.6843],[92.6477,23.6678],[92.6467,23.6419],[92.6483,23.6399],[92.656,23.6309],[92.6767,23.6216],[92.6752,23.6073],[92.6731,23.6024],[92.6576,23.5956],[92.6542,23.5943],[92.6533,23.5865],[92.6616,23.5726],[92.658,23.5565],[92.6473,23.5537],[92.6449,23.5434],[92.6362,23.5359],[92.6485,23.5215],[92.6557,23.5203],[92.6578,23.4902],[92.6571,23.4872],[92.6591,23.4543],[92.6619,23.4313],[92.6667,23.4097],[92.6713,23.4017],[92.674,23.385],[92.6801,23.3735],[92.6889,23.3654],[92.692,23.3571],[92.6905,23.3545],[92.6918,23.3439],[92.6911,23.3313],[92.6889,23.3289],[92.6859,23.3262],[92.6895,23.3196],[92.6886,23.3138],[92.6909,23.3117],[92.708,23.3117],[92.7109,23.347],[92.7305,23.3519],[92.7599,23.3401],[92.7902,23.3205],[92.8225,23.3254],[92.8372,23.345],[92.8215,23.39],[92.8264,23.4204],[92.8215,23.436],[92.7804,23.4537],[92.7765,23.5114],[92.7863,23.5486],[92.7716,23.5682],[92.7697,23.5917],[92.7902,23.6181],[92.8059,23.6064],[92.8215,23.5437],[92.8627,23.5173],[92.8773,23.4674],[92.9576,23.5222],[92.9743,23.5193],[92.9909,23.4948],[93.0138,23.4965],[93.0456,23.5252],[93.0323,23.5899],[93.0295,23.6668],[93.0347,23.7118],[93.0292,23.7313],[93.035,23.7542],[93.0253,23.7833],[93.0721,23.7914],[93.1104,23.8175],[93.1325,23.8205],[93.1476,23.8427],[93.1476,23.8699],[93.1648,23.8769],[93.1607,23.9061],[93.1799,23.9464],[93.2,23.9565],[93.2111,23.9736],[93.204,24.0008],[93.1889,24.0169],[93.1784,24.0541],[93.1698,24.055],[93.167,24.0612],[93.1585,24.0838],[93.1479,24.0881],[93.1208,24.0603],[93.1123,24.0552],[93.1066,24.0489],[93.1038,24.0526],[93.1023,24.074],[93.0852,24.0904],[93.0795,24.103],[93.0537,24.0907],[93.0347,24.0992],[93.0273,24.1036],[93.0141,24.1045],[93.0097,24.11],[92.9893,24.1163],[92.9776,24.1264],[92.9894,24.1318],[92.9909,24.1469],[92.9911,24.1503],[93.0055,24.1632],[93.0033,24.174],[93.003,24.1975],[93.0223,24.2101],[93.0194,24.2251],[93.0266,24.2326],[93.0067,24.254],[93.0139,24.2717],[93.0111,24.2881],[93.0239,24.3007],[93.0352,24.3184],[93.0434,24.3434],[93.0318,24.3445],[93.0216,24.3468],[93.0221,24.3742],[93.0244,24.3905],[93.0005,24.4033]]]},"properties":{"NAME_1":"Mizoram","NAME_2":"Aizawl"}},{"type":"Feature","geometry":{"type":"Polygon","coordinates":[[[93.3374,24.0534],[93.2882,24.0515],[93.2768,24.0402],[93.2553,24.0238],[93.2567,24.0288],[93.2623,24.0577],[93.2637,24.0678],[93.248,24.0853],[93.2267,24.0865],[93.2224,24.0815],[93.2253,24.074],[93.2167,24.0501],[93.1983,24.0525],[93.1784,24.0541],[93.1889,24.0169],[93.204,24.0008],[93.2111,23.9736],[93.2,23.9565],[93.1799,23.9464],[93.1607,23.9061],[93.1648,23.8769],[93.1476,23.8699],[93.1476,23.8427],[93.1325,23.8205],[93.1104,23.8175],[93.0721,23.7914],[93.0253,23.7833],[93.035,23.7542],[93.0292,23.7313],[93.0347,23.7118],[93.0295,23.6668],[93.0323,23.5899],[93.0456,23.5252],[93.0138,23.4965],[93.0068,23.4862],[93.0332,23.4716],[93.0399,23.4468],[93.0321,23.4309],[93.0389,23.3958],[93.0547,23.3752],[93.0379,23.3294],[93.0117,23.3069],[93.0127,23.2826],[93.0354,23.2692],[93.0424,23.2468],[93.0572,23.2401],[93.1398,23.25],[93.1555,23.2355],[93.1654,23.1784],[93.1759,23.1551],[93.177,23.1156],[93.1869,23.0572],[93.2062,23.0569],[93.2341,23.0219],[93.2532,23.0065],[93.302,23.0083],[93.3326,23.0357],[93.3582,23.0779],[93.365,23.1167],[93.3936,23.1386],[93.3739,23.1503],[93.3947,23.2243],[93.3784,23.2561],[93.3793,23.3327],[93.3658,23.3545],[93.4142,23.388],[93.3983,23.4113],[93.3972,23.4333],[93.4071,23.4753],[93.4076,23.5085],[93.4276,23.5344],[93.424,23.5694],[93.4331,23.5824],[93.4283,23.6535],[93.4447,23.6824],[93.4169,23.7121],[93.4177,23.7325],[93.4044,23.7751],[93.4098,23.8136],[93.3992,23.8242],[93.3956,23.8873],[93.3987,23.9303],[93.3649,23.946],[93.3516,23.978],[93.3374,23.9828],[93.3422,24.0307],[93.3374,24.0534]]]},"properties":{"NAME_1":"Mizoram","NAME_2":"Champhai"}},{"type":"Feature","geometry":{"type":"Polygon","coordinates":[[[92.8964,24.3943],[92.8629,24.3995],[92.8469,24.3823],[92.8038,24.4217],[92.7652,24.5208],[92.7305,24.4528],[92.7142,24.4053],[92.6917,24.3564],[92.6585,24.3435],[92.645,24.3277],[92.6262,24.3345],[92.6116,24.2533],[92.588,24.2449],[92.5506,24.2459],[92.5329,24.1805],[92.5365,24.173],[92.5327,24.1679],[92.5299,24.1637],[92.5458,24.1431],[92.54,24.1333],[92.5383,24.1276],[92.5447,24.1245],[92.5413,24.1019],[92.5409,24.0975],[92.5414,24.0814],[92.5412,24.0793],[92.5391,24.0559],[92.5399,24.0353],[92.5508,24.0424],[92.551,24.0571],[92.5585,24.0617],[92.559,24.0552],[92.5602,24.0423],[92.5661,24.0417],[92.5716,24.0481],[92.5733,24.0608],[92.5775,24.0684],[92.5776,24.0701],[92.5842,24.0765],[92.589,24.0637],[92.6152,24.0516],[92.6213,24.0359],[92.6231,24.0338],[92.6258,24.0368],[92.6258,24.0395],[92.6391,24.0351],[92.6386,24.0336],[92.6305,24.0283],[92.6269,24.0193],[92.6252,24.008],[92.6322,23.9976],[92.621,23.9635],[92.6283,23.9561],[92.6598,23.9592],[92.6848,23.9692],[92.6898,23.9825],[92.7246,23.9775],[92.7859,24.0206],[92.8484,24.0296],[92.8488,24.0579],[92.8576,24.0741],[92.8619,24.1081],[92.8799,24.1317],[92.8756,24.1417],[92.8958,24.1761],[92.9035,24.2245],[92.8916,24.2449],[92.8642,24.2441],[92.8651,24.272],[92.8744,24.2847],[92.8619,24.3167],[92.8912,24.3594],[92.8964,24.3943]]]},"properties":{"NAME_1":"Mizoram","NAME_2":"Kolasib"}},{"type":"Feature","geometry":{"type":"Polygon","coordinates":[[[92.5301,22.7595],[92.5102,22.745],[92.5121,22.7367],[92.5317,22.6561],[92.5416,22.5541],[92.5576,22.4627],[92.5656,22.3919],[92.5875,22.321],[92.5862,22.2894],[92.5977,22.2572],[92.6048,22.1825],[92.6148,22.1469],[92.5712,22.1323],[92.605,22.0576],[92.6123,21.9803],[92.6379,21.9887],[92.6592,22.0147],[92.6808,22.0142],[92.69,22.041],[92.6838,22.1053],[92.6971,22.0993],[92.7034,22.1538],[92.7328,22.1496],[92.7657,22.1263],[92.7737,22.111],[92.8171,22.0956],[92.8256,22.0797],[92.8524,22.0758],[92.8477,22.1168],[92.8506,22.1364],[92.8439,22.197],[92.8424,22.2345],[92.8382,22.251],[92.8398,22.2815],[92.8394,22.2963],[92.83,22.3112],[92.827,22.3274],[92.8436,22.3335],[92.8709,22.3297],[92.8855,22.3591],[92.9251,22.3909],[92.9455,22.3782],[92.9651,22.38],[92.9624,22.3994],[92.9553,22.4032],[92.9475,22.4329],[92.9484,22.4694],[92.9387,22.4843],[92.9384,22.5007],[92.9422,22.5423],[92.9357,22.5529],[92.9369,22.5571],[92.9153,22.5472],[92.9019,22.5862],[92.8859,22.584],[92.839,22.6262],[92.8101,22.6294],[92.7993,22.6043],[92.803,22.5876],[92.8061,22.5691],[92.8004,22.554],[92.7849,22.5404],[92.78,22.5291],[92.784,22.5003],[92.7791,22.5012],[92.7717,22.4995],[92.7589,22.5223],[92.7575,22.5436],[92.7211,22.5701],[92.7149,22.5822],[92.698,22.5975],[92.6985,22.6224],[92.686,22.6264],[92.6643,22.6217],[92.6492,22.6187],[92.6494,22.6281],[92.6509,22.6373],[92.6403,22.6558],[92.6358,22.6646],[92.6351,22.6687],[92.6241,22.6724],[92.6076,22.6908],[92.6019,22.7059],[92.6005,22.7243],[92.5957,22.7312],[92.5855,22.7506],[92.5823,22.739],[92.5622,22.746],[92.5482,22.7582],[92.5301,22.7595]]]},"properties":{"NAME_1":"Mizoram","NAME_2":"Lawngtlai"}},{"type":"Feature","geometry":{"type":"Polygon","coordinates":[[[92.674,23.385],[92.6228,23.3885],[92.5933,23.4066],[92.588,23.3833],[92.5684,23.3784],[92.5593,23.3713],[92.5507,23.3776],[92.5497,23.3801],[92.5386,23.3808],[92.5127,23.3805],[92.5025,23.39],[92.4982,23.3917],[92.4867,23.3848],[92.4792,23.3916],[92.4665,23.3862],[92.4623,23.3759],[92.4735,23.3287],[92.4754,23.3203],[92.4549,23.2881],[92.4476,23.2867],[92.4273,23.2653],[92.4006,23.2673],[92.3993,23.2673],[92.3962,23.2672],[92.4086,23.2422],[92.3611,23.2375],[92.3616,23.1971],[92.3716,23.1598],[92.3654,23.1103],[92.3859,23.0837],[92.3937,23.0582],[92.3818,23.01],[92.3803,22.9555],[92.3758,22.9399],[92.4188,22.913],[92.4307,22.8897],[92.4583,22.872],[92.4644,22.856],[92.4584,22.8264],[92.4778,22.7983],[92.4914,22.752],[92.5121,22.7367],[92.5102,22.745],[92.5301,22.7595],[92.5482,22.7582],[92.5622,22.746],[92.5823,22.739],[92.5855,22.7506],[92.5957,22.7312],[92.6005,22.7243],[92.6019,22.7059],[92.6076,22.6908],[92.6241,22.6724],[92.6351,22.6687],[92.6358,22.6646],[92.6403,22.6558],[92.6509,22.6373],[92.6494,22.6281],[92.6492,22.6187],[92.6643,22.6217],[92.686,22.6264],[92.6985,22.6224],[92.698,22.5975],[92.7149,22.5822],[92.7211,22.5701],[92.7575,22.5436],[92.7589,22.5223],[92.7717,22.4995],[92.7791,22.5012],[92.784,22.5003],[92.78,22.5291],[92.7849,22.5404],[92.8004,22.554],[92.8061,22.5691],[92.803,22.5876],[92.7993,22.6043],[92.8101,22.6294],[92.839,22.6262],[92.8859,22.584],[92.9019,22.5862],[92.9153,22.5472],[92.9369,22.5571],[92.9432,22.5618],[92.9473,22.5664],[92.954,22.6217],[92.9541,22.6352],[92.9362,22.6659],[92.9392,22.7093],[92.922,22.7307],[92.922,22.7668],[92.9271,22.774],[92.9265,22.7912],[92.9279,22.7921],[92.9441,22.7923],[92.9625,22.7831],[92.9823,22.7602],[92.9932,22.7564],[93.0082,22.7563],[93.0111,22.7594],[93.0143,22.7706],[93.0198,22.7826],[93.0327,22.7944],[93.0337,22.7986],[93.0581,22.7947],[93.0655,22.803],[93.0809,22.8093],[93.0914,22.8106],[93.0857,22.8042],[93.104,22.7871],[93.0993,22.8104],[93.1162,22.8163],[93.1217,22.8628],[93.1383,22.8934],[93.1388,22.9132],[93.1628,22.9135],[93.1425,22.9644],[93.1476,22.9806],[93.1211,23.0128],[93.0858,23.0315],[93.0841,23.0344],[93.0827,23.039],[93.0635,23.0473],[93.0439,23.0525],[93.0465,23.0773],[93.0417,23.0839],[93.0089,23.0901],[92.9972,23.0973],[92.9935,23.1001],[92.9899,23.1029],[92.9867,23.1072],[92.9647,23.1175],[92.965,23.1356],[92.963,23.1429],[92.9597,23.1544],[92.9588,23.1682],[92.9381,23.1787],[92.9402,23.1894],[92.9341,23.1886],[92.9273,23.1895],[92.9193,23.1846],[92.9031,23.1799],[92.8993,23.1808],[92.8861,23.1714],[92.877,23.1744],[92.8699,23.1755],[92.869,23.1794],[92.864,23.189],[92.8604,23.1984],[92.8623,23.2178],[92.8531,23.2261],[92.8518,23.2316],[92.8506,23.234],[92.8508,23.2392],[92.843,23.2419],[92.8371,23.2481],[92.826,23.2439],[92.8213,23.231],[92.82,23.2289],[92.7848,23.2294],[92.7812,23.231],[92.7702,23.2349],[92.7682,23.2333],[92.7582,23.2342],[92.7508,23.2354],[92.7465,23.2366],[92.7399,23.2395],[92.7261,23.2412],[92.7271,23.2306],[92.729,23.2127],[92.7259,23.1974],[92.725,23.1952],[92.718,23.1935],[92.7076,23.1972],[92.7091,23.2099],[92.6984,23.2188],[92.6948,23.2629],[92.693,23.2716],[92.6889,23.2818],[92.6933,23.3095],[92.6909,23.3117],[92.6886,23.3138],[92.6895,23.3196],[92.6859,23.3262],[92.6889,23.3289],[92.6911,23.3313],[92.6918,23.3439],[92.6905,23.3545],[92.692,23.3571],[92.6889,23.3654],[92.6801,23.3735],[92.674,23.385]]]},"properties":{"NAME_1":"Mizoram","NAME_2":"Lunglei"}},{"type":"Feature","geometry":{"type":"Polygon","coordinates":[[[92.4225,24.2482],[92.3141,24.2526],[92.3105,24.2513],[92.2966,24.2517],[92.2953,24.248],[92.2949,24.2407],[92.2968,24.2381],[92.2963,24.2338],[92.2995,24.2316],[92.2976,24.2272],[92.3012,24.2245],[92.3034,24.2216],[92.3136,24.2211],[92.3097,24.2148],[92.3161,24.2132],[92.3202,24.2043],[92.3251,24.199],[92.3295,24.1912],[92.327,24.1861],[92.3299,24.1747],[92.3318,24.1636],[92.3344,24.1508],[92.3363,24.1444],[92.3353,24.1436],[92.3323,24.144],[92.3292,24.1399],[92.3282,24.1352],[92.3282,24.1246],[92.3317,24.1131],[92.3293,24.1103],[92.3323,24.1053],[92.3297,24.1012],[92.3236,24.0733],[92.3233,24.0696],[92.3168,24.0668],[92.3217,24.0587],[92.3203,24.0512],[92.3153,24.0487],[92.3172,24.0375],[92.3193,24.0313],[92.3167,24.028],[92.3217,24.0188],[92.3189,24.0192],[92.3172,24.0176],[92.3291,23.9897],[92.3196,23.9753],[92.3126,23.9702],[92.3133,23.961],[92.3126,23.9575],[92.3134,23.9433],[92.3134,23.9345],[92.3212,23.9261],[92.3307,23.9214],[92.3299,23.9055],[92.3236,23.9047],[92.3216,23.8914],[92.3207,23.8912],[92.3192,23.8907],[92.319,23.8892],[92.3183,23.888],[92.3171,23.8841],[92.3163,23.8833],[92.3171,23.8792],[92.3204,23.878],[92.322,23.8698],[92.3182,23.8671],[92.3196,23.8652],[92.3073,23.8639],[92.3006,23.8664],[92.2951,23.8701],[92.2939,23.8713],[92.2878,23.867],[92.2741,23.8436],[92.2771,23.8366],[92.2821,23.8309],[92.2836,23.8242],[92.2834,23.8234],[92.2868,23.8168],[92.2808,23.8151],[92.2623,23.8049],[92.2671,23.7619],[92.2663,23.7387],[92.2949,23.6942],[92.2953,23.6755],[92.28,23.6438],[92.3002,23.6253],[92.2936,23.596],[92.3059,23.5913],[92.318,23.5546],[92.3128,23.5338],[92.3263,23.5083],[92.3408,23.4312],[92.3611,23.41],[92.3598,23.3813],[92.3837,23.3536],[92.3735,23.3213],[92.3877,23.3086],[92.4006,23.2673],[92.4273,23.2653],[92.4476,23.2867],[92.4549,23.2881],[92.4754,23.3203],[92.4735,23.3287],[92.4623,23.3759],[92.4665,23.3862],[92.4792,23.3916],[92.4867,23.3848],[92.4982,23.3917],[92.5025,23.39],[92.5127,23.3805],[92.5386,23.3808],[92.5497,23.3801],[92.5507,23.3776],[92.5593,23.3713],[92.5684,23.3784],[92.588,23.3833],[92.5933,23.4066],[92.6228,23.3885],[92.674,23.385],[92.6713,23.4017],[92.6667,23.4097],[92.6619,23.4313],[92.6591,23.4543],[92.6571,23.4872],[92.6578,23.4902],[92.6557,23.5203],[92.6485,23.5215],[92.6362,23.5359],[92.6449,23.5434],[92.6473,23.5537],[92.658,23.5565],[92.6616,23.5726],[92.6533,23.5865],[92.6542,23.5943],[92.6576,23.5956],[92.6731,23.6024],[92.6752,23.6073],[92.6767,23.6216],[92.656,23.6309],[92.6483,23.6399],[92.6467,23.6419],[92.6477,23.6678],[92.6574,23.6843],[92.6646,23.7133],[92.6584,23.7138],[92.6508,23.7199],[92.6306,23.7647],[92.6358,23.7699],[92.6433,23.7856],[92.6423,23.7946],[92.6307,23.7952],[92.634,23.8101],[92.6492,23.8127],[92.6471,23.8223],[92.6459,23.8258],[92.6526,23.833],[92.6623,23.8344],[92.6655,23.838],[92.6578,23.8475],[92.644,23.883],[92.6422,23.8945],[92.6463,23.8984],[92.6639,23.9108],[92.6587,23.9223],[92.6456,23.9318],[92.6279,23.9349],[92.6283,23.9561],[92.621,23.9635],[92.6322,23.9976],[92.6252,24.008],[92.6269,24.0193],[92.6305,24.0283],[92.6386,24.0336],[92.6391,24.0351],[92.6258,24.0395],[92.6258,24.0368],[92.6231,24.0338],[92.6213,24.0359],[92.6152,24.0516],[92.589,24.0637],[92.5842,24.0765],[92.5776,24.0701],[92.5775,24.0684],[92.5733,24.0608],[92.5716,24.0481],[92.5661,24.0417],[92.5602,24.0423],[92.559,24.0552],[92.5585,24.0617],[92.551,24.0571],[92.5508,24.0424],[92.5399,24.0353],[92.5391,24.0559],[92.5412,24.0793],[92.5414,24.0814],[92.5409,24.0975],[92.5413,24.1019],[92.5447,24.1245],[92.5383,24.1276],[92.54,24.1333],[92.5458,24.1431],[92.5299,24.1637],[92.5327,24.1679],[92.5365,24.173],[92.5329,24.1805],[92.5254,24.1729],[92.5176,24.1762],[92.5136,24.1736],[92.5086,24.1692],[92.5128,24.1626],[92.5025,24.1621],[92.4881,24.1622],[92.4859,24.1622],[92.4849,24.1593],[92.4836,24.1539],[92.4829,24.1527],[92.4806,24.1501],[92.4631,24.1364],[92.4506,24.1437],[92.4439,24.1531],[92.4366,24.1524],[92.4352,24.1626],[92.4345,24.1741],[92.4332,24.1833],[92.419,24.1944],[92.4182,24.2109],[92.4225,24.2482]]]},"properties":{"NAME_1":"Mizoram","NAME_2":"Mamit"}},{"type":"Feature","geometry":{"type":"Polygon","coordinates":[[[93.104,22.7871],[93.0857,22.8042],[93.0914,22.8106],[93.0809,22.8093],[93.0655,22.803],[93.0581,22.7947],[93.0337,22.7986],[93.0327,22.7944],[93.0198,22.7826],[93.0143,22.7706],[93.0111,22.7594],[93.0082,22.7563],[92.9932,22.7564],[92.9823,22.7602],[92.9625,22.7831],[92.9441,22.7923],[92.9279,22.7921],[92.9265,22.7912],[92.9271,22.774],[92.922,22.7668],[92.922,22.7307],[92.9392,22.7093],[92.9362,22.6659],[92.9541,22.6352],[92.954,22.6217],[92.9473,22.5664],[92.9432,22.5618],[92.9357,22.5529],[92.9422,22.5423],[92.9384,22.5007],[92.9387,22.4843],[92.9484,22.4694],[92.9475,22.4329],[92.9553,22.4032],[92.9624,22.3994],[92.9651,22.38],[92.9455,22.3782],[92.9251,22.3909],[92.8855,22.3591],[92.8709,22.3297],[92.8436,22.3335],[92.827,22.3274],[92.83,22.3112],[92.8394,22.2963],[92.8398,22.2815],[92.8382,22.251],[92.8424,22.2345],[92.8439,22.197],[92.8506,22.1364],[92.8477,22.1168],[92.8524,22.0758],[92.8702,22.0608],[92.8747,22.0301],[92.8943,22.012],[92.9158,21.965],[92.9421,22.0183],[92.9666,22.0271],[92.988,21.9829],[93.0092,21.9839],[93.0104,22.0112],[93.0008,22.0556],[93.0145,22.0852],[93.016,22.1055],[93.0656,22.1021],[93.0592,22.1275],[93.0469,22.1387],[93.0549,22.1654],[93.0445,22.1937],[93.077,22.2101],[93.1022,22.1988],[93.1172,22.2013],[93.1307,22.1791],[93.163,22.1823],[93.1471,22.2465],[93.1904,22.2497],[93.2086,22.2611],[93.2019,22.2809],[93.1974,22.38],[93.1908,22.4273],[93.1754,22.4513],[93.1458,22.4585],[93.1345,22.4748],[93.1378,22.4951],[93.1309,22.5261],[93.1117,22.5318],[93.1155,22.5547],[93.1456,22.5861],[93.1364,22.6229],[93.1148,22.6392],[93.1185,22.6515],[93.1035,22.6741],[93.1042,22.6961],[93.0918,22.7093],[93.1127,22.7442],[93.104,22.7871]]]},"properties":{"NAME_1":"Mizoram","NAME_2":"Saiha"}},{"type":"Feature","geometry":{"type":"Polygon","coordinates":[[[93.0138,23.4965],[92.9909,23.4948],[92.9743,23.5193],[92.9576,23.5222],[92.8773,23.4674],[92.8627,23.5173],[92.8215,23.5437],[92.8059,23.6064],[92.7902,23.6181],[92.7697,23.5917],[92.7716,23.5682],[92.7863,23.5486],[92.7765,23.5114],[92.7804,23.4537],[92.8215,23.436],[92.8264,23.4204],[92.8215,23.39],[92.8372,23.345],[92.8225,23.3254],[92.7902,23.3205],[92.7599,23.3401],[92.7305,23.3519],[92.7109,23.347],[92.708,23.3117],[92.6909,23.3117],[92.6933,23.3095],[92.6889,23.2818],[92.693,23.2716],[92.6948,23.2629],[92.6984,23.2188],[92.7091,23.2099],[92.7076,23.1972],[92.718,23.1935],[92.725,23.1952],[92.7259,23.1974],[92.729,23.2127],[92.7271,23.2306],[92.7261,23.2412],[92.7399,23.2395],[92.7465,23.2366],[92.7508,23.2354],[92.7582,23.2342],[92.7682,23.2333],[92.7702,23.2349],[92.7812,23.231],[92.7848,23.2294],[92.82,23.2289],[92.8213,23.231],[92.826,23.2439],[92.8371,23.2481],[92.843,23.2419],[92.8508,23.2392],[92.8506,23.234],[92.8518,23.2316],[92.8531,23.2261],[92.8623,23.2178],[92.8604,23.1984],[92.864,23.189],[92.869,23.1794],[92.8699,23.1755],[92.877,23.1744],[92.8861,23.1714],[92.8993,23.1808],[92.9031,23.1799],[92.9193,23.1846],[92.9273,23.1895],[92.9341,23.1886],[92.9402,23.1894],[92.9381,23.1787],[92.9588,23.1682],[92.9597,23.1544],[92.963,23.1429],[92.965,23.1356],[92.9647,23.1175],[92.9867,23.1072],[92.9899,23.1029],[92.9935,23.1001],[92.9972,23.0973],[93.0089,23.0901],[93.0417,23.0839],[93.0465,23.0773],[93.0439,23.0525],[93.0635,23.0473],[93.0827,23.039],[93.0841,23.0344],[93.0858,23.0315],[93.1211,23.0128],[93.1316,23.0259],[93.1419,23.0606],[93.1678,23.049],[93.1869,23.0572],[93.177,23.1156],[93.1759,23.1551],[93.1654,23.1784],[93.1555,23.2355],[93.1398,23.25],[93.0572,23.2401],[93.0424,23.2468],[93.0354,23.2692],[93.0127,23.2826],[93.0117,23.3069],[93.0379,23.3294],[93.0547,23.3752],[93.0389,23.3958],[93.0321,23.4309],[93.0399,23.4468],[93.0332,23.4716],[93.0068,23.4862],[93.0138,23.4965]]]},"properties":{"NAME_1":"Mizoram","NAME_2":"Serchhip"}}]}