{"type":"FeatureCollection","features":[{"type":"Feature","geometry":{"type":"Polygon","coordinates":[[[93.9608,25.9059],[93.9159,25.8877],[93.8827,25.8459],[93.8517,25.863],[93.8243,25.8471],[93.8188,25.8262],[93.7958,25.8144],[93.7798,25.8463],[93.7983,25.9097],[93.7852,25.9583],[93.773,25.966],[93.7703,25.9535],[93.7684,25.955],[93.7494,25.9421],[93.7518,25.9364],[93.7365,25.9305],[93.7289,25.9284],[93.6977,25.9171],[93.6858,25.9049],[93.7064,25.8533],[93.6905,25.8476],[93.6781,25.8289],[93.6686,25.8246],[93.6485,25.824],[93.6361,25.8137],[93.629,25.8044],[93.627,25.7916],[93.6223,25.7798],[93.6081,25.7769],[93.6056,25.7675],[93.5983,25.7684],[93.5937,25.7643],[93.5882,25.7682],[93.5732,25.7608],[93.5734,25.7566],[93.5701,25.7517],[93.5563,25.7419],[93.5499,25.7324],[93.5498,25.719],[93.5488,25.7147],[93.5436,25.7017],[93.5315,25.694],[93.5379,25.6847],[93.5541,25.6799],[93.5913,25.6774],[93.6244,25.6588],[93.6447,25.6629],[93.6592,25.6888],[93.7353,25.7074],[93.7337,25.6774],[93.7685,25.6516],[93.8316,25.6556],[93.8623,25.6443],[93.9278,25.7139],[93.9578,25.7349],[93.9829,25.7721],[94.0015,25.7907],[94.0128,25.8417],[93.9942,25.8563],[93.9675,25.8643],[93.9861,25.8838],[93.9608,25.9059]]]},"properties":{"NAME_1":"Nagaland","NAME_2":"Dimapur"}},{"type":"Feature","geometry":{"type":"Polygon","coordinates":[[[94.274,26.015],[94.243,26.0087],[94.2195,26.0294],[94.1943,25.9919],[94.1692,25.9786],[94.1366,25.9943],[94.1072,25.9901],[94.0887,25.9694],[94.047,25.9445],[94.0166,25.9404],[93.9827,25.9263],[93.9608,25.9059],[93.9861,25.8838],[93.9675,25.8643],[93.9942,25.8563],[94.0128,25.8417],[94.0015,25.7907],[93.9829,25.7721],[93.9578,25.7349],[93.9278,25.7139],[93.8623,25.6443],[93.8316,25.6556],[93.7685,25.6516],[93.7337,25.6774],[93.7353,25.7074],[93.6592,25.6888],[93.6447,25.6629],[93.6244,25.6588],[93.5913,25.6774],[93.5541,25.6799],[93.5379,25.6847],[93.5315,25.694],[93.5306,25.6927],[93.5259,25.6997],[93.5194,25.686],[93.5102,25.671],[93.5021,25.662],[93.4999,25.6565],[93.4902,25.656],[93.4836,25.6518],[93.4685,25.6438],[93.4594,25.6331],[93.4499,25.6349],[93.4415,25.6348],[93.4391,25.6323],[93.431,25.6292],[93.4225,25.6223],[93.4183,25.6211],[93.4168,25.6149],[93.4068,25.5965],[93.3901,25.5947],[93.3824,25.5848],[93.3827,25.5762],[93.3768,25.5737],[93.3734,25.5692],[93.3544,25.5652],[93.3334,25.549],[93.3317,25.5468],[93.3357,25.5454],[93.3404,25.5373],[93.3576,25.5277],[93.3718,25.5011],[93.3905,25.4856],[93.3904,25.4692],[93.4171,25.4528],[93.435,25.4548],[93.4569,25.4419],[93.4633,25.411],[93.4782,25.3799],[93.4519,25.3442],[93.4567,25.3253],[93.474,25.3093],[93.4751,25.2997],[93.4726,25.2854],[93.4875,25.2759],[93.5044,25.2758],[93.5108,25.2756],[93.5051,25.2441],[93.5206,25.2488],[93.5472,25.2485],[93.5631,25.2466],[93.5782,25.2257],[93.5881,25.2222],[93.5903,25.2199],[93.608,25.2021],[93.6319,25.2429],[93.6656,25.2984],[93.6839,25.3296],[93.7,25.3594],[93.7116,25.3581],[93.7401,25.3952],[93.7603,25.4141],[93.7811,25.4247],[93.7845,25.4319],[93.7902,25.4434],[93.7984,25.4539],[93.809,25.4656],[93.8139,25.4847],[93.7972,25.5044],[93.7734,25.4978],[93.7658,25.4999],[93.7682,25.5253],[93.771,25.536],[93.7706,25.5403],[93.7795,25.538],[93.8078,25.5445],[93.8233,25.5482],[93.8335,25.5614],[93.8442,25.5617],[93.8622,25.5575],[93.892,25.5684],[93.9109,25.5675],[93.9193,25.564],[93.9574,25.5568],[93.9726,25.5612],[93.9779,25.5662],[94.0006,25.5739],[94.0074,25.5699],[94.0078,25.5875],[94.0147,25.5961],[94.0334,25.5847],[94.0349,25.5815],[94.039,25.5799],[94.046,25.5809],[94.0647,25.5664],[94.0694,25.559],[94.095,25.5464],[94.0921,25.5327],[94.1061,25.5289],[94.1387,25.5237],[94.1482,25.5317],[94.1518,25.5419],[94.1828,25.5533],[94.1918,25.551],[94.1949,25.5524],[94.195,25.5702],[94.2158,25.6147],[94.2218,25.6573],[94.2164,25.6799],[94.2387,25.7285],[94.2818,25.8054],[94.2227,25.8643],[94.2185,25.8903],[94.248,25.9184],[94.2857,25.9348],[94.287,25.954],[94.2761,25.9807],[94.274,26.015]]]},"properties":{"NAME_1":"Nagaland","NAME_2":"Kohima"}},{"type":"Feature","geometry":{"type":"Polygon","coordinates":[[[94.7377,26.7689],[94.6866,26.7326],[94.6211,26.7212],[94.5952,26.7299],[94.5924,26.7027],[94.5451,26.7109],[94.5201,26.7015],[94.4983,26.6737],[94.4679,26.6698],[94.4545,26.639],[94.4099,26.6164],[94.4148,26.5833],[94.3966,26.5297],[94.3776,26.5131],[94.3511,26.5086],[94.3521,26.4958],[94.3239,26.4794],[94.3165,26.4629],[94.2925,26.4231],[94.3041,26.4028],[94.3347,26.394],[94.3593,26.3626],[94.3502,26.3399],[94.3609,26.2808],[94.3559,26.2476],[94.3892,26.2255],[94.3704,26.1974],[94.4107,26.2168],[94.4374,26.209],[94.4558,26.2488],[94.4884,26.2952],[94.5148,26.24],[94.5061,26.2178],[94.5354,26.2226],[94.5508,26.2079],[94.5877,26.2241],[94.5884,26.2412],[94.5657,26.2613],[94.5654,26.2845],[94.5843,26.2956],[94.6114,26.3246],[94.6532,26.3465],[94.6625,26.3817],[94.6786,26.3899],[94.7063,26.418],[94.7115,26.4451],[94.6927,26.4848],[94.6914,26.5293],[94.7287,26.5729],[94.737,26.6006],[94.7115,26.6418],[94.6729,26.6569],[94.7187,26.6849],[94.727,26.702],[94.7523,26.7069],[94.7583,26.7388],[94.7377,26.7689]]]},"properties":{"NAME_1":"Nagaland","NAME_2":"Mokokchung"}},{"type":"Feature","geometry":{"type":"Polygon","coordinates":[[[95.1955,27.0429],[95.1545,27.006],[95.1169,26.9837],[95.11,26.9669],[95.0869,26.9527],[95.038,26.9385],[95.0213,26.9254],[94.9857,26.9182],[94.9573,26.9436],[94.9139,26.9426],[94.8862,26.9325],[94.8696,26.915],[94.8515,26.8813],[94.8211,26.8545],[94.8131,26.8248],[94.7908,26.8015],[94.8182,26.7847],[94.798,26.7728],[94.8106,26.75],[94.8359,26.7229],[94.8159,26.7022],[94.7916,26.6889],[94.783,26.6614],[94.7913,26.6402],[94.8587,26.6161],[94.8904,26.6165],[94.8962,26.598],[94.8843,26.581],[94.8976,26.5317],[94.8941,26.4848],[94.9055,26.4638],[94.9034,26.4455],[94.9342,26.4105],[94.93,26.3752],[94.9497,26.3658],[94.9373,26.3243],[94.9601,26.3025],[94.9923,26.3004],[95.0079,26.289],[95.0297,26.2932],[95.0421,26.3087],[95.094,26.3285],[95.1282,26.3293],[95.1357,26.3878],[95.1048,26.4013],[95.1087,26.4237],[95.0688,26.4667],[95.1208,26.5298],[95.1148,26.548],[95.1385,26.5605],[95.1545,26.5808],[95.1547,26.6195],[95.182,26.6433],[95.2062,26.6491],[95.2376,26.6863],[95.2361,26.7122],[95.2161,26.7353],[95.2193,26.7556],[95.2425,26.7845],[95.2151,26.7984],[95.1845,26.8648],[95.2129,26.8856],[95.2299,26.8857],[95.234,26.9206],[95.2171,26.9342],[95.1952,26.99],[95.2001,27.0062],[95.1955,27.0429]]]},"properties":{"NAME_1":"Nagaland","NAME_2":"Mon"}},{"type":"Feature","geometry":{"type":"Polygon","coordinates":[[[94.7167,25.764],[94.6642,25.7814],[94.6411,25.7733],[94.6145,25.7853],[94.5598,25.7831],[94.5377,25.7893],[94.5473,25.8149],[94.5181,25.8211],[94.4661,25.8471],[94.4308,25.8437],[94.3644,25.8177],[94.3062,25.7896],[94.2818,25.8054],[94.2387,25.7285],[94.2164,25.6799],[94.2218,25.6573],[94.2158,25.6147],[94.195,25.5702],[94.1949,25.5524],[94.1901,25.5346],[94.1907,25.5308],[94.223,25.4968],[94.2317,25.4983],[94.2521,25.4991],[94.2669,25.5024],[94.2867,25.5117],[94.2907,25.5095],[94.299,25.5007],[94.309,25.4938],[94.3135,25.4945],[94.329,25.5084],[94.3647,25.5215],[94.3885,25.5366],[94.4203,25.5427],[94.4264,25.5615],[94.4224,25.576],[94.43,25.5927],[94.4377,25.5959],[94.4478,25.598],[94.4493,25.6011],[94.474,25.6216],[94.4912,25.6198],[94.4934,25.6143],[94.4999,25.6188],[94.5054,25.617],[94.5109,25.6299],[94.5145,25.6305],[94.5282,25.6443],[94.5315,25.6501],[94.5447,25.6575],[94.5522,25.6674],[94.568,25.6922],[94.5871,25.6919],[94.59,25.6812],[94.5881,25.6773],[94.5874,25.6718],[94.5768,25.6528],[94.5869,25.6466],[94.5905,25.6403],[94.5785,25.6263],[94.5728,25.6113],[94.5651,25.6026],[94.5615,25.5783],[94.5604,25.568],[94.5614,25.5605],[94.5629,25.5495],[94.5635,25.5397],[94.5613,25.5307],[94.5574,25.5128],[94.5872,25.4925],[94.5949,25.4881],[94.633,25.4657],[94.6698,25.4554],[94.6824,25.4597],[94.6886,25.4655],[94.7465,25.4791],[94.7727,25.4813],[94.8125,25.4954],[94.8369,25.5505],[94.853,25.5633],[94.905,25.5671],[94.889,25.5931],[94.873,25.6132],[94.8572,25.6161],[94.8518,25.6568],[94.8627,25.7233],[94.8351,25.7591],[94.7897,25.7829],[94.7586,25.7867],[94.7365,25.7604],[94.7167,25.764]]]},"properties":{"NAME_1":"Nagaland","NAME_2":"Phek"}},{"type":"Feature","geometry":{"type":"Polygon","coordinates":[[[94.7908,26.8015],[94.7731,26.795],[94.7564,26.7723],[94.7377,26.7689],[94.7583,26.7388],[94.7523,26.7069],[94.727,26.702],[94.7187,26.6849],[94.6729,26.6569],[94.7115,26.6418],[94.737,26.6006],[94.7287,26.5729],[94.6914,26.5293],[94.6927,26.4848],[94.7115,26.4451],[94.7063,26.418],[94.6786,26.3899],[94.6625,26.3817],[94.6532,26.3465],[94.6114,26.3246],[94.5843,26.2956],[94.5654,26.2845],[94.5657,26.2613],[94.5884,26.2412],[94.5877,26.2241],[94.6063,26.2042],[94.623,26.2045],[94.6429,26.2237],[94.6936,26.1987],[94.7022,26.1551],[94.6893,26.1234],[94.697,26.0784],[94.7062,26.0579],[94.6601,26.0111],[94.6103,25.9377],[94.577,25.9014],[94.5964,25.884],[94.6138,25.8532],[94.6155,25.8222],[94.6492,25.822],[94.7,25.7948],[94.7167,25.764],[94.7365,25.7604],[94.7586,25.7867],[94.7897,25.7829],[94.8351,25.7591],[94.8627,25.7233],[94.8518,25.6568],[94.8572,25.6161],[94.873,25.6132],[94.889,25.5931],[94.9209,25.6148],[94.9351,25.6646],[94.9837,25.7043],[95.0094,25.7385],[95.0337,25.7414],[95.0525,25.7627],[95.0455,25.7828],[95.0494,25.8101],[95.0375,25.8202],[95.0332,25.8465],[95.0154,25.872],[95.028,25.9198],[95.0574,25.947],[95.0789,25.9508],[95.1065,25.9682],[95.1175,25.9877],[95.1647,26.035],[95.1656,26.0534],[95.1854,26.0847],[95.1659,26.099],[95.1267,26.101],[95.1279,26.137],[95.1168,26.163],[95.1283,26.2031],[95.1425,26.2142],[95.1212,26.2387],[95.1297,26.2562],[95.1207,26.2749],[95.1311,26.2925],[95.1282,26.3293],[95.094,26.3285],[95.0421,26.3087],[95.0297,26.2932],[95.0079,26.289],[94.9923,26.3004],[94.9601,26.3025],[94.9373,26.3243],[94.9497,26.3658],[94.93,26.3752],[94.9342,26.4105],[94.9034,26.4455],[94.9055,26.4638],[94.8941,26.4848],[94.8976,26.5317],[94.8843,26.581],[94.8962,26.598],[94.8904,26.6165],[94.8587,26.6161],[94.7913,26.6402],[94.783,26.6614],[94.7916,26.6889],[94.8159,26.7022],[94.8359,26.7229],[94.8106,26.75],[94.798,26.7728],[94.8182,26.7847],[94.7908,26.8015]]]},"properties":{"NAME_1":"Nagaland","NAME_2":"Tuensang"}},{"type":"Feature","geometry":{"type":"Polygon","coordinates":[[[94.3165,26.4629],[94.2939,26.4807],[94.2872,26.5085],[94.2823,26.5635],[94.2399,26.5114],[94.2115,26.4898],[94.1865,26.4605],[94.1758,26.4318],[94.1791,26.3887],[94.1677,26.3533],[94.1645,26.3393],[94.1388,26.3416],[94.108,26.3264],[94.1027,26.3087],[94.0705,26.26],[94.0529,26.2558],[94.0357,26.2032],[94.013,26.1863],[93.9997,26.1582],[94.0064,26.1472],[93.986,26.0836],[93.9911,26.0726],[93.9659,26.0424],[93.9549,26.0073],[93.956,25.9742],[93.9692,25.9608],[93.9827,25.9263],[94.0166,25.9404],[94.047,25.9445],[94.0887,25.9694],[94.1072,25.9901],[94.1366,25.9943],[94.1692,25.9786],[94.1943,25.9919],[94.2195,26.0294],[94.243,26.0087],[94.274,26.015],[94.3009,26.0126],[94.3234,26.0213],[94.3366,26.0025],[94.3597,26.0148],[94.3624,26.0321],[94.3912,26.0894],[94.3901,26.1199],[94.3416,26.1758],[94.3704,26.1974],[94.3892,26.2255],[94.3559,26.2476],[94.3609,26.2808],[94.3502,26.3399],[94.3593,26.3626],[94.3347,26.394],[94.3041,26.4028],[94.2925,26.4231],[94.3165,26.4629]]]},"properties":{"NAME_1":"Nagaland","NAME_2":"Wokha"}},{"type":"Feature","geometry":{"type":"Polygon","coordinates":[[[94.5877,26.2241],[94.5508,26.2079],[94.5354,26.2226],[94.5061,26.2178],[94.5148,26.24],[94.4884,26.2952],[94.4558,26.2488],[94.4374,26.209],[94.4107,26.2168],[94.3704,26.1974],[94.3416,26.1758],[94.3901,26.1199],[94.3912,26.0894],[94.3624,26.0321],[94.3597,26.0148],[94.3366,26.0025],[94.3234,26.0213],[94.3009,26.0126],[94.274,26.015],[94.2761,25.9807],[94.287,25.954],[94.2857,25.9348],[94.248,25.9184],[94.2185,25.8903],[94.2227,25.8643],[94.2818,25.8054],[94.3062,25.7896],[94.3644,25.8177],[94.4308,25.8437],[94.4661,25.8471],[94.5181,25.8211],[94.5473,25.8149],[94.5377,25.7893],[94.5598,25.7831],[94.6145,25.7853],[94.6411,25.7733],[94.6642,25.7814],[94.7167,25.764],[94.7,25.7948],[94.6492,25.822],[94.6155,25.8222],[94.6138,25.8532],[94.5964,25.884],[94.577,25.9014],[94.6103,25.9377],[94.6601,26.0111],[94.7062,26.0579],[94.697,26.0784],[94.6893,26.1234],[94.7022,26.1551],[94.6936,26.1987],[94.6429,26.2237],[94.623,26.2045],[94.6063,26.2042],[94.5877,26.2241]]]},"properties":{"NAME_1":"Nagaland","NAME_2":"Zunheboto"}}]}