{"type":"FeatureCollection","features":[{"type":"Feature","geometry":{"type":"Polygon","coordinates":[[[79.7605,10.9806],[79.7431,10.9851],[79.7302,10.9851],[79.7382,10.9693],[79.7395,10.9661],[79.7413,10.9633],[79.7381,10.9586],[79.7457,10.9493],[79.7401,10.9437],[79.7267,10.9524],[79.7155,10.9533],[79.7029,10.9456],[79.7032,10.9383],[79.7093,10.9356],[79.7156,10.9383],[79.7212,10.9353],[79.7044,10.921],[79.7104,10.9191],[79.708,10.9151],[79.7086,10.9142],[79.7208,10.9107],[79.7196,10.9058],[79.7239,10.908],[79.7259,10.9069],[79.7284,10.9023],[79.743,10.8994],[79.7418,10.8944],[79.7414,10.8833],[79.7479,10.8952],[79.7542,10.8867],[79.7605,10.8832],[79.7732,10.8896],[79.7764,10.8817],[79.7701,10.878],[79.7756,10.8758],[79.7883,10.8729],[79.8056,10.8637],[79.7896,10.8618],[79.8075,10.8527],[79.7923,10.8488],[79.7931,10.8395],[79.8031,10.8337],[79.8059,10.828],[79.8133,10.8287],[79.8137,10.8184],[79.8133,10.8141],[79.8198,10.8111],[79.8357,10.8117],[79.8512,10.8138],[79.8535,10.9693],[79.8506,10.9758],[79.8354,10.9766],[79.8345,10.9768],[79.8249,10.9848],[79.8139,10.9871],[79.812,10.983],[79.8098,10.9821],[79.8026,10.9849],[79.7964,10.9831],[79.7896,10.9734],[79.7744,10.9772],[79.7605,10.9806]]]},"properties":{"NAME_1":"Puducherry","NAME_2":"Karaikal"}},{"type":"Feature","geometry":{"type":"Polygon","coordinates":[[[75.2237,12.0545],[75.2249,12.0319],[75.2311,12.0246],[75.2324,12.021],[75.251,12.0063],[75.2676,12.0254],[75.2993,12.0293],[75.3029,12.0332],[75.3046,12.0412],[75.3085,12.0493],[75.3007,12.058],[75.2992,12.0668],[75.3092,12.0784],[75.3091,12.1027],[75.3553,12.1094],[75.3685,12.1213],[75.3793,12.1221],[75.3823,12.1291],[75.4022,12.1341],[75.3998,12.1405],[75.3784,12.146],[75.3667,12.1354],[75.3462,12.1386],[75.3252,12.1449],[75.3107,12.1247],[75.2839,12.115],[75.2778,12.1018],[75.266,12.1037],[75.2559,12.1086],[75.2366,12.1102],[75.2231,12.1048],[75.2211,12.101],[75.2225,12.0856],[75.2223,12.0782],[75.2242,12.0744],[75.2237,12.0545]]]},"properties":{"NAME_1":"Puducherry","NAME_2":"Mahe"}},{"type":"Feature","geometry":{"type":"Polygon","coordinates":[[[79.794,11.8156],[79.8238,11.8818],[79.8376,11.9405],[79.818,11.9404],[79.811,11.9425],[79.8046,11.9631],[79.7979,11.9635],[79.7758,11.946],[79.7727,11.9468],[79.7475,11.9152],[79.7336,11.9472],[79.7157,11.9675],[79.7269,11.9625],[79.7382,11.967],[79.729,11.986],[79.7289,11.986],[79.7249,11.9779],[79.7199,11.9765],[79.7058,11.9774],[79.6905,12.0011],[79.679,12.0193],[79.6715,12.0116],[79.6524,11.9983],[79.647,11.9933],[79.6443,11.9927],[79.6423,11.9758],[79.6512,11.972],[79.6811,11.9728],[79.6869,11.974],[79.6948,11.9751],[79.6991,11.9721],[79.6953,11.961],[79.7016,11.9522],[79.6867,11.9473],[79.6777,11.9394],[79.6782,11.9365],[79.692,11.9245],[79.6928,11.9212],[79.6945,11.9259],[79.6946,11.9313],[79.7041,11.913],[79.7175,11.8892],[79.7169,11.8768],[79.7017,11.8765],[79.6917,11.8978],[79.7025,11.8984],[79.6829,11.9047],[79.6838,11.8875],[79.6759,11.8793],[79.6604,11.8773],[79.6591,11.8657],[79.6732,11.87],[79.6804,11.8706],[79.6905,11.8741],[79.6935,11.8539],[79.6977,11.8524],[79.7067,11.8471],[79.7303,11.8469],[79.7384,11.835],[79.7498,11.8605],[79.7516,11.8417],[79.7487,11.8358],[79.7581,11.8221],[79.7671,11.8405],[79.7818,11.8403],[79.7879,11.8351],[79.7918,11.827],[79.793,11.8176],[79.794,11.8156]]]},"properties":{"NAME_1":"Puducherry","NAME_2":"Puducherry"}},{"type":"Feature","geometry":{"type":"MultiPolygon","coordinates":[[[[82.2852,16.6974],[82.2588,16.6901],[82.2647,16.6905],[82.2852,16.6974]]],[[[82.211,16.7279],[82.2111,16.7482],[82.1968,16.7365],[82.1791,16.7163],[82.2274,16.7047],[82.2534,16.6897],[82.2429,16.7082],[82.2994,16.714],[82.2995,16.7143],[82.2807,16.7227],[82.2204,16.7183],[82.211,16.7279]]]]},"properties":{"NAME_1":"Puducherry","NAME_2":"Yanam"}}]}