{"type":"FeatureCollection","features":[{"type":"Feature","geometry":{"type":"Polygon","coordinates":[[[74.898,32.0496],[74.8623,32.0451],[74.8675,32.0312],[74.8442,32.0083],[74.8177,31.9939],[74.8199,31.9765],[74.8014,31.9618],[74.7359,31.9374],[74.7092,31.9579],[74.7033,31.9249],[74.6761,31.9216],[74.652,31.9099],[74.6226,31.8813],[74.598,31.8835],[74.596,31.8648],[74.5564,31.8288],[74.5602,31.8153],[74.544,31.7764],[74.552,31.7575],[74.518,31.7452],[74.5173,31.7229],[74.5302,31.6981],[74.5785,31.6234],[74.6009,31.5678],[74.599,31.5275],[74.573,31.5196],[74.6421,31.4615],[74.6253,31.4236],[74.5946,31.3971],[74.5519,31.2985],[74.5302,31.2987],[74.5111,31.2723],[74.5222,31.2475],[74.5145,31.2094],[74.5013,31.1799],[74.5062,31.1358],[74.5445,31.117],[74.5464,31.0886],[74.5658,31.0843],[74.588,31.0932],[74.6003,31.1115],[74.5921,31.1273],[74.6263,31.1357],[74.6791,31.129],[74.6906,31.1145],[74.7004,31.1042],[74.7322,31.1038],[74.7523,31.1284],[74.8379,31.134],[74.8844,31.1605],[74.9089,31.1612],[74.9367,31.1499],[74.9765,31.1591],[75.0226,31.1879],[75.0381,31.1921],[75.0504,31.2249],[75.0685,31.2482],[75.0713,31.2726],[75.1074,31.3195],[75.133,31.3345],[75.1472,31.364],[75.1765,31.408],[75.1819,31.4359],[75.2142,31.4243],[75.224,31.4608],[75.2722,31.4835],[75.3059,31.5293],[75.3055,31.5398],[75.3619,31.5801],[75.3911,31.5949],[75.3715,31.6144],[75.324,31.641],[75.2871,31.652],[75.2946,31.6766],[75.2726,31.6951],[75.213,31.6854],[75.1891,31.7277],[75.1619,31.7477],[75.131,31.7579],[75.1037,31.75],[75.0847,31.76],[75.0991,31.7796],[75.0729,31.7904],[75.0629,31.8055],[75.0318,31.8023],[74.995,31.8239],[74.9549,31.8334],[74.9497,31.8538],[74.9038,31.8813],[74.8745,31.9317],[74.8876,31.9327],[74.9592,31.9607],[74.9237,31.9624],[74.9011,31.9761],[74.9223,32.012],[74.898,32.0496]]]},"properties":{"NAME_1":"Punjab","NAME_2":"Amritsar"}},{"type":"Feature","geometry":{"type":"Polygon","coordinates":[[[75.171,30.5387],[75.1672,30.555],[75.1512,30.5782],[75.138,30.5821],[75.1115,30.563],[75.1204,30.5322],[75.0981,30.5213],[75.0821,30.5272],[75.0732,30.5294],[75.0496,30.5035],[75.0314,30.503],[75.024,30.5048],[74.9969,30.4891],[75.0145,30.4845],[75.0349,30.4737],[75.0379,30.4604],[75.0435,30.4539],[75.0284,30.4599],[75.0171,30.449],[75.0096,30.4401],[75.0162,30.4329],[75.0426,30.4063],[75.045,30.3895],[75.0153,30.3805],[74.9887,30.3894],[74.962,30.3961],[74.9529,30.3867],[74.9346,30.385],[74.9211,30.3691],[74.9121,30.3674],[74.9006,30.377],[74.8638,30.3903],[74.8368,30.3825],[74.8272,30.388],[74.8113,30.3937],[74.8061,30.3875],[74.7757,30.3398],[74.7524,30.347],[74.7133,30.3657],[74.6915,30.3561],[74.6915,30.3542],[74.7381,30.3436],[74.7597,30.3239],[74.736,30.3216],[74.7151,30.3084],[74.7239,30.3039],[74.7377,30.2817],[74.7274,30.2797],[74.7267,30.278],[74.7124,30.2583],[74.7103,30.2524],[74.7164,30.2317],[74.711,30.2267],[74.7044,30.1974],[74.72,30.1972],[74.7265,30.1814],[74.7158,30.1715],[74.7096,30.1677],[74.6829,30.1604],[74.6647,30.1664],[74.659,30.1654],[74.6319,30.1482],[74.6219,30.1277],[74.636,30.1141],[74.6397,30.1118],[74.6611,30.1076],[74.6653,30.1092],[74.6748,30.1077],[74.6662,30.0884],[74.6739,30.073],[74.69,30.069],[74.6881,30.0383],[74.6862,30.034],[74.6997,30.0222],[74.7035,30.0034],[74.6991,29.9932],[74.6945,29.988],[74.6974,29.9711],[74.724,29.9619],[74.776,29.9744],[74.8012,29.9926],[74.8214,29.9731],[74.8496,29.9591],[74.872,29.9591],[74.9241,29.9415],[74.9432,29.9025],[74.9699,29.8899],[74.9899,29.8565],[75.0375,29.8818],[75.0655,29.879],[75.0777,29.9123],[75.1027,29.897],[75.1006,29.8679],[75.0857,29.8448],[75.1041,29.838],[75.0933,29.8193],[75.1023,29.8026],[75.1249,29.8056],[75.1495,29.7916],[75.1554,29.8198],[75.1786,29.8369],[75.1764,29.8435],[75.1768,29.8473],[75.2054,29.8593],[75.2027,29.8808],[75.1747,29.8852],[75.1708,29.9123],[75.1592,29.926],[75.1721,29.9478],[75.1737,29.9702],[75.1843,29.9748],[75.1946,29.9778],[75.2242,29.9587],[75.2407,29.9805],[75.27,29.9791],[75.2661,29.9914],[75.2833,30.0118],[75.2925,30.0164],[75.2842,30.0207],[75.2737,30.0166],[75.2536,30.0167],[75.25,30.0184],[75.2432,30.0379],[75.2491,30.0458],[75.2653,30.062],[75.2614,30.0609],[75.2544,30.0565],[75.2508,30.061],[75.25,30.1007],[75.2714,30.1088],[75.2929,30.1103],[75.3061,30.1147],[75.3183,30.1231],[75.333,30.1329],[75.3386,30.1451],[75.3499,30.1695],[75.3555,30.1754],[75.3481,30.1857],[75.3532,30.1921],[75.3613,30.2025],[75.3671,30.2366],[75.3354,30.3056],[75.3132,30.3155],[75.3106,30.3346],[75.3245,30.3795],[75.2983,30.3806],[75.2899,30.4253],[75.2584,30.4498],[75.2463,30.4665],[75.2624,30.4839],[75.2707,30.5],[75.2812,30.5112],[75.2741,30.5088],[75.247,30.5189],[75.2348,30.5161],[75.1985,30.5169],[75.1854,30.5118],[75.1758,30.5077],[75.1725,30.5099],[75.171,30.5387]]]},"properties":{"NAME_1":"Punjab","NAME_2":"Bathinda"}},{"type":"Feature","geometry":{"type":"Polygon","coordinates":[[[74.8995,30.7362],[74.8902,30.7393],[74.8764,30.7395],[74.8688,30.7446],[74.8451,30.7509],[74.8199,30.768],[74.8157,30.7668],[74.7954,30.7854],[74.7729,30.7919],[74.767,30.8065],[74.7627,30.8096],[74.7598,30.8121],[74.7383,30.8167],[74.7288,30.821],[74.7073,30.8216],[74.6873,30.8227],[74.6717,30.8214],[74.6532,30.8293],[74.6351,30.8145],[74.6136,30.8306],[74.601,30.8236],[74.5871,30.8051],[74.5575,30.7983],[74.5209,30.7796],[74.5134,30.7702],[74.4638,30.7488],[74.4624,30.713],[74.4673,30.6796],[74.4915,30.6673],[74.5498,30.6628],[74.5794,30.6539],[74.6094,30.6351],[74.6168,30.6138],[74.6572,30.5786],[74.6994,30.5577],[74.6766,30.5211],[74.7084,30.5093],[74.726,30.4934],[74.752,30.4858],[74.7232,30.4645],[74.7255,30.4469],[74.7447,30.4336],[74.7426,30.3943],[74.8006,30.4012],[74.8113,30.3937],[74.8272,30.388],[74.8368,30.3825],[74.8638,30.3903],[74.9006,30.377],[74.9211,30.3691],[74.9346,30.385],[74.9529,30.3867],[74.962,30.3961],[74.9887,30.3894],[75.0153,30.3805],[75.045,30.3895],[75.0426,30.4063],[75.0162,30.4329],[75.0096,30.4401],[75.0171,30.449],[75.0284,30.4599],[75.0435,30.4539],[75.0379,30.4604],[75.0349,30.4737],[75.0145,30.4845],[74.9969,30.4891],[74.9804,30.4976],[74.9805,30.544],[74.968,30.5435],[74.9345,30.5705],[74.9159,30.5399],[74.8923,30.5497],[74.9052,30.5855],[74.9426,30.5903],[74.9371,30.6052],[74.9463,30.6575],[74.9438,30.6749],[74.9035,30.6805],[74.8947,30.7071],[74.8995,30.7362]]]},"properties":{"NAME_1":"Punjab","NAME_2":"Faridkot"}},{"type":"Feature","geometry":{"type":"Polygon","coordinates":[[[76.3106,30.8815],[76.2983,30.8761],[76.2758,30.8692],[76.2689,30.8454],[76.2589,30.8073],[76.2398,30.7809],[76.237,30.7751],[76.2454,30.7592],[76.2518,30.7434],[76.262,30.7311],[76.2694,30.7234],[76.3006,30.7287],[76.3179,30.7153],[76.3315,30.7168],[76.3372,30.6964],[76.3321,30.6827],[76.3173,30.6695],[76.2897,30.6777],[76.2466,30.6796],[76.2231,30.6909],[76.1957,30.6775],[76.1692,30.6739],[76.1612,30.6809],[76.1547,30.6631],[76.141,30.6569],[76.1394,30.6424],[76.1171,30.6329],[76.1097,30.6066],[76.1115,30.5994],[76.1006,30.5926],[76.1006,30.5819],[76.0948,30.5652],[76.0886,30.5629],[76.0795,30.5696],[76.0684,30.555],[76.0724,30.5408],[76.0755,30.5302],[76.0685,30.5149],[76.0669,30.5116],[76.1545,30.5275],[76.202,30.5475],[76.2395,30.5532],[76.2564,30.5575],[76.2626,30.5572],[76.2804,30.5775],[76.2998,30.5583],[76.3009,30.5498],[76.3156,30.5236],[76.3189,30.5165],[76.3223,30.5059],[76.3206,30.4796],[76.3229,30.4648],[76.3269,30.4585],[76.3267,30.454],[76.3218,30.4497],[76.3163,30.447],[76.3133,30.4471],[76.3079,30.4343],[76.314,30.4338],[76.3224,30.4388],[76.3273,30.4344],[76.34,30.4368],[76.3566,30.4361],[76.3685,30.4301],[76.3858,30.4249],[76.4036,30.4277],[76.4032,30.4329],[76.3963,30.4427],[76.403,30.445],[76.4346,30.4518],[76.4497,30.4376],[76.4705,30.4398],[76.48,30.4496],[76.4829,30.4537],[76.4837,30.458],[76.4894,30.4708],[76.4891,30.474],[76.485,30.4956],[76.4798,30.5044],[76.4872,30.5398],[76.4928,30.5571],[76.4917,30.5667],[76.4999,30.5711],[76.5147,30.5648],[76.5188,30.5649],[76.5235,30.562],[76.5373,30.564],[76.5536,30.5711],[76.5575,30.567],[76.5666,30.5756],[76.5685,30.5833],[76.5466,30.5985],[76.5511,30.6099],[76.5566,30.6123],[76.5582,30.6149],[76.5754,30.6072],[76.5794,30.6078],[76.5796,30.6382],[76.5722,30.645],[76.5491,30.6479],[76.5439,30.6316],[76.5181,30.6388],[76.5155,30.6431],[76.5176,30.6488],[76.557,30.6824],[76.5416,30.6948],[76.5415,30.7056],[76.5338,30.7139],[76.5043,30.7102],[76.5221,30.7263],[76.5315,30.7309],[76.5308,30.7476],[76.5275,30.7616],[76.5203,30.7685],[76.4945,30.7529],[76.4783,30.7497],[76.4699,30.7537],[76.4504,30.7576],[76.433,30.7628],[76.4088,30.7638],[76.4005,30.7608],[76.3952,30.7743],[76.4053,30.8036],[76.3794,30.8234],[76.377,30.8351],[76.3668,30.8367],[76.3604,30.8301],[76.3531,30.8332],[76.3376,30.8323],[76.3155,30.8526],[76.3159,30.8539],[76.3177,30.8566],[76.3203,30.8596],[76.3611,30.8784],[76.3617,30.881],[76.3562,30.9022],[76.3356,30.9153],[76.3232,30.9018],[76.3146,30.8888],[76.3106,30.8815]]]},"properties":{"NAME_1":"Punjab","NAME_2":"Fatehgarh Sahib"}},{"type":"Feature","geometry":{"type":"Polygon","coordinates":[[[75.0615,31.1447],[75.0379,31.1596],[75.0117,31.1567],[74.9718,31.136],[74.9367,31.1499],[74.9089,31.1612],[74.8844,31.1605],[74.8379,31.134],[74.7523,31.1284],[74.7322,31.1038],[74.7004,31.1042],[74.6906,31.1145],[74.6944,31.0954],[74.6832,31.0722],[74.656,31.0545],[74.6002,31.0435],[74.5717,31.0674],[74.5534,31.0626],[74.5318,31.0093],[74.5385,30.9974],[74.4966,30.9672],[74.4706,30.966],[74.4207,30.9259],[74.4192,30.9117],[74.3655,30.8854],[74.372,30.8529],[74.363,30.8458],[74.3314,30.8524],[74.3161,30.8476],[74.3076,30.8211],[74.286,30.7967],[74.2911,30.7784],[74.265,30.7728],[74.2737,30.7433],[74.254,30.723],[74.2322,30.7196],[74.1968,30.6718],[74.1509,30.6326],[74.1236,30.629],[74.092,30.5981],[74.0912,30.5729],[74.0679,30.5549],[74.0776,30.5294],[74.0557,30.522],[74.0402,30.5377],[73.9885,30.5046],[73.9727,30.4881],[73.9627,30.4576],[73.9323,30.4584],[73.9279,30.4209],[73.9034,30.4168],[73.8732,30.3834],[73.8756,30.3608],[73.8973,30.349],[73.9343,30.303],[73.9578,30.2617],[73.9663,30.195],[73.9625,30.1275],[73.9182,30.0681],[73.8984,30.0536],[73.8811,29.9963],[73.8912,29.9701],[74.0692,29.9689],[74.279,29.9551],[74.29,29.9563],[74.4038,29.9473],[74.442,29.9471],[74.4168,29.9971],[74.4458,30.001],[74.4405,30.0273],[74.3987,30.0264],[74.3932,30.0432],[74.3789,30.0621],[74.3792,30.0728],[74.3572,30.0848],[74.3591,30.0916],[74.3615,30.0957],[74.3631,30.1016],[74.3961,30.0974],[74.3997,30.0932],[74.3925,30.1087],[74.3861,30.1152],[74.3675,30.1382],[74.3644,30.1503],[74.3269,30.1612],[74.3414,30.212],[74.3469,30.2392],[74.3058,30.2408],[74.2841,30.2326],[74.277,30.2309],[74.2516,30.2456],[74.2728,30.2723],[74.2889,30.2689],[74.2906,30.2786],[74.2942,30.3051],[74.3113,30.3283],[74.3015,30.3765],[74.327,30.3838],[74.348,30.3901],[74.3439,30.4015],[74.2999,30.4088],[74.2455,30.4245],[74.2651,30.4293],[74.2741,30.4312],[74.3107,30.4442],[74.3266,30.4504],[74.3357,30.4648],[74.3362,30.4823],[74.3439,30.4802],[74.3547,30.48],[74.3703,30.4977],[74.3692,30.5202],[74.378,30.5267],[74.3929,30.5565],[74.4178,30.5486],[74.4386,30.5958],[74.442,30.5983],[74.4495,30.6085],[74.4507,30.6142],[74.4598,30.6312],[74.4818,30.6382],[74.479,30.641],[74.4697,30.6463],[74.4677,30.6528],[74.4683,30.6576],[74.4774,30.6654],[74.4915,30.6673],[74.4673,30.6796],[74.4624,30.713],[74.4638,30.7488],[74.5134,30.7702],[74.5209,30.7796],[74.5575,30.7983],[74.5871,30.8051],[74.601,30.8236],[74.6136,30.8306],[74.6351,30.8145],[74.6532,30.8293],[74.6717,30.8214],[74.6873,30.8227],[74.7073,30.8216],[74.7288,30.821],[74.7383,30.8167],[74.7598,30.8121],[74.7627,30.8096],[74.767,30.8065],[74.7729,30.7919],[74.7954,30.7854],[74.8157,30.7668],[74.8199,30.768],[74.8451,30.7509],[74.8688,30.7446],[74.8764,30.7395],[74.8902,30.7393],[74.9025,30.7435],[74.9001,30.7522],[74.8996,30.7614],[74.9119,30.7846],[74.9144,30.7835],[74.9181,30.803],[74.9357,30.8239],[74.9341,30.8361],[74.936,30.8615],[74.9342,30.868],[74.9432,30.8916],[74.9647,30.8938],[74.9819,30.8978],[74.9955,30.9145],[75.0133,30.9279],[75.0497,30.9432],[75.0561,30.9553],[75.0542,30.9994],[75.0325,31.0089],[75.0312,31.0313],[75.0612,31.0223],[75.0669,31.0325],[75.0873,31.0453],[75.1097,31.0721],[75.1163,31.0972],[75.0955,31.117],[75.0604,31.1277],[75.0615,31.1447]]]},"properties":{"NAME_1":"Punjab","NAME_2":"Firozpur"}},{"type":"Feature","geometry":{"type":"Polygon","coordinates":[[[75.9111,32.4092],[75.9346,32.4248],[75.9155,32.4487],[75.8553,32.4996],[75.8514,32.5213],[75.8703,32.5588],[75.8725,32.5762],[75.8378,32.5376],[75.825,32.5092],[75.8157,32.4992],[75.7901,32.4788],[75.7725,32.4751],[75.7459,32.4763],[75.7297,32.4451],[75.7197,32.4303],[75.6982,32.4095],[75.6627,32.3935],[75.637,32.3874],[75.5926,32.3817],[75.567,32.3718],[75.5573,32.367],[75.5243,32.34],[75.5158,32.298],[75.5056,32.2813],[75.5012,32.2761],[75.4947,32.2769],[75.4902,32.3102],[75.4799,32.3103],[75.4714,32.3147],[75.4735,32.3392],[75.4722,32.34],[75.4518,32.3318],[75.4326,32.3267],[75.415,32.3243],[75.3975,32.3263],[75.3785,32.3288],[75.3592,32.3349],[75.344,32.3402],[75.3244,32.3417],[75.3367,32.3226],[75.3399,32.2886],[75.367,32.2687],[75.3637,32.2383],[75.3228,32.2013],[75.3094,32.1546],[75.2833,32.1422],[75.272,32.1128],[75.2392,32.0872],[75.212,32.1191],[75.1932,32.1146],[75.1851,32.0838],[75.12,32.0832],[75.069,32.0585],[75.0508,32.0413],[74.9984,32.0287],[74.9603,32.055],[74.9259,32.0657],[74.898,32.0496],[74.9223,32.012],[74.9011,31.9761],[74.9237,31.9624],[74.9592,31.9607],[74.8876,31.9327],[74.8745,31.9317],[74.9038,31.8813],[74.9497,31.8538],[74.9549,31.8334],[74.995,31.8239],[75.0318,31.8023],[75.0629,31.8055],[75.0729,31.7904],[75.0991,31.7796],[75.0847,31.76],[75.1037,31.75],[75.131,31.7579],[75.1619,31.7477],[75.1891,31.7277],[75.213,31.6854],[75.2726,31.6951],[75.2946,31.6766],[75.2871,31.652],[75.324,31.641],[75.3715,31.6144],[75.3911,31.5949],[75.4074,31.6235],[75.4541,31.6352],[75.4617,31.652],[75.4823,31.7005],[75.5226,31.738],[75.5238,31.7729],[75.5546,31.7762],[75.5583,31.856],[75.5392,31.8867],[75.5378,31.9207],[75.5159,31.9439],[75.5209,31.9654],[75.5435,31.9964],[75.5248,32.0351],[75.5471,32.0364],[75.5627,32.0739],[75.5788,32.0817],[75.6106,32.0996],[75.6555,32.1461],[75.6562,32.1766],[75.6202,32.1852],[75.6225,32.2347],[75.6758,32.264],[75.7364,32.2738],[75.8439,32.3793],[75.8719,32.3984],[75.9111,32.4092]]]},"properties":{"NAME_1":"Punjab","NAME_2":"Gurdaspur"}},{"type":"Feature","geometry":{"type":"Polygon","coordinates":[[[75.5788,32.0817],[75.5627,32.0739],[75.5471,32.0364],[75.5248,32.0351],[75.5435,31.9964],[75.5209,31.9654],[75.5159,31.9439],[75.5378,31.9207],[75.5392,31.8867],[75.5583,31.856],[75.5546,31.7762],[75.5238,31.7729],[75.5226,31.738],[75.4823,31.7005],[75.4617,31.652],[75.4843,31.6427],[75.5191,31.6506],[75.5567,31.639],[75.5548,31.6122],[75.5811,31.6057],[75.6199,31.6152],[75.6569,31.6085],[75.6702,31.5744],[75.7168,31.5191],[75.7225,31.4989],[75.7462,31.4774],[75.7649,31.4743],[75.7764,31.4516],[75.8051,31.4302],[75.8092,31.4073],[75.7703,31.3854],[75.7747,31.3716],[75.8033,31.3631],[75.8322,31.3741],[75.8446,31.353],[75.8649,31.3579],[75.8829,31.3421],[75.8533,31.3203],[75.8407,31.2975],[75.8713,31.2932],[75.8784,31.2776],[75.9313,31.275],[75.9406,31.2579],[75.9805,31.2578],[76.0398,31.2296],[76.0757,31.2268],[76.0896,31.1807],[76.1199,31.1702],[76.1254,31.1542],[76.1596,31.1382],[76.1933,31.1403],[76.1942,31.1683],[76.1854,31.1928],[76.2074,31.2008],[76.2282,31.2473],[76.2604,31.2413],[76.295,31.2147],[76.3217,31.2294],[76.3379,31.2409],[76.2969,31.2812],[76.2774,31.3099],[76.2232,31.3131],[76.2064,31.3053],[76.1728,31.3067],[76.1663,31.3415],[76.1396,31.3531],[76.1341,31.3826],[76.1567,31.4045],[76.1435,31.4323],[76.1282,31.4438],[76.1082,31.4951],[76.084,31.5372],[76.0232,31.6155],[76.0027,31.6466],[76.0047,31.663],[75.9774,31.705],[75.9451,31.7813],[75.9218,31.8172],[75.9529,31.824],[75.9443,31.8575],[75.8945,31.9498],[75.8364,31.9816],[75.7951,31.9886],[75.7743,32.0008],[75.734,32.0373],[75.7105,32.036],[75.6923,32.0595],[75.6494,32.0772],[75.5985,32.066],[75.5788,32.0817]]]},"properties":{"NAME_1":"Punjab","NAME_2":"Hoshiarpur"}},{"type":"Feature","geometry":{"type":"Polygon","coordinates":[[[75.7747,31.3716],[75.7703,31.3854],[75.8092,31.4073],[75.8051,31.4302],[75.7764,31.4516],[75.7649,31.4743],[75.7462,31.4774],[75.7225,31.4989],[75.7168,31.5191],[75.6702,31.5744],[75.6569,31.6085],[75.6199,31.6152],[75.5811,31.6057],[75.5862,31.5677],[75.5686,31.5543],[75.528,31.5477],[75.5083,31.5321],[75.5134,31.4804],[75.4829,31.4967],[75.4476,31.5055],[75.4322,31.4919],[75.4571,31.4569],[75.428,31.4186],[75.4428,31.41],[75.4388,31.3896],[75.4624,31.3882],[75.4778,31.4028],[75.5006,31.3912],[75.4762,31.3241],[75.4376,31.316],[75.4424,31.286],[75.478,31.2723],[75.4491,31.2392],[75.3791,31.2468],[75.3708,31.2345],[75.3334,31.2332],[75.3108,31.2099],[75.2599,31.1794],[75.2574,31.1492],[75.2166,31.1561],[75.1999,31.1861],[75.1651,31.1653],[75.1176,31.1697],[75.0922,31.1512],[75.0615,31.1447],[75.0604,31.1277],[75.0955,31.117],[75.1163,31.0972],[75.1201,31.0975],[75.1299,31.0898],[75.1548,31.0946],[75.1659,31.0851],[75.1765,31.0789],[75.1858,31.0763],[75.1894,31.0721],[75.2007,31.0676],[75.2031,31.0682],[75.2201,31.0589],[75.2257,31.0547],[75.2365,31.0442],[75.2566,31.0444],[75.2649,31.0399],[75.2704,31.0431],[75.2819,31.0248],[75.2847,31.0156],[75.2966,31.0163],[75.2936,31.0046],[75.3429,30.99],[75.3971,30.9807],[75.4086,30.9879],[75.4818,30.972],[75.5618,30.9794],[75.5835,30.9708],[75.6612,30.9875],[75.7469,31.0169],[75.7724,30.9992],[75.7936,30.9966],[75.8328,31.0124],[75.8855,31.009],[75.9043,31.0214],[75.929,31.0104],[75.9441,31.0214],[75.9194,31.0654],[75.9144,31.0958],[75.8709,31.1536],[75.8345,31.1857],[75.7746,31.2003],[75.7657,31.1674],[75.6936,31.1679],[75.6742,31.1987],[75.6964,31.2175],[75.6923,31.2418],[75.6581,31.2421],[75.6672,31.2676],[75.6626,31.2866],[75.6836,31.3009],[75.6728,31.3208],[75.746,31.3319],[75.7493,31.3483],[75.7747,31.3716]]]},"properties":{"NAME_1":"Punjab","NAME_2":"Jalandhar"}},{"type":"Feature","geometry":{"type":"MultiPolygon","coordinates":[[[[75.8784,31.2776],[75.8713,31.2932],[75.8407,31.2975],[75.8533,31.3203],[75.8829,31.3421],[75.8649,31.3579],[75.8446,31.353],[75.8322,31.3741],[75.8033,31.3631],[75.7747,31.3716],[75.7493,31.3483],[75.746,31.3319],[75.6728,31.3208],[75.6836,31.3009],[75.6626,31.2866],[75.6672,31.2676],[75.6581,31.2421],[75.6923,31.2418],[75.6964,31.2175],[75.6742,31.1987],[75.6936,31.1679],[75.7657,31.1674],[75.7746,31.2003],[75.7987,31.2238],[75.8371,31.2367],[75.8449,31.247],[75.8264,31.2788],[75.8584,31.2757],[75.8619,31.2456],[75.8885,31.2578],[75.8784,31.2776]]],[[[75.5811,31.6057],[75.5548,31.6122],[75.5567,31.639],[75.5191,31.6506],[75.4843,31.6427],[75.4617,31.652],[75.4541,31.6352],[75.4074,31.6235],[75.3911,31.5949],[75.3619,31.5801],[75.3055,31.5398],[75.3059,31.5293],[75.2722,31.4835],[75.224,31.4608],[75.2142,31.4243],[75.1819,31.4359],[75.1765,31.408],[75.1472,31.364],[75.133,31.3345],[75.1074,31.3195],[75.0713,31.2726],[75.0685,31.2482],[75.0504,31.2249],[75.0381,31.1921],[75.0226,31.1879],[74.9765,31.1591],[74.9367,31.1499],[74.9718,31.136],[75.0117,31.1567],[75.0379,31.1596],[75.0615,31.1447],[75.0922,31.1512],[75.1176,31.1697],[75.1651,31.1653],[75.1999,31.1861],[75.2166,31.1561],[75.2574,31.1492],[75.2599,31.1794],[75.3108,31.2099],[75.3334,31.2332],[75.3708,31.2345],[75.3791,31.2468],[75.4491,31.2392],[75.478,31.2723],[75.4424,31.286],[75.4376,31.316],[75.4762,31.3241],[75.5006,31.3912],[75.4778,31.4028],[75.4624,31.3882],[75.4388,31.3896],[75.4428,31.41],[75.428,31.4186],[75.4571,31.4569],[75.4322,31.4919],[75.4476,31.5055],[75.4829,31.4967],[75.5134,31.4804],[75.5083,31.5321],[75.528,31.5477],[75.5686,31.5543],[75.5862,31.5677],[75.5811,31.6057]]]]},"properties":{"NAME_1":"Punjab","NAME_2":"Kapurthala"}},{"type":"Feature","geometry":{"type":"Polygon","coordinates":[[[75.9441,31.0214],[75.929,31.0104],[75.9043,31.0214],[75.8855,31.009],[75.8328,31.0124],[75.7936,30.9966],[75.7724,30.9992],[75.7469,31.0169],[75.6612,30.9875],[75.5835,30.9708],[75.5618,30.9794],[75.4818,30.972],[75.4086,30.9879],[75.3971,30.9807],[75.3429,30.99],[75.3527,30.9539],[75.3534,30.9419],[75.3635,30.9308],[75.3689,30.9265],[75.3692,30.9221],[75.3947,30.8952],[75.3902,30.8855],[75.3761,30.8646],[75.3617,30.8579],[75.3622,30.8521],[75.3591,30.8409],[75.3738,30.8151],[75.3845,30.8103],[75.3766,30.7772],[75.3719,30.7702],[75.369,30.7539],[75.3649,30.7364],[75.3751,30.7234],[75.3686,30.7105],[75.3591,30.7073],[75.3593,30.6904],[75.3677,30.6764],[75.3616,30.6505],[75.3694,30.6239],[75.3898,30.6185],[75.3892,30.6005],[75.3962,30.5841],[75.4157,30.5852],[75.4533,30.6057],[75.528,30.5958],[75.5389,30.6352],[75.6011,30.624],[75.6143,30.6157],[75.6581,30.652],[75.6987,30.6427],[75.7152,30.6204],[75.7282,30.6311],[75.7689,30.6454],[75.779,30.662],[75.8052,30.6666],[75.8307,30.6887],[75.8412,30.673],[75.8684,30.6775],[75.8843,30.649],[75.8641,30.6408],[75.8932,30.6069],[75.9187,30.5983],[75.9165,30.5786],[75.9452,30.5788],[75.9504,30.5903],[76.0156,30.6176],[76.0232,30.5921],[76.0712,30.5647],[76.0795,30.5696],[76.0886,30.5629],[76.0948,30.5652],[76.1006,30.5819],[76.1006,30.5926],[76.1115,30.5994],[76.1097,30.6066],[76.1171,30.6329],[76.1394,30.6424],[76.141,30.6569],[76.1547,30.6631],[76.1612,30.6809],[76.1692,30.6739],[76.1957,30.6775],[76.2231,30.6909],[76.2466,30.6796],[76.2897,30.6777],[76.3173,30.6695],[76.3321,30.6827],[76.3372,30.6964],[76.3315,30.7168],[76.3179,30.7153],[76.3006,30.7287],[76.2694,30.7234],[76.262,30.7311],[76.2518,30.7434],[76.2454,30.7592],[76.237,30.7751],[76.2398,30.7809],[76.2589,30.8073],[76.2689,30.8454],[76.2758,30.8692],[76.2983,30.8761],[76.3106,30.8815],[76.3111,30.9338],[76.3027,30.986],[76.2966,30.9926],[76.2768,30.9827],[76.2548,30.9849],[76.2443,30.9983],[76.2004,31.0091],[76.1216,30.989],[76.0896,30.9896],[76.0433,30.9997],[75.9869,30.9913],[75.9784,31.0125],[75.9441,31.0214]]]},"properties":{"NAME_1":"Punjab","NAME_2":"Ludhiana"}},{"type":"Feature","geometry":{"type":"Polygon","coordinates":[[[75.5832,30.1406],[75.5551,30.1504],[75.5461,30.145],[75.539,30.1398],[75.5356,30.1413],[75.5237,30.1485],[75.5006,30.1459],[75.4841,30.1593],[75.4797,30.1718],[75.4708,30.1844],[75.4532,30.1986],[75.437,30.196],[75.4066,30.1901],[75.3915,30.198],[75.3864,30.2067],[75.3636,30.2005],[75.3532,30.1921],[75.3481,30.1857],[75.3555,30.1754],[75.3499,30.1695],[75.3386,30.1451],[75.333,30.1329],[75.3183,30.1231],[75.3061,30.1147],[75.2929,30.1103],[75.2714,30.1088],[75.25,30.1007],[75.2508,30.061],[75.2544,30.0565],[75.2614,30.0609],[75.2653,30.062],[75.2491,30.0458],[75.2432,30.0379],[75.25,30.0184],[75.2536,30.0167],[75.2737,30.0166],[75.2842,30.0207],[75.2925,30.0164],[75.2833,30.0118],[75.2661,29.9914],[75.27,29.9791],[75.2407,29.9805],[75.2242,29.9587],[75.1946,29.9778],[75.1843,29.9748],[75.1737,29.9702],[75.1721,29.9478],[75.1592,29.926],[75.1708,29.9123],[75.1747,29.8852],[75.2027,29.8808],[75.2054,29.8593],[75.1768,29.8473],[75.1764,29.8435],[75.1786,29.8369],[75.1823,29.8387],[75.2009,29.83],[75.1978,29.8134],[75.2054,29.79],[75.2167,29.7715],[75.2273,29.7561],[75.2214,29.7331],[75.2166,29.73],[75.2062,29.7353],[75.1981,29.7308],[75.1872,29.7119],[75.1924,29.6995],[75.1953,29.6878],[75.1889,29.6808],[75.1678,29.6733],[75.1589,29.6694],[75.1628,29.658],[75.1733,29.6495],[75.1733,29.6301],[75.1994,29.6227],[75.2232,29.5989],[75.2194,29.5925],[75.2112,29.5824],[75.2218,29.5703],[75.2235,29.5462],[75.275,29.5611],[75.2906,29.5618],[75.303,29.5791],[75.2803,29.6033],[75.2879,29.6198],[75.3075,29.6326],[75.3117,29.6488],[75.3177,29.6707],[75.3301,29.6723],[75.3468,29.6589],[75.346,29.6714],[75.3412,29.6952],[75.3586,29.7058],[75.3788,29.7113],[75.3822,29.7271],[75.3909,29.7386],[75.3972,29.761],[75.41,29.7753],[75.4346,29.7803],[75.4443,29.8078],[75.5063,29.7741],[75.5302,29.7727],[75.5564,29.7658],[75.5631,29.7442],[75.6226,29.7536],[75.6254,29.7732],[75.6662,29.7727],[75.6783,29.7571],[75.6974,29.7552],[75.7099,29.8123],[75.726,29.8115],[75.7352,29.8226],[75.7404,29.8277],[75.7455,29.8296],[75.7527,29.8308],[75.7628,29.8443],[75.7619,29.8465],[75.7658,29.8553],[75.7532,29.8745],[75.7509,29.8855],[75.7599,29.8999],[75.7557,29.9212],[75.736,29.921],[75.7219,29.936],[75.6967,29.929],[75.694,29.9211],[75.6627,29.9114],[75.6581,29.9227],[75.658,29.9274],[75.6482,29.9338],[75.6342,29.9389],[75.6431,29.9684],[75.6421,29.9849],[75.6668,30.0015],[75.6725,30.0032],[75.6809,30.017],[75.6791,30.0261],[75.6725,30.0273],[75.6679,30.0347],[75.6629,30.0406],[75.6584,30.0375],[75.6502,30.0385],[75.6431,30.0314],[75.6423,30.0277],[75.6362,30.0282],[75.6304,30.0537],[75.6306,30.0691],[75.6283,30.0764],[75.6203,30.0918],[75.6342,30.1052],[75.6402,30.1148],[75.6164,30.1345],[75.6128,30.1453],[75.5894,30.1406],[75.5832,30.1406]]]},"properties":{"NAME_1":"Punjab","NAME_2":"Mansa"}},{"type":"Feature","geometry":{"type":"Polygon","coordinates":[[[75.3429,30.99],[75.2936,31.0046],[75.2966,31.0163],[75.2847,31.0156],[75.2819,31.0248],[75.2704,31.0431],[75.2649,31.0399],[75.2566,31.0444],[75.2365,31.0442],[75.2257,31.0547],[75.2201,31.0589],[75.2031,31.0682],[75.2007,31.0676],[75.1894,31.0721],[75.1858,31.0763],[75.1765,31.0789],[75.1659,31.0851],[75.1548,31.0946],[75.1299,31.0898],[75.1201,31.0975],[75.1163,31.0972],[75.1097,31.0721],[75.0873,31.0453],[75.0669,31.0325],[75.0612,31.0223],[75.0312,31.0313],[75.0325,31.0089],[75.0542,30.9994],[75.0561,30.9553],[75.0497,30.9432],[75.0133,30.9279],[74.9955,30.9145],[74.9819,30.8978],[74.9647,30.8938],[74.9432,30.8916],[74.9342,30.868],[74.936,30.8615],[74.9341,30.8361],[74.9357,30.8239],[74.9181,30.803],[74.9144,30.7835],[74.9119,30.7846],[74.8996,30.7614],[74.9001,30.7522],[74.9025,30.7435],[74.8995,30.7362],[74.8947,30.7071],[74.9035,30.6805],[74.9438,30.6749],[74.9463,30.6575],[74.9371,30.6052],[74.9426,30.5903],[74.9052,30.5855],[74.8923,30.5497],[74.9159,30.5399],[74.9345,30.5705],[74.968,30.5435],[74.9805,30.544],[74.9804,30.4976],[74.9969,30.4891],[75.024,30.5048],[75.0314,30.503],[75.0496,30.5035],[75.0732,30.5294],[75.0821,30.5272],[75.0981,30.5213],[75.1097,30.5234],[75.1185,30.5235],[75.1204,30.5322],[75.1115,30.563],[75.138,30.5821],[75.1512,30.5782],[75.1672,30.555],[75.171,30.5387],[75.1725,30.5099],[75.1758,30.5077],[75.1854,30.5118],[75.1985,30.5169],[75.2348,30.5161],[75.247,30.5189],[75.2741,30.5088],[75.2812,30.5112],[75.2826,30.5111],[75.2826,30.5127],[75.3031,30.5361],[75.3226,30.5249],[75.3281,30.5179],[75.3401,30.5171],[75.3675,30.522],[75.3888,30.5309],[75.4035,30.5427],[75.4097,30.5527],[75.4036,30.5582],[75.3892,30.6005],[75.3898,30.6185],[75.3694,30.6239],[75.3616,30.6505],[75.3677,30.6764],[75.3593,30.6904],[75.3591,30.7073],[75.3686,30.7105],[75.3751,30.7234],[75.3649,30.7364],[75.369,30.7539],[75.3719,30.7702],[75.3766,30.7772],[75.3845,30.8103],[75.3738,30.8151],[75.3591,30.8409],[75.3622,30.8521],[75.3617,30.8579],[75.3761,30.8646],[75.3902,30.8855],[75.3947,30.8952],[75.3692,30.9221],[75.3689,30.9265],[75.3635,30.9308],[75.3534,30.9419],[75.3527,30.9539],[75.3429,30.99]]]},"properties":{"NAME_1":"Punjab","NAME_2":"Moga"}},{"type":"Feature","geometry":{"type":"Polygon","coordinates":[[[74.4915,30.6673],[74.4774,30.6654],[74.4683,30.6576],[74.479,30.641],[74.4818,30.6382],[74.4598,30.6312],[74.4507,30.6142],[74.4495,30.6085],[74.442,30.5983],[74.4386,30.5958],[74.4178,30.5486],[74.3929,30.5565],[74.378,30.5267],[74.3692,30.5202],[74.3703,30.4977],[74.3547,30.48],[74.3439,30.4802],[74.3362,30.4823],[74.3357,30.4648],[74.3266,30.4504],[74.3107,30.4442],[74.2741,30.4312],[74.2651,30.4293],[74.2455,30.4245],[74.2999,30.4088],[74.3439,30.4015],[74.348,30.3901],[74.327,30.3838],[74.3015,30.3765],[74.3113,30.3283],[74.2942,30.3051],[74.2906,30.2786],[74.2889,30.2689],[74.2728,30.2723],[74.2516,30.2456],[74.277,30.2309],[74.2841,30.2326],[74.3058,30.2408],[74.3469,30.2392],[74.3414,30.212],[74.3269,30.1612],[74.3644,30.1503],[74.3675,30.1382],[74.3861,30.1152],[74.3925,30.1087],[74.3997,30.0932],[74.3961,30.0974],[74.3631,30.1016],[74.3615,30.0957],[74.3591,30.0916],[74.3572,30.0848],[74.3789,30.0621],[74.3932,30.0432],[74.3987,30.0264],[74.4405,30.0273],[74.4458,30.001],[74.4168,29.9971],[74.442,29.9471],[74.5191,29.9433],[74.5246,29.9516],[74.552,29.9292],[74.5618,29.9293],[74.5858,29.9148],[74.622,29.9078],[74.6396,29.9039],[74.6399,29.9225],[74.6657,29.9417],[74.6908,29.9693],[74.6955,29.9715],[74.6945,29.988],[74.6991,29.9932],[74.7035,30.0034],[74.6997,30.0222],[74.6862,30.034],[74.6881,30.0383],[74.69,30.069],[74.6739,30.073],[74.6662,30.0884],[74.6733,30.1024],[74.6748,30.1077],[74.6653,30.1092],[74.6611,30.1076],[74.6397,30.1118],[74.636,30.1141],[74.6219,30.1277],[74.6319,30.1482],[74.659,30.1654],[74.6647,30.1664],[74.6829,30.1604],[74.7096,30.1677],[74.7158,30.1715],[74.7265,30.1814],[74.72,30.1972],[74.7044,30.1974],[74.711,30.2267],[74.7164,30.2317],[74.7103,30.2524],[74.7124,30.2583],[74.7267,30.278],[74.7274,30.2797],[74.7377,30.2817],[74.7239,30.3039],[74.7151,30.3084],[74.736,30.3216],[74.7597,30.3239],[74.7381,30.3436],[74.6915,30.3542],[74.6915,30.3561],[74.7133,30.3657],[74.7524,30.347],[74.7757,30.3398],[74.8061,30.3875],[74.8113,30.3937],[74.8006,30.4012],[74.7426,30.3943],[74.7447,30.4336],[74.7255,30.4469],[74.7232,30.4645],[74.752,30.4858],[74.726,30.4934],[74.7084,30.5093],[74.6766,30.5211],[74.6994,30.5577],[74.6572,30.5786],[74.6168,30.6138],[74.6094,30.6351],[74.5794,30.6539],[74.5498,30.6628],[74.4915,30.6673]]]},"properties":{"NAME_1":"Punjab","NAME_2":"Muktsar"}},{"type":"Feature","geometry":{"type":"Polygon","coordinates":[[[75.8784,31.2776],[75.8885,31.2578],[75.8619,31.2456],[75.8584,31.2757],[75.8264,31.2788],[75.8449,31.247],[75.8371,31.2367],[75.7987,31.2238],[75.7746,31.2003],[75.8345,31.1857],[75.8709,31.1536],[75.9144,31.0958],[75.9194,31.0654],[75.9441,31.0214],[75.9784,31.0125],[75.9869,30.9913],[76.0433,30.9997],[76.0896,30.9896],[76.1216,30.989],[76.2004,31.0091],[76.2443,30.9983],[76.2548,30.9849],[76.2768,30.9827],[76.2966,30.9926],[76.3491,30.9736],[76.3888,30.9792],[76.4284,30.9745],[76.4614,30.9817],[76.4952,30.9814],[76.5066,30.9982],[76.4671,31.028],[76.423,31.0834],[76.4159,31.1181],[76.3738,31.1516],[76.3433,31.2084],[76.3217,31.2294],[76.295,31.2147],[76.2604,31.2413],[76.2282,31.2473],[76.2074,31.2008],[76.1854,31.1928],[76.1942,31.1683],[76.1933,31.1403],[76.1596,31.1382],[76.1254,31.1542],[76.1199,31.1702],[76.0896,31.1807],[76.0757,31.2268],[76.0398,31.2296],[75.9805,31.2578],[75.9406,31.2579],[75.9313,31.275],[75.8784,31.2776]]]},"properties":{"NAME_1":"Punjab","NAME_2":"Nawan Shehar"}},{"type":"Feature","geometry":{"type":"Polygon","coordinates":[[[76.835,30.6641],[76.8188,30.6606],[76.8105,30.685],[76.8059,30.6803],[76.8029,30.6755],[76.7951,30.6498],[76.7726,30.6528],[76.7517,30.6123],[76.719,30.5749],[76.7055,30.5927],[76.679,30.5729],[76.655,30.5874],[76.6376,30.6296],[76.6168,30.6496],[76.6264,30.661],[76.6184,30.6812],[76.582,30.665],[76.5677,30.651],[76.5722,30.645],[76.5796,30.6382],[76.5794,30.6078],[76.5754,30.6072],[76.5582,30.6149],[76.5566,30.6123],[76.5511,30.6099],[76.5466,30.5985],[76.5685,30.5833],[76.5666,30.5756],[76.5575,30.567],[76.5536,30.5711],[76.5373,30.564],[76.5235,30.562],[76.5188,30.5649],[76.5147,30.5648],[76.4999,30.5711],[76.4917,30.5667],[76.4928,30.5571],[76.4872,30.5398],[76.4798,30.5044],[76.485,30.4956],[76.4891,30.474],[76.4894,30.4708],[76.4837,30.458],[76.4829,30.4537],[76.48,30.4496],[76.4705,30.4398],[76.4497,30.4376],[76.4346,30.4518],[76.403,30.445],[76.3963,30.4427],[76.4032,30.4329],[76.4036,30.4277],[76.3858,30.4249],[76.3685,30.4301],[76.3566,30.4361],[76.34,30.4368],[76.3273,30.4344],[76.3224,30.4388],[76.314,30.4338],[76.3079,30.4343],[76.3133,30.4471],[76.3163,30.447],[76.3218,30.4497],[76.3267,30.454],[76.3269,30.4585],[76.3229,30.4648],[76.3206,30.4796],[76.3223,30.5059],[76.3189,30.5165],[76.3156,30.5236],[76.3009,30.5498],[76.2998,30.5583],[76.2804,30.5775],[76.2626,30.5572],[76.2564,30.5575],[76.2395,30.5532],[76.202,30.5475],[76.1545,30.5275],[76.0669,30.5116],[76.0525,30.4817],[76.0687,30.4618],[76.0366,30.4366],[76.0409,30.4241],[75.9935,30.367],[75.9731,30.3637],[75.9785,30.3408],[76.0087,30.3311],[76.0365,30.3398],[76.0549,30.3195],[76.1445,30.317],[76.171,30.3092],[76.1915,30.2875],[76.171,30.2768],[76.1611,30.2489],[76.1435,30.2574],[76.1138,30.2468],[76.0888,30.2289],[76.0654,30.2323],[76.0387,30.1917],[76.0562,30.1596],[76.0604,30.1296],[76.0858,30.1252],[76.0917,30.105],[76.0726,30.0673],[76.0483,30.0776],[76.0261,30.04],[75.9946,30.0059],[76.0203,29.9678],[76.0049,29.9474],[75.9801,29.9507],[75.9716,29.9102],[76.0491,29.8719],[76.0484,29.8584],[76.0686,29.8446],[76.1148,29.8579],[76.1075,29.8336],[76.0906,29.8108],[76.1164,29.7964],[76.1393,29.8168],[76.1667,29.8183],[76.1942,29.845],[76.2111,29.8432],[76.242,29.869],[76.2253,29.8851],[76.1974,29.884],[76.1827,29.8939],[76.1789,29.9463],[76.2039,29.9441],[76.1894,30.0042],[76.1989,30.0348],[76.2299,30.0806],[76.2538,30.106],[76.2308,30.1085],[76.2047,30.1279],[76.2105,30.1561],[76.2512,30.119],[76.2931,30.1186],[76.3284,30.1095],[76.3489,30.1277],[76.39,30.1275],[76.3846,30.1458],[76.4016,30.1577],[76.381,30.1832],[76.3988,30.199],[76.42,30.1979],[76.4286,30.1798],[76.426,30.1476],[76.4521,30.1007],[76.4908,30.0972],[76.5011,30.0766],[76.5336,30.0828],[76.5549,30.0988],[76.5895,30.0793],[76.6195,30.0954],[76.6276,30.1105],[76.6276,30.1551],[76.6227,30.1703],[76.6393,30.1852],[76.6389,30.2059],[76.6119,30.2256],[76.5903,30.2541],[76.5759,30.2559],[76.5477,30.2344],[76.5458,30.2586],[76.6144,30.2753],[76.6513,30.2993],[76.6709,30.3192],[76.6977,30.3249],[76.7385,30.3596],[76.7001,30.3936],[76.7265,30.405],[76.7252,30.4204],[76.7489,30.4266],[76.8085,30.4119],[76.8325,30.4339],[76.8647,30.4088],[76.8978,30.3626],[76.9273,30.3886],[76.9093,30.4033],[76.8899,30.4367],[76.8939,30.4896],[76.9124,30.4937],[76.9201,30.5247],[76.8878,30.5382],[76.9022,30.551],[76.9038,30.5617],[76.9039,30.5752],[76.9072,30.5914],[76.9134,30.5997],[76.8945,30.6233],[76.8806,30.6331],[76.8727,30.64],[76.8586,30.6406],[76.8554,30.6732],[76.8348,30.6558],[76.835,30.6641]]]},"properties":{"NAME_1":"Punjab","NAME_2":"Patiala"}},{"type":"Feature","geometry":{"type":"Polygon","coordinates":[[[76.3816,31.4106],[76.3158,31.4024],[76.3296,31.3795],[76.3301,31.3453],[76.296,31.3422],[76.3023,31.3264],[76.2774,31.3099],[76.2969,31.2812],[76.3379,31.2409],[76.3217,31.2294],[76.3433,31.2084],[76.3738,31.1516],[76.4159,31.1181],[76.423,31.0834],[76.4671,31.028],[76.5066,30.9982],[76.4952,30.9814],[76.4614,30.9817],[76.4284,30.9745],[76.3888,30.9792],[76.3491,30.9736],[76.2966,30.9926],[76.3027,30.986],[76.3111,30.9338],[76.3106,30.8815],[76.3146,30.8888],[76.3232,30.9018],[76.3356,30.9153],[76.3562,30.9022],[76.3617,30.881],[76.3611,30.8784],[76.3203,30.8596],[76.3177,30.8566],[76.3159,30.8539],[76.3155,30.8526],[76.3376,30.8323],[76.3531,30.8332],[76.3604,30.8301],[76.3668,30.8367],[76.377,30.8351],[76.3794,30.8234],[76.4053,30.8036],[76.3952,30.7743],[76.4005,30.7608],[76.4088,30.7638],[76.433,30.7628],[76.4504,30.7576],[76.4699,30.7537],[76.4783,30.7497],[76.4945,30.7529],[76.5203,30.7685],[76.5275,30.7616],[76.5308,30.7476],[76.5315,30.7309],[76.5221,30.7263],[76.5043,30.7102],[76.5338,30.7139],[76.5415,30.7056],[76.5416,30.6948],[76.557,30.6824],[76.5176,30.6488],[76.5155,30.6431],[76.5181,30.6388],[76.5439,30.6316],[76.5491,30.6479],[76.5677,30.651],[76.582,30.665],[76.6184,30.6812],[76.6264,30.661],[76.6168,30.6496],[76.6376,30.6296],[76.655,30.5874],[76.679,30.5729],[76.7055,30.5927],[76.719,30.5749],[76.7517,30.6123],[76.7726,30.6528],[76.7951,30.6498],[76.8029,30.6755],[76.7944,30.6693],[76.7385,30.6892],[76.7329,30.6972],[76.7246,30.7038],[76.7269,30.7076],[76.7152,30.7133],[76.7153,30.715],[76.7099,30.7355],[76.6929,30.7574],[76.6906,30.7601],[76.7183,30.7691],[76.7292,30.7763],[76.7352,30.783],[76.7382,30.7899],[76.74,30.7911],[76.7458,30.7946],[76.7509,30.7968],[76.7676,30.7951],[76.7763,30.784],[76.7727,30.7831],[76.7809,30.7739],[76.7961,30.7858],[76.8022,30.7818],[76.8035,30.7776],[76.7931,30.7665],[76.8282,30.7638],[76.8308,30.7679],[76.8413,30.7991],[76.8335,30.8046],[76.8278,30.8326],[76.8066,30.8403],[76.7849,30.8613],[76.769,30.8765],[76.7625,30.8934],[76.7699,30.9064],[76.7538,30.9178],[76.7486,30.9292],[76.726,30.9393],[76.7126,30.9634],[76.6942,30.9725],[76.6682,30.9699],[76.6101,31.0042],[76.6136,31.022],[76.599,31.0536],[76.6049,31.0784],[76.6257,31.1102],[76.5893,31.1277],[76.5987,31.1512],[76.5904,31.1829],[76.6354,31.213],[76.6163,31.2294],[76.5868,31.2161],[76.576,31.2258],[76.6016,31.2509],[76.5705,31.2801],[76.5459,31.2559],[76.5109,31.2826],[76.4886,31.2734],[76.4667,31.3102],[76.4483,31.306],[76.428,31.3252],[76.3911,31.3786],[76.3816,31.4106]]]},"properties":{"NAME_1":"Punjab","NAME_2":"Rupnagar"}},{"type":"Feature","geometry":{"type":"Polygon","coordinates":[[[76.0712,30.5647],[76.0232,30.5921],[76.0156,30.6176],[75.9504,30.5903],[75.9452,30.5788],[75.9165,30.5786],[75.9187,30.5983],[75.8932,30.6069],[75.8641,30.6408],[75.8843,30.649],[75.8684,30.6775],[75.8412,30.673],[75.8307,30.6887],[75.8052,30.6666],[75.779,30.662],[75.7689,30.6454],[75.7282,30.6311],[75.7152,30.6204],[75.6987,30.6427],[75.6581,30.652],[75.6143,30.6157],[75.6011,30.624],[75.5389,30.6352],[75.528,30.5958],[75.4533,30.6057],[75.4157,30.5852],[75.3962,30.5841],[75.4036,30.5582],[75.4097,30.5527],[75.4035,30.5427],[75.3888,30.5309],[75.3675,30.522],[75.3401,30.5171],[75.3281,30.5179],[75.3226,30.5249],[75.3031,30.5361],[75.2826,30.5127],[75.2826,30.5111],[75.2812,30.5112],[75.2707,30.5],[75.2624,30.4839],[75.2463,30.4665],[75.2584,30.4498],[75.2899,30.4253],[75.2983,30.3806],[75.3245,30.3795],[75.3106,30.3346],[75.3132,30.3155],[75.3354,30.3056],[75.3671,30.2366],[75.3613,30.2025],[75.3636,30.2005],[75.3864,30.2067],[75.3915,30.198],[75.4066,30.1901],[75.437,30.196],[75.4532,30.1986],[75.4708,30.1844],[75.4797,30.1718],[75.4841,30.1593],[75.5006,30.1459],[75.5237,30.1485],[75.5356,30.1413],[75.539,30.1398],[75.5461,30.145],[75.5551,30.1504],[75.5832,30.1406],[75.5894,30.1406],[75.6128,30.1453],[75.6164,30.1345],[75.6402,30.1148],[75.6342,30.1052],[75.6203,30.0918],[75.6283,30.0764],[75.6306,30.0691],[75.6304,30.0537],[75.6362,30.0282],[75.6423,30.0277],[75.6431,30.0314],[75.6502,30.0385],[75.6584,30.0375],[75.6629,30.0406],[75.6679,30.0347],[75.6725,30.0273],[75.6791,30.0261],[75.6809,30.017],[75.6725,30.0032],[75.6668,30.0015],[75.6421,29.9849],[75.6431,29.9684],[75.6342,29.9389],[75.6482,29.9338],[75.658,29.9274],[75.6581,29.9227],[75.6627,29.9114],[75.694,29.9211],[75.6967,29.929],[75.7219,29.936],[75.736,29.921],[75.7557,29.9212],[75.7599,29.8999],[75.7509,29.8855],[75.7532,29.8745],[75.7658,29.8553],[75.7619,29.8465],[75.7628,29.8443],[75.7527,29.8308],[75.7455,29.8296],[75.7404,29.8277],[75.7352,29.8226],[75.726,29.8115],[75.7327,29.8113],[75.7484,29.8121],[75.7716,29.8254],[75.7961,29.8071],[75.82,29.8154],[75.8436,29.776],[75.8638,29.7523],[75.8972,29.7555],[75.9139,29.7388],[75.9387,29.7335],[75.9725,29.7324],[76.0038,29.7509],[76.0415,29.7488],[76.0584,29.7731],[76.0743,29.7812],[76.0777,29.8058],[76.0906,29.8108],[76.1075,29.8336],[76.1148,29.8579],[76.0686,29.8446],[76.0484,29.8584],[76.0491,29.8719],[75.9716,29.9102],[75.9801,29.9507],[76.0049,29.9474],[76.0203,29.9678],[75.9946,30.0059],[76.0261,30.04],[76.0483,30.0776],[76.0726,30.0673],[76.0917,30.105],[76.0858,30.1252],[76.0604,30.1296],[76.0562,30.1596],[76.0387,30.1917],[76.0654,30.2323],[76.0888,30.2289],[76.1138,30.2468],[76.1435,30.2574],[76.1611,30.2489],[76.171,30.2768],[76.1915,30.2875],[76.171,30.3092],[76.1445,30.317],[76.0549,30.3195],[76.0365,30.3398],[76.0087,30.3311],[75.9785,30.3408],[75.9731,30.3637],[75.9935,30.367],[76.0409,30.4241],[76.0366,30.4366],[76.0687,30.4618],[76.0525,30.4817],[76.0669,30.5116],[76.0685,30.5149],[76.0755,30.5302],[76.0724,30.5408],[76.0684,30.555],[76.0712,30.5647]]]},"properties":{"NAME_1":"Punjab","NAME_2":"Sangrur"}}]}