{"type":"FeatureCollection","features":[{"type":"Feature","geometry":{"type":"MultiPolygon","coordinates":[[[[74.0551,25.8308],[74.0442,25.8337],[74.0077,25.8652],[73.975,25.8506],[73.97,25.8359],[73.9428,25.8327],[73.9417,25.8055],[73.9235,25.7954],[73.9314,25.7714],[73.9059,25.742],[73.9129,25.6994],[73.9056,25.6868],[73.9257,25.6822],[73.9484,25.6523],[73.9877,25.6737],[74.0119,25.7055],[73.9771,25.7157],[74.0159,25.7484],[74.0406,25.7472],[74.0922,25.769],[74.0945,25.7857],[74.0686,25.8063],[74.0551,25.8308]]],[[[74.9722,26.8935],[74.9787,26.9444],[74.9502,26.966],[74.9156,26.9659],[74.9067,26.979],[74.8475,26.978],[74.8228,26.9242],[74.8268,26.9025],[74.8005,26.8556],[74.7699,26.8516],[74.7689,26.8253],[74.7769,26.8015],[74.761,26.7952],[74.7453,26.7733],[74.6938,26.7739],[74.6808,26.7366],[74.6616,26.7141],[74.7197,26.7047],[74.718,26.6785],[74.6899,26.6415],[74.6703,26.5968],[74.6152,26.5686],[74.5981,26.5847],[74.6142,26.6026],[74.5897,26.6317],[74.5376,26.5649],[74.4781,26.4999],[74.462,26.4892],[74.4402,26.5047],[74.4259,26.4884],[74.3724,26.4911],[74.3497,26.4707],[74.3343,26.445],[74.3138,26.4597],[74.2881,26.4511],[74.2862,26.4187],[74.3021,26.3847],[74.3015,26.3312],[74.2739,26.3143],[74.2512,26.2884],[74.2703,26.2629],[74.3084,26.254],[74.362,26.2938],[74.3993,26.2693],[74.3714,26.25],[74.3742,26.2087],[74.3669,26.1925],[74.3399,26.1987],[74.3139,26.1833],[74.3003,26.1871],[74.2847,26.1529],[74.2854,26.123],[74.2431,26.0804],[74.2192,26.0437],[74.2045,26.0499],[74.1812,26.0313],[74.1722,26.0657],[74.1515,26.0479],[74.1548,26.0244],[74.1715,26.0124],[74.1299,25.9652],[74.1538,25.9597],[74.1429,25.9428],[74.1588,25.9307],[74.1366,25.8911],[74.1133,25.8817],[74.1157,25.8681],[74.1721,25.8463],[74.1821,25.8505],[74.1965,25.8564],[74.2232,25.8457],[74.3012,25.8958],[74.3127,25.8887],[74.3437,25.905],[74.3262,25.9322],[74.3548,25.9527],[74.3869,25.9647],[74.4107,25.9394],[74.4333,25.9268],[74.4511,25.9346],[74.5173,25.9149],[74.5292,25.8893],[74.5218,25.8696],[74.5697,25.889],[74.5568,25.9165],[74.616,25.9066],[74.6522,25.9174],[74.7024,25.9223],[74.7215,25.9196],[74.7992,25.8735],[74.856,25.8792],[74.8877,25.8735],[74.9017,25.8841],[74.9328,25.8768],[74.9423,25.8651],[74.9836,25.8638],[74.9973,25.8489],[75.0137,25.8595],[75.0372,25.8454],[75.0347,25.8321],[75.0072,25.8107],[75.027,25.7896],[75.0509,25.7793],[75.0647,25.761],[75.0694,25.7364],[75.089,25.722],[75.0837,25.7031],[75.1059,25.697],[75.1345,25.7042],[75.1458,25.7233],[75.1901,25.708],[75.213,25.691],[75.2514,25.6846],[75.2578,25.7015],[75.3157,25.7676],[75.3317,25.7864],[75.3364,25.8147],[75.3513,25.8337],[75.3233,25.8415],[75.3078,25.8573],[75.2601,25.8567],[75.2626,25.884],[75.2456,25.8996],[75.2478,25.9411],[75.2763,25.9477],[75.3034,25.9452],[75.3136,25.9579],[75.3241,26.0024],[75.3448,26.0056],[75.3516,26.0231],[75.3242,26.06],[75.3049,26.0663],[75.3045,26.0843],[75.325,26.1043],[75.3359,26.1345],[75.303,26.1507],[75.2732,26.1392],[75.2614,26.1036],[75.2422,26.082],[75.2168,26.1108],[75.1844,26.1135],[75.1843,26.1671],[75.1548,26.1862],[75.1569,26.2041],[75.1395,26.2476],[75.1136,26.2555],[75.1095,26.2884],[75.1273,26.2958],[75.1344,26.3212],[75.122,26.3583],[75.1404,26.3693],[75.1257,26.4004],[75.1328,26.4129],[75.1602,26.4241],[75.1726,26.4477],[75.1658,26.4656],[75.1409,26.4774],[75.1486,26.5037],[75.1117,26.527],[75.1192,26.5503],[75.1,26.5594],[75.0671,26.5474],[75.058,26.5593],[75.0774,26.6133],[75.0638,26.6156],[75.0633,26.6539],[75.0171,26.6685],[74.9957,26.6897],[74.97,26.6762],[74.9613,26.6866],[74.9603,26.7254],[74.9956,26.7339],[75.0019,26.7516],[74.9775,26.7652],[74.9363,26.7529],[74.9301,26.7963],[74.9123,26.84],[74.952,26.85],[74.9525,26.8708],[74.9722,26.8935]]]]},"properties":{"NAME_1":"Rajasthan","NAME_2":"Ajmer"}},{"type":"Feature","geometry":{"type":"Polygon","coordinates":[[[76.8543,28.2252],[76.8334,28.2248],[76.7903,28.1938],[76.7915,28.1572],[76.7551,28.1466],[76.7391,28.129],[76.71,28.1324],[76.6822,28.0978],[76.6479,28.0922],[76.651,28.0445],[76.6601,28.0191],[76.6369,28.0107],[76.599,28.0098],[76.5466,27.9714],[76.531,27.9793],[76.5385,28.0391],[76.5114,28.0354],[76.4922,28.0471],[76.4557,28.0465],[76.458,28.062],[76.4977,28.0647],[76.4699,28.0863],[76.4486,28.0932],[76.4569,28.1104],[76.4978,28.1066],[76.4897,28.1337],[76.4723,28.1496],[76.4371,28.1522],[76.397,28.1478],[76.3768,28.1381],[76.3598,28.1434],[76.3532,28.1662],[76.3087,28.1834],[76.2782,28.1686],[76.3227,28.1492],[76.3556,28.1285],[76.3319,28.1067],[76.308,28.1113],[76.3373,28.0731],[76.3533,28.0656],[76.3368,28.0297],[76.3166,28.021],[76.2901,28.0299],[76.2901,28.0491],[76.2718,28.0664],[76.2511,28.0709],[76.2334,28.0564],[76.1773,28.0593],[76.1769,28.049],[76.2035,28.0304],[76.1743,28.0219],[76.1539,27.9925],[76.1795,27.9728],[76.1697,27.9097],[76.1986,27.899],[76.1903,27.8816],[76.2059,27.848],[76.2233,27.8409],[76.2362,27.8548],[76.2601,27.8396],[76.2697,27.8074],[76.2532,27.7708],[76.2385,27.766],[76.252,27.7047],[76.2368,27.6764],[76.2468,27.6585],[76.2392,27.6314],[76.1951,27.6267],[76.21,27.5575],[76.2087,27.5416],[76.2329,27.53],[76.2398,27.4932],[76.2214,27.4426],[76.2268,27.4223],[76.1983,27.3693],[76.1746,27.3344],[76.1528,27.318],[76.1452,27.2874],[76.1206,27.2558],[76.1179,27.2428],[76.1563,27.2202],[76.1521,27.1893],[76.1783,27.1893],[76.1878,27.126],[76.2063,27.1301],[76.2379,27.1554],[76.2511,27.1813],[76.274,27.1847],[76.2863,27.1342],[76.2811,27.0773],[76.2866,27.0686],[76.3355,27.0667],[76.3575,27.061],[76.3939,27.0903],[76.4024,27.1309],[76.4261,27.1381],[76.4368,27.0964],[76.4575,27.0829],[76.4872,27.1186],[76.5159,27.1233],[76.5429,27.1367],[76.5553,27.18],[76.614,27.1823],[76.6464,27.1712],[76.6229,27.1454],[76.6245,27.1157],[76.6365,27.0999],[76.6657,27.1001],[76.6712,27.1167],[76.7011,27.1208],[76.7545,27.1129],[76.8089,27.1283],[76.8003,27.1102],[76.8113,27.0852],[76.8285,27.0818],[76.8345,27.1193],[76.8196,27.1395],[76.8237,27.1684],[76.8433,27.1778],[76.8516,27.2134],[76.8645,27.2366],[76.9019,27.2122],[76.8934,27.1681],[76.9294,27.1442],[76.9573,27.1515],[76.9637,27.1845],[76.9961,27.1617],[77.0227,27.1606],[77.0887,27.1769],[77.0806,27.1979],[77.0384,27.2224],[77.0453,27.2385],[77.0694,27.237],[77.1155,27.2577],[77.1417,27.3189],[77.1946,27.3313],[77.2014,27.3544],[77.1865,27.3604],[77.1327,27.3518],[77.1041,27.3624],[77.0685,27.3942],[77.0377,27.3825],[77.0021,27.3987],[76.9998,27.4195],[76.952,27.4328],[76.915,27.4641],[76.9166,27.4957],[76.8896,27.4958],[76.8732,27.5143],[76.8994,27.5222],[76.922,27.5135],[76.9328,27.4913],[76.958,27.4827],[76.959,27.47],[76.9978,27.454],[77.0185,27.4542],[77.0471,27.4808],[77.0178,27.5018],[77.0287,27.5229],[77.0558,27.5336],[77.0405,27.5537],[76.9937,27.571],[76.9787,27.5408],[76.9372,27.5851],[76.9281,27.6178],[76.9754,27.6192],[76.9705,27.6571],[76.9342,27.6751],[76.9095,27.6568],[76.8916,27.6799],[76.9146,27.7008],[76.8885,27.7196],[76.8956,27.7861],[76.9066,27.8077],[76.9079,27.8359],[76.9266,27.8342],[76.9261,27.8944],[76.9388,27.919],[76.9191,27.9249],[76.9249,27.9784],[76.9186,27.9976],[76.9319,28.042],[76.9466,28.0713],[76.9618,28.144],[76.9417,28.1487],[76.884,28.1917],[76.8543,28.2252]]]},"properties":{"NAME_1":"Rajasthan","NAME_2":"Alwar"}},{"type":"Feature","geometry":{"type":"Polygon","coordinates":[[[74.5506,23.882],[74.4988,23.8975],[74.4807,23.9267],[74.452,23.9224],[74.4351,23.9086],[74.3852,23.9083],[74.3613,23.9008],[74.3556,23.8867],[74.3189,23.8593],[74.2403,23.8168],[74.1563,23.7888],[74.1404,23.7676],[74.1235,23.7135],[74.138,23.6939],[74.1321,23.6484],[74.1207,23.6118],[74.0735,23.6009],[74.0617,23.5657],[74.0349,23.5461],[74.0144,23.4682],[74.0152,23.443],[74.0038,23.4231],[73.9855,23.413],[73.9625,23.3814],[73.9835,23.3598],[73.9908,23.3376],[74.0327,23.3323],[74.0301,23.3199],[74.0487,23.2951],[74.1066,23.2941],[74.1139,23.2773],[74.1361,23.2647],[74.1395,23.2268],[74.1247,23.2066],[74.127,23.1789],[74.1457,23.1752],[74.1552,23.1578],[74.183,23.1522],[74.1895,23.1718],[74.2075,23.1921],[74.2498,23.1784],[74.2718,23.156],[74.2881,23.1187],[74.2825,23.095],[74.3102,23.0795],[74.3228,23.0627],[74.3479,23.0708],[74.3611,23.0903],[74.3912,23.112],[74.4332,23.1057],[74.4672,23.0853],[74.5123,23.0888],[74.5354,23.1015],[74.5457,23.1321],[74.6081,23.1448],[74.6547,23.182],[74.6692,23.2015],[74.7155,23.1947],[74.7457,23.2121],[74.741,23.2293],[74.7222,23.2425],[74.7011,23.2721],[74.6731,23.2749],[74.6522,23.2608],[74.6321,23.2634],[74.6153,23.2846],[74.5868,23.2845],[74.5674,23.2985],[74.5486,23.2868],[74.5337,23.323],[74.5458,23.3638],[74.5602,23.3645],[74.5724,23.3833],[74.5731,23.4192],[74.5985,23.4298],[74.6134,23.4614],[74.6589,23.4668],[74.6693,23.4839],[74.7109,23.5056],[74.7337,23.5005],[74.7424,23.5195],[74.7639,23.5247],[74.7741,23.5433],[74.7674,23.5722],[74.7736,23.5916],[74.7484,23.6157],[74.7223,23.6175],[74.6986,23.6474],[74.7004,23.7013],[74.7099,23.7131],[74.757,23.724],[74.7586,23.7517],[74.7749,23.7893],[74.7889,23.8046],[74.7837,23.8292],[74.7479,23.8567],[74.702,23.8746],[74.6934,23.8916],[74.6493,23.8865],[74.6137,23.8746],[74.5719,23.8718],[74.5506,23.882]]]},"properties":{"NAME_1":"Rajasthan","NAME_2":"Banswara"}},{"type":"Feature","geometry":{"type":"Polygon","coordinates":[[[77.0755,25.3397],[77.0635,25.3242],[77.0394,25.3251],[77.0242,25.3011],[76.9587,25.2972],[76.9527,25.2786],[76.9287,25.2792],[76.9292,25.2973],[76.8932,25.3224],[76.843,25.3305],[76.7728,25.3159],[76.7667,25.3362],[76.7404,25.3478],[76.7145,25.3424],[76.6811,25.3455],[76.6363,25.3803],[76.6025,25.389],[76.589,25.4315],[76.5743,25.4367],[76.5566,25.4188],[76.5217,25.417],[76.4971,25.4259],[76.4868,25.4117],[76.4445,25.4041],[76.4363,25.3841],[76.3667,25.3933],[76.3267,25.3791],[76.3104,25.3354],[76.3052,25.2993],[76.2837,25.2512],[76.2496,25.2423],[76.2506,25.1934],[76.2307,25.1648],[76.214,25.0887],[76.2436,25.0453],[76.2856,25.0052],[76.3006,24.9756],[76.3201,24.9634],[76.3362,24.9882],[76.3581,24.9932],[76.3734,24.9848],[76.4173,24.9817],[76.4418,24.9578],[76.4479,24.9272],[76.4824,24.925],[76.5717,24.8625],[76.569,24.8214],[76.5527,24.8086],[76.5032,24.8267],[76.4862,24.8265],[76.4391,24.7876],[76.4411,24.7684],[76.4728,24.6739],[76.4905,24.6564],[76.5273,24.6669],[76.5177,24.5945],[76.5343,24.5731],[76.5331,24.5185],[76.5464,24.5043],[76.5747,24.4967],[76.5763,24.4688],[76.5915,24.4619],[76.6009,24.4408],[76.632,24.4186],[76.6715,24.4435],[76.7016,24.4125],[76.7205,24.4185],[76.7527,24.453],[76.7963,24.4373],[76.8412,24.4428],[76.8513,24.4691],[76.8146,24.5344],[76.846,24.551],[76.8662,24.5494],[76.8757,24.5262],[76.8998,24.5478],[76.9184,24.5356],[76.9146,24.4877],[76.9602,24.4602],[76.9925,24.4734],[77.0241,24.5013],[77.032,24.5288],[77.0503,24.5265],[77.0643,24.5641],[77.0585,24.5948],[77.0595,24.6424],[77.037,24.6828],[77.0335,24.7029],[77.0192,24.715],[76.9921,24.7174],[76.972,24.7317],[76.9633,24.7596],[76.9458,24.764],[76.9217,24.7488],[76.8867,24.7542],[76.845,24.7521],[76.8467,24.77],[76.8157,24.8037],[76.8023,24.8266],[76.8375,24.8411],[76.895,24.8395],[76.9265,24.8498],[76.9489,24.8729],[76.9139,24.8879],[76.9246,24.9104],[76.8721,24.9546],[76.8664,24.9718],[76.8693,25.0111],[76.882,25.0341],[76.9011,25.034],[76.9687,25.0559],[76.9837,25.0776],[77.0772,25.058],[77.1145,25.0691],[77.1283,25.0891],[77.1577,25.0883],[77.1696,25.1137],[77.1974,25.1167],[77.2208,25.1102],[77.2623,25.1193],[77.3029,25.0839],[77.3487,25.0978],[77.3867,25.122],[77.3907,25.1882],[77.418,25.193],[77.4064,25.2263],[77.3627,25.2501],[77.3497,25.2718],[77.3667,25.2854],[77.3748,25.3059],[77.3638,25.333],[77.3439,25.3374],[77.356,25.3679],[77.3443,25.3879],[77.3613,25.413],[77.3053,25.4364],[77.283,25.4236],[77.26,25.3995],[77.2203,25.3734],[77.218,25.3313],[77.1982,25.3305],[77.1906,25.3117],[77.1536,25.3132],[77.1158,25.3351],[77.0755,25.3397]]]},"properties":{"NAME_1":"Rajasthan","NAME_2":"Baran"}},{"type":"Feature","geometry":{"type":"Polygon","coordinates":[[[72.075,26.3458],[72.0269,26.3426],[71.9858,26.3185],[71.9488,26.3124],[71.9223,26.2938],[71.8976,26.296],[71.8874,26.3366],[71.8452,26.3694],[71.8286,26.3611],[71.8143,26.3278],[71.7908,26.3414],[71.7603,26.3427],[71.7406,26.3708],[71.7087,26.3855],[71.6789,26.3797],[71.6317,26.4148],[71.6173,26.4769],[71.5808,26.5026],[71.5414,26.4836],[71.523,26.4826],[71.494,26.4511],[71.4758,26.4656],[71.4679,26.4919],[71.4436,26.4913],[71.4091,26.4668],[71.3292,26.4191],[71.2928,26.4599],[71.2599,26.4543],[71.2258,26.4396],[71.1932,26.4072],[71.1945,26.3819],[71.147,26.305],[71.1305,26.2985],[71.0823,26.3179],[71.0765,26.2949],[71.0529,26.2769],[71.0253,26.2759],[71.0029,26.2584],[70.9594,26.2413],[70.9488,26.2167],[70.9992,26.2138],[71.0454,26.1634],[71.0568,26.1351],[71.0311,26.1079],[71.0058,26.1078],[70.9695,26.0905],[70.9502,26.0716],[70.9739,26.0421],[70.9673,26.0144],[70.9499,26.0271],[70.9511,26.0449],[70.8832,26.1201],[70.8384,26.1296],[70.7582,26.1407],[70.7491,26.136],[70.7197,26.159],[70.7226,26.2033],[70.689,26.2043],[70.655,26.1895],[70.6055,26.1945],[70.5736,26.1931],[70.5096,26.1669],[70.4384,26.1711],[70.4176,26.1903],[70.3742,26.1378],[70.3382,26.1434],[70.307,26.1409],[70.2731,26.1546],[70.262,26.1503],[70.2324,26.1118],[70.2217,26.1296],[70.2001,26.1419],[70.1443,26.1418],[70.0951,26.0762],[70.0945,26.05],[70.1084,25.924],[70.1539,25.8603],[70.178,25.8195],[70.2032,25.8052],[70.2445,25.7663],[70.2608,25.7423],[70.2723,25.7087],[70.2853,25.6989],[70.3752,25.6685],[70.3997,25.6638],[70.4903,25.676],[70.5328,25.6762],[70.6017,25.7033],[70.6469,25.7065],[70.666,25.6972],[70.6811,25.6608],[70.6762,25.5239],[70.6877,25.5182],[70.6742,25.3893],[70.7232,25.3451],[70.7443,25.321],[70.7591,25.275],[70.8093,25.2238],[70.8943,25.1441],[70.9256,24.9947],[70.9455,24.9345],[71.004,24.8529],[71.0353,24.7988],[71.0729,24.712],[71.1071,24.6807],[71.1193,24.6686],[71.1716,24.6489],[71.1971,24.6429],[71.2184,24.6935],[71.2431,24.7106],[71.2715,24.743],[71.2629,24.7901],[71.2763,24.8043],[71.3128,24.8165],[71.3385,24.8456],[71.3369,24.8629],[71.3144,24.8855],[71.34,24.8922],[71.3552,24.9133],[71.3488,24.929],[71.3942,24.9645],[71.4148,24.9627],[71.4817,24.994],[71.5237,25.0029],[71.5343,24.9968],[71.5374,24.9693],[71.5633,24.9802],[71.5912,25.0185],[71.6351,25.0302],[71.6649,25.0094],[71.6861,24.9832],[71.7192,25.0191],[71.7335,25.028],[71.7431,25.0653],[71.7638,25.0708],[71.8058,25.055],[71.7987,25.0806],[71.8128,25.0989],[71.8096,25.1125],[71.8307,25.1232],[71.8437,25.1447],[71.8551,25.2035],[71.8863,25.2214],[71.907,25.2466],[71.8941,25.2585],[71.9397,25.281],[71.955,25.318],[71.9258,25.3415],[71.937,25.3606],[72.0049,25.442],[72.0379,25.473],[72.0612,25.4786],[72.0932,25.4624],[72.1085,25.4215],[72.1646,25.4315],[72.2204,25.4035],[72.2487,25.4134],[72.2745,25.4088],[72.2972,25.3892],[72.3207,25.3851],[72.3359,25.4011],[72.3364,25.4315],[72.3598,25.4515],[72.3818,25.4395],[72.4149,25.4342],[72.4598,25.4562],[72.4663,25.4525],[72.5147,25.5043],[72.5648,25.5298],[72.5517,25.5593],[72.5886,25.6005],[72.6327,25.6087],[72.6787,25.6106],[72.7024,25.5994],[72.7227,25.6078],[72.7139,25.6388],[72.6887,25.6686],[72.7238,25.6881],[72.7512,25.721],[72.7572,25.7403],[72.7262,25.7542],[72.7289,25.7739],[72.7492,25.7816],[72.7584,25.8076],[72.7795,25.8004],[72.785,25.8115],[72.8124,25.8209],[72.8362,25.8151],[72.8501,25.8408],[72.8358,25.8621],[72.8077,25.8518],[72.7786,25.8806],[72.755,25.8909],[72.7024,25.9323],[72.6933,25.9283],[72.6611,25.9534],[72.6335,25.9626],[72.6205,25.9763],[72.6194,26.005],[72.6861,26.028],[72.6896,26.0624],[72.6802,26.0703],[72.6956,26.1044],[72.6825,26.1718],[72.6894,26.1847],[72.6348,26.2265],[72.5973,26.278],[72.5532,26.2624],[72.5088,26.2764],[72.493,26.297],[72.4684,26.2987],[72.4286,26.284],[72.4269,26.2605],[72.4111,26.2365],[72.3761,26.2229],[72.3423,26.2418],[72.3104,26.214],[72.2571,26.2075],[72.2194,26.2285],[72.2034,26.2534],[72.1617,26.2777],[72.1553,26.3049],[72.1163,26.3178],[72.0999,26.3155],[72.075,26.3458]]]},"properties":{"NAME_1":"Rajasthan","NAME_2":"Barmer"}},{"type":"Feature","geometry":{"type":"Polygon","coordinates":[[[77.2758,27.8065],[77.2346,27.7858],[77.2222,27.7976],[77.1889,27.7984],[77.1724,27.8163],[77.1497,27.8124],[77.1473,27.7867],[77.1012,27.7855],[77.0724,27.8095],[77.0383,27.82],[77.023,27.7872],[77.0501,27.761],[77.0707,27.7588],[77.078,27.7373],[77.0532,27.7279],[77.032,27.7484],[76.9944,27.742],[76.9791,27.7062],[76.9705,27.6571],[76.9754,27.6192],[76.9281,27.6178],[76.9372,27.5851],[76.9787,27.5408],[76.9937,27.571],[77.0405,27.5537],[77.0558,27.5336],[77.0287,27.5229],[77.0178,27.5018],[77.0471,27.4808],[77.0185,27.4542],[76.9978,27.454],[76.959,27.47],[76.958,27.4827],[76.9328,27.4913],[76.922,27.5135],[76.8994,27.5222],[76.8732,27.5143],[76.8896,27.4958],[76.9166,27.4957],[76.915,27.4641],[76.952,27.4328],[76.9998,27.4195],[77.0021,27.3987],[77.0377,27.3825],[77.0685,27.3942],[77.1041,27.3624],[77.1327,27.3518],[77.1865,27.3604],[77.2014,27.3544],[77.1946,27.3313],[77.1417,27.3189],[77.1155,27.2577],[77.0694,27.237],[77.0453,27.2385],[77.0384,27.2224],[77.0806,27.1979],[77.0887,27.1769],[77.0227,27.1606],[76.9961,27.1617],[76.9637,27.1845],[76.9573,27.1515],[76.9559,27.1326],[76.9881,27.1125],[76.9849,27.09],[76.9673,27.0799],[76.9912,27.0543],[77.0021,27.0328],[76.9787,27.029],[77.0008,27.0058],[77.0152,26.9528],[77.0102,26.9338],[77.056,26.894],[77.0708,26.8647],[77.098,26.8792],[77.1283,26.8443],[77.1485,26.8325],[77.203,26.8152],[77.2213,26.7995],[77.2516,26.8241],[77.2867,26.7851],[77.3241,26.8062],[77.3508,26.8006],[77.3368,26.7729],[77.3449,26.7604],[77.3416,26.717],[77.3766,26.7125],[77.429,26.7336],[77.4483,26.7467],[77.4643,26.7696],[77.4286,26.7858],[77.4392,26.8192],[77.4175,26.8428],[77.4225,26.867],[77.4505,26.875],[77.4552,26.8896],[77.4825,26.9038],[77.5798,26.9309],[77.6423,26.9673],[77.6919,26.979],[77.7036,27.0003],[77.6708,27.0489],[77.657,27.0227],[77.5988,27.0288],[77.5589,27.0488],[77.5657,27.078],[77.5463,27.0807],[77.5265,27.0665],[77.5182,27.0881],[77.5444,27.1156],[77.5973,27.1291],[77.5924,27.1401],[77.6148,27.1748],[77.6546,27.1756],[77.673,27.2004],[77.642,27.2148],[77.6391,27.2471],[77.6066,27.2727],[77.6091,27.288],[77.5917,27.3006],[77.6135,27.3148],[77.6163,27.3383],[77.593,27.338],[77.5745,27.3267],[77.5427,27.3424],[77.4972,27.3814],[77.4666,27.3843],[77.4319,27.3992],[77.4152,27.4254],[77.4296,27.462],[77.3936,27.4819],[77.392,27.502],[77.3762,27.5186],[77.3403,27.5248],[77.3304,27.5711],[77.3501,27.5934],[77.3258,27.5969],[77.3112,27.6117],[77.3423,27.653],[77.3339,27.7079],[77.3024,27.7132],[77.3107,27.7369],[77.3013,27.7565],[77.3041,27.788],[77.2758,27.8065]]]},"properties":{"NAME_1":"Rajasthan","NAME_2":"Bharatpur"}},{"type":"Feature","geometry":{"type":"Polygon","coordinates":[[[75.3157,25.7676],[75.2578,25.7015],[75.2514,25.6846],[75.213,25.691],[75.1901,25.708],[75.1458,25.7233],[75.1345,25.7042],[75.1059,25.697],[75.0837,25.7031],[75.089,25.722],[75.0694,25.7364],[75.0647,25.761],[75.0509,25.7793],[75.027,25.7896],[75.0072,25.8107],[75.0347,25.8321],[75.0372,25.8454],[75.0137,25.8595],[74.9973,25.8489],[74.9836,25.8638],[74.9423,25.8651],[74.9328,25.8768],[74.9017,25.8841],[74.8877,25.8735],[74.856,25.8792],[74.7992,25.8735],[74.7215,25.9196],[74.7024,25.9223],[74.6522,25.9174],[74.616,25.9066],[74.5568,25.9165],[74.5697,25.889],[74.5218,25.8696],[74.5292,25.8893],[74.5173,25.9149],[74.4511,25.9346],[74.4333,25.9268],[74.4107,25.9394],[74.3869,25.9647],[74.3548,25.9527],[74.3262,25.9322],[74.3437,25.905],[74.3127,25.8887],[74.3012,25.8958],[74.2232,25.8457],[74.1965,25.8564],[74.1821,25.8505],[74.1803,25.8345],[74.2141,25.808],[74.1976,25.8008],[74.2056,25.7763],[74.1893,25.7682],[74.1946,25.7414],[74.0973,25.718],[74.0756,25.6793],[74.093,25.6753],[74.1163,25.6383],[74.1157,25.6124],[74.1043,25.5938],[74.0657,25.582],[74.0835,25.5589],[74.0762,25.5399],[74.0977,25.517],[74.0937,25.5064],[74.0641,25.4911],[74.0442,25.5009],[74.0218,25.4344],[74.058,25.4414],[74.0657,25.4317],[74.0547,25.4054],[74.0317,25.3869],[74.0236,25.3534],[74.0338,25.3334],[74.0836,25.3188],[74.0762,25.303],[74.0428,25.3039],[74.0275,25.2852],[74.05,25.2383],[74.0687,25.2469],[74.0982,25.2374],[74.1227,25.2439],[74.1048,25.2068],[74.1016,25.1871],[74.0753,25.1809],[74.0587,25.1485],[74.0798,25.1511],[74.1096,25.1359],[74.1646,25.1296],[74.1814,25.1149],[74.1887,25.0623],[74.2164,25.0506],[74.2333,25.0714],[74.2592,25.0674],[74.2726,25.0693],[74.2835,25.105],[74.2961,25.1003],[74.3479,25.1416],[74.3631,25.161],[74.3791,25.1566],[74.3868,25.184],[74.4141,25.2051],[74.4348,25.1804],[74.4578,25.1699],[74.4957,25.2092],[74.511,25.2057],[74.5134,25.1843],[74.5525,25.1794],[74.5486,25.1574],[74.5635,25.1362],[74.5901,25.1521],[74.6122,25.1458],[74.6571,25.1855],[74.6935,25.1833],[74.7022,25.2023],[74.7206,25.2092],[74.7264,25.1873],[74.7479,25.1902],[74.7461,25.2145],[74.7752,25.2092],[74.7938,25.157],[74.8349,25.1492],[74.8669,25.1808],[74.8873,25.1881],[74.9064,25.1816],[74.9015,25.1616],[74.9274,25.1303],[74.9415,25.146],[74.9606,25.142],[74.9724,25.1082],[75.0329,25.1297],[75.0696,25.12],[75.0827,25.1275],[75.115,25.1277],[75.1264,25.1107],[75.1824,25.1011],[75.2028,25.0931],[75.1912,25.0577],[75.1944,25.0377],[75.3105,25.0461],[75.3496,25.0417],[75.3506,25.0248],[75.3588,25.0182],[75.4501,25.0296],[75.4528,25.0536],[75.4389,25.0775],[75.4056,25.108],[75.4185,25.1328],[75.4438,25.1444],[75.454,25.1945],[75.4483,25.2326],[75.4536,25.2461],[75.4376,25.2792],[75.415,25.2866],[75.3677,25.3202],[75.3417,25.3267],[75.3243,25.3637],[75.2839,25.3967],[75.2686,25.3999],[75.2619,25.4216],[75.2861,25.4364],[75.3046,25.4235],[75.328,25.459],[75.3597,25.4805],[75.3704,25.5062],[75.3574,25.5382],[75.3804,25.5569],[75.4318,25.6249],[75.4335,25.6572],[75.42,25.69],[75.4608,25.7224],[75.4416,25.7446],[75.4224,25.752],[75.3999,25.7783],[75.3875,25.763],[75.3157,25.7676]]]},"properties":{"NAME_1":"Rajasthan","NAME_2":"Bhilwara"}},{"type":"Feature","geometry":{"type":"Polygon","coordinates":[[[74.105,28.9405],[74.0787,28.9327],[74.0598,28.9383],[74.0657,28.9641],[74.0443,28.9979],[74.0219,29.0073],[74.0134,28.9602],[74.0193,28.9334],[73.9682,28.9037],[73.9526,28.9458],[73.9619,28.9762],[73.9041,28.9608],[73.8701,28.9406],[73.8456,28.9514],[73.8354,28.969],[73.7916,29.0065],[73.793,29.0403],[73.7654,29.051],[73.7356,29.0068],[73.724,29.0256],[73.6496,29.0175],[73.6174,29.0363],[73.5964,29.0267],[73.5639,28.9955],[73.5503,29.0076],[73.5144,28.9932],[73.4803,29.0105],[73.4482,28.9913],[73.4209,28.9902],[73.3814,29.0084],[73.3392,29.004],[73.3138,28.9872],[73.3015,28.9688],[73.2838,28.9694],[73.2743,28.9384],[73.2519,28.9402],[73.2219,28.9275],[73.1916,28.8819],[73.1996,28.8512],[73.1538,28.8155],[73.1544,28.7924],[73.1109,28.7646],[73.0815,28.7602],[73.0303,28.7404],[73.0061,28.7112],[72.9526,28.737],[72.9294,28.7257],[72.8203,28.773],[72.7869,28.7779],[72.7605,28.7962],[72.742,28.7791],[72.6877,28.8441],[72.6685,28.8598],[72.6435,28.8991],[72.5199,28.8286],[72.4466,28.7932],[72.4027,28.7779],[72.3847,28.7639],[72.3263,28.6989],[72.302,28.6648],[72.2088,28.4],[72.1844,28.358],[72.1561,28.3369],[72.1261,28.3035],[72.0191,28.2266],[71.9959,28.207],[71.9306,28.122],[71.9124,28.0481],[71.9119,28.0261],[71.8963,27.9568],[71.9201,27.919],[71.9457,27.9076],[71.9795,27.9218],[71.992,27.9377],[72.0308,27.944],[72.0767,27.9188],[72.0977,27.8924],[72.144,27.8679],[72.1419,27.8396],[72.1532,27.8064],[72.1542,27.7751],[72.1169,27.7436],[72.0925,27.7313],[72.094,27.717],[72.1162,27.7057],[72.1464,27.7065],[72.1916,27.689],[72.2191,27.6702],[72.2253,27.6529],[72.2504,27.6688],[72.2751,27.6942],[72.2984,27.7036],[72.3416,27.688],[72.3218,27.6301],[72.2811,27.5639],[72.283,27.5448],[72.2951,27.539],[72.2786,27.5088],[72.2509,27.5033],[72.2478,27.4641],[72.2777,27.4617],[72.2998,27.494],[72.3258,27.5099],[72.36,27.4863],[72.3667,27.5241],[72.3827,27.5393],[72.4062,27.5394],[72.4361,27.5582],[72.4479,27.5824],[72.4671,27.5873],[72.5001,27.5804],[72.5584,27.6154],[72.5679,27.6034],[72.6021,27.6037],[72.6225,27.5683],[72.6695,27.5399],[72.674,27.5724],[72.694,27.6018],[72.7156,27.5857],[72.7261,27.5511],[72.7642,27.5207],[72.7764,27.5332],[72.7717,27.5609],[72.8333,27.5776],[72.8481,27.5531],[72.8454,27.5316],[72.8235,27.5194],[72.8288,27.4641],[72.8805,27.475],[72.8578,27.4412],[72.8928,27.4489],[72.9001,27.4134],[72.9375,27.4459],[72.9464,27.4027],[72.9855,27.3823],[73.0105,27.3992],[73.0402,27.409],[73.1182,27.407],[73.1429,27.3891],[73.1494,27.3197],[73.1608,27.2939],[73.206,27.277],[73.2111,27.3036],[73.2399,27.3253],[73.2655,27.3031],[73.2613,27.2842],[73.2817,27.2546],[73.3198,27.2203],[73.3308,27.1988],[73.3487,27.1966],[73.3579,27.2376],[73.3726,27.2601],[73.4472,27.3095],[73.5012,27.3333],[73.4916,27.3603],[73.5231,27.3751],[73.5023,27.3952],[73.503,27.4337],[73.5197,27.4447],[73.5225,27.4782],[73.5364,27.494],[73.5837,27.4838],[73.6042,27.4926],[73.6158,27.5173],[73.6021,27.5386],[73.6387,27.5649],[73.6638,27.558],[73.6879,27.5254],[73.7381,27.5431],[73.7734,27.5105],[73.8061,27.5181],[73.8336,27.5489],[73.8476,27.5518],[73.8537,27.5719],[73.8449,27.5926],[73.8546,27.6084],[73.8397,27.6544],[73.832,27.6948],[73.838,27.7195],[73.8257,27.7382],[73.8265,27.7713],[73.8375,27.7912],[73.8121,27.8407],[73.8128,27.8564],[73.7932,27.8753],[73.7893,27.9005],[73.7106,27.9532],[73.6866,27.937],[73.6668,27.9377],[73.6649,27.9665],[73.6786,27.9995],[73.6943,28.0126],[73.6899,28.0647],[73.6599,28.0704],[73.6332,28.1154],[73.6982,28.1437],[73.7179,28.1696],[73.7198,28.212],[73.7362,28.2403],[73.736,28.2598],[73.763,28.2893],[73.8083,28.3026],[73.8197,28.3296],[73.8358,28.3298],[73.8608,28.3061],[73.9108,28.2914],[73.9894,28.3206],[74.0564,28.3278],[74.0239,28.3768],[74.0256,28.3993],[74.0411,28.4142],[74.0615,28.4165],[74.0541,28.4461],[74.06,28.4981],[74.0543,28.5296],[74.0692,28.5433],[74.1019,28.5897],[74.0762,28.6508],[74.0756,28.6696],[74.0931,28.68],[74.1876,28.7122],[74.1622,28.7381],[74.1346,28.7383],[74.1539,28.7778],[74.129,28.7961],[74.0898,28.7834],[74.0612,28.7921],[74.0861,28.8258],[74.1133,28.8475],[74.1232,28.8757],[74.1058,28.8997],[74.105,28.9405]]]},"properties":{"NAME_1":"Rajasthan","NAME_2":"Bikaner"}},{"type":"Feature","geometry":{"type":"Polygon","coordinates":[[[76.1525,25.7664],[76.1357,25.7887],[76.1099,25.7922],[76.0976,25.8147],[76.0626,25.8111],[76.0496,25.8245],[76.0566,25.8642],[76.0164,25.873],[76.008,25.8864],[75.9828,25.8696],[75.9527,25.8691],[75.9545,25.8403],[75.9428,25.8206],[75.901,25.8189],[75.9049,25.8506],[75.8895,25.8732],[75.8699,25.856],[75.8442,25.8548],[75.8301,25.8389],[75.8337,25.8082],[75.8094,25.8022],[75.8041,25.8206],[75.769,25.8268],[75.757,25.7981],[75.7573,25.7606],[75.743,25.755],[75.6909,25.7646],[75.6575,25.7469],[75.6278,25.7129],[75.6187,25.6811],[75.5919,25.6891],[75.5775,25.7134],[75.5603,25.7008],[75.5296,25.7184],[75.5077,25.7405],[75.4736,25.7388],[75.4608,25.7224],[75.42,25.69],[75.4335,25.6572],[75.4318,25.6249],[75.3804,25.5569],[75.3574,25.5382],[75.3704,25.5062],[75.3597,25.4805],[75.328,25.459],[75.3046,25.4235],[75.2861,25.4364],[75.2619,25.4216],[75.2686,25.3999],[75.2839,25.3967],[75.3243,25.3637],[75.3417,25.3267],[75.3677,25.3202],[75.415,25.2866],[75.4376,25.2792],[75.4536,25.2461],[75.4483,25.2326],[75.454,25.1945],[75.4438,25.1444],[75.4185,25.1328],[75.4056,25.108],[75.4389,25.0775],[75.4528,25.0536],[75.4501,25.0296],[75.4921,25.0241],[75.5548,25.0226],[75.5863,25.0274],[75.6114,25.0213],[75.6211,25.0003],[75.693,25.0343],[75.7399,25.0763],[75.7548,25.1155],[75.7237,25.1279],[75.7468,25.1449],[75.7328,25.1698],[75.7748,25.2009],[75.7914,25.2285],[75.7904,25.2622],[75.8332,25.2443],[75.8262,25.2309],[75.8819,25.2403],[75.8987,25.2386],[75.9093,25.2593],[75.9456,25.2799],[75.9772,25.2444],[76.0173,25.2675],[76.0294,25.2814],[76.0209,25.3188],[76.0609,25.3329],[76.0701,25.3539],[76.1088,25.3332],[76.1267,25.3484],[76.148,25.3403],[76.1529,25.3648],[76.1339,25.3747],[76.152,25.4162],[76.171,25.443],[76.1805,25.4971],[76.2046,25.4889],[76.2275,25.5041],[76.2702,25.5156],[76.288,25.5494],[76.2855,25.5738],[76.2965,25.598],[76.2962,25.6368],[76.3191,25.6473],[76.3179,25.66],[76.2829,25.6949],[76.2562,25.6738],[76.2359,25.6959],[76.1863,25.7102],[76.1532,25.7326],[76.1413,25.7499],[76.1525,25.7664]]]},"properties":{"NAME_1":"Rajasthan","NAME_2":"Bundi"}},{"type":"Feature","geometry":{"type":"MultiPolygon","coordinates":[[[[75.4501,25.0296],[75.3588,25.0182],[75.3506,25.0248],[75.3189,25.0065],[75.3231,24.9822],[75.3375,24.9631],[75.3175,24.9072],[75.2879,24.9263],[75.267,24.9142],[75.2615,24.8897],[75.3113,24.8695],[75.326,24.887],[75.372,24.878],[75.4242,24.8928],[75.4171,24.8639],[75.3441,24.8328],[75.313,24.8135],[75.3005,24.8152],[75.2838,24.85],[75.2417,24.8609],[75.2499,24.8957],[75.2013,24.8842],[75.2277,24.8478],[75.2519,24.8372],[75.2467,24.8218],[75.2174,24.8205],[75.1923,24.7887],[75.1956,24.76],[75.2169,24.7224],[75.2284,24.7351],[75.2672,24.7327],[75.3044,24.7207],[75.3509,24.7171],[75.3639,24.7095],[75.4519,24.6932],[75.4835,24.6976],[75.5351,24.72],[75.5485,24.7156],[75.5819,24.7227],[75.6133,24.6884],[75.6592,24.7017],[75.68,24.7278],[75.7418,24.7604],[75.7862,24.7655],[75.7974,24.7828],[75.8114,24.8274],[75.8187,24.8711],[75.7844,24.8721],[75.7581,24.8805],[75.7256,24.9062],[75.6985,24.9209],[75.6636,24.9489],[75.6531,24.9787],[75.6211,25.0003],[75.6114,25.0213],[75.5863,25.0274],[75.5548,25.0226],[75.4921,25.0241],[75.4501,25.0296]]],[[[75.1944,25.0377],[75.1912,25.0577],[75.2028,25.0931],[75.1824,25.1011],[75.1264,25.1107],[75.115,25.1277],[75.0827,25.1275],[75.0696,25.12],[75.0329,25.1297],[74.9724,25.1082],[74.9606,25.142],[74.9415,25.146],[74.9274,25.1303],[74.9015,25.1616],[74.9064,25.1816],[74.8873,25.1881],[74.8669,25.1808],[74.8349,25.1492],[74.7938,25.157],[74.7752,25.2092],[74.7461,25.2145],[74.7479,25.1902],[74.7264,25.1873],[74.7206,25.2092],[74.7022,25.2023],[74.6935,25.1833],[74.6571,25.1855],[74.6122,25.1458],[74.5901,25.1521],[74.5635,25.1362],[74.5486,25.1574],[74.5525,25.1794],[74.5134,25.1843],[74.511,25.2057],[74.4957,25.2092],[74.4578,25.1699],[74.4348,25.1804],[74.4141,25.2051],[74.3868,25.184],[74.3791,25.1566],[74.3631,25.161],[74.3479,25.1416],[74.2961,25.1003],[74.2835,25.105],[74.2726,25.0693],[74.2592,25.0674],[74.2735,25.0652],[74.3194,25.0345],[74.3166,25.0144],[74.297,25],[74.2708,24.994],[74.2275,24.9974],[74.1997,24.9809],[74.2008,24.9546],[74.1882,24.932],[74.1648,24.9183],[74.147,24.8883],[74.1317,24.848],[74.1109,24.8137],[74.1071,24.7832],[74.1194,24.7625],[74.1194,24.7415],[74.1517,24.7334],[74.1731,24.7183],[74.1721,24.6805],[74.205,24.6719],[74.2222,24.6496],[74.2513,24.6555],[74.2456,24.6157],[74.2609,24.5977],[74.2786,24.5952],[74.2725,24.5646],[74.2778,24.5362],[74.262,24.5359],[74.2517,24.5107],[74.2216,24.4885],[74.2184,24.4686],[74.2447,24.4554],[74.2745,24.4781],[74.2934,24.5042],[74.3133,24.4869],[74.3337,24.5083],[74.3548,24.5052],[74.3268,24.471],[74.3222,24.4449],[74.3511,24.4459],[74.3764,24.4226],[74.3788,24.4004],[74.357,24.3978],[74.3466,24.3751],[74.3755,24.3759],[74.3746,24.3565],[74.3864,24.3135],[74.4374,24.3196],[74.4419,24.2854],[74.5016,24.24],[74.5054,24.2096],[74.5273,24.2011],[74.5794,24.1525],[74.5825,24.1281],[74.5771,24.092],[74.5608,24.0862],[74.5723,24.0615],[74.5575,24.0363],[74.5574,24.0011],[74.5151,23.9845],[74.537,23.9436],[74.5506,23.882],[74.5719,23.8718],[74.6137,23.8746],[74.6493,23.8865],[74.6934,23.8916],[74.702,23.8746],[74.7479,23.8567],[74.7837,23.8292],[74.7889,23.8046],[74.7749,23.7893],[74.7586,23.7517],[74.757,23.724],[74.7099,23.7131],[74.7004,23.7013],[74.6986,23.6474],[74.7223,23.6175],[74.7484,23.6157],[74.7736,23.5916],[74.7674,23.5722],[74.7741,23.5433],[74.8029,23.5341],[74.8515,23.5574],[74.8693,23.5748],[74.8861,23.6064],[74.906,23.623],[74.9397,23.6304],[74.9242,23.6685],[74.9099,23.6769],[74.923,23.6966],[74.9242,23.7192],[74.9406,23.7349],[74.9399,23.7659],[74.9276,23.7983],[74.9103,23.8008],[74.9158,23.8457],[74.9052,23.8681],[74.9146,23.9125],[74.9415,23.9605],[74.9633,23.9737],[74.9722,24.0036],[74.993,24.0297],[74.9812,24.041],[74.9794,24.072],[74.9652,24.0827],[74.9595,24.1101],[74.9391,24.1211],[74.9275,24.1572],[74.9003,24.1743],[74.8802,24.2165],[74.9059,24.2337],[74.9041,24.2459],[74.8754,24.278],[74.8533,24.27],[74.8152,24.277],[74.7725,24.272],[74.7548,24.279],[74.7575,24.2962],[74.7836,24.3168],[74.7846,24.3674],[74.8123,24.4092],[74.8575,24.4515],[74.8145,24.4922],[74.779,24.4834],[74.7573,24.4888],[74.7157,24.5228],[74.7477,24.5362],[74.757,24.5637],[74.748,24.5968],[74.7901,24.6108],[74.7834,24.6368],[74.8171,24.6717],[74.8133,24.6861],[74.7761,24.6861],[74.7897,24.7266],[74.7801,24.7427],[74.8031,24.7549],[74.7993,24.7956],[74.8098,24.7964],[74.8185,24.7653],[74.8488,24.7087],[74.8669,24.6905],[74.8734,24.6695],[74.9025,24.6563],[74.9439,24.6623],[74.9641,24.7005],[74.9999,24.7085],[74.9908,24.7338],[74.9934,24.7527],[75.0202,24.7528],[75.0129,24.7938],[74.9704,24.7909],[74.9052,24.7975],[74.8781,24.8132],[74.8586,24.8131],[74.8559,24.8532],[74.8271,24.8991],[74.8242,24.9401],[74.8327,24.9675],[74.8621,24.9658],[74.8672,24.9369],[74.9005,24.9397],[74.9129,24.9284],[74.9125,24.8991],[74.9487,24.8948],[74.9448,24.8779],[75.0126,24.8741],[75.0434,24.8592],[75.0735,24.8873],[75.0901,24.8797],[75.1189,24.889],[75.1157,24.9654],[75.138,24.9864],[75.1644,24.9917],[75.1692,25.01],[75.1547,25.0289],[75.1738,25.0538],[75.1944,25.0377]]]]},"properties":{"NAME_1":"Rajasthan","NAME_2":"Chittaurgarh"}},{"type":"Feature","geometry":{"type":"Polygon","coordinates":[[[75.4689,28.938],[75.4416,28.9655],[75.4336,28.9958],[75.4118,28.9878],[75.3951,28.9701],[75.3911,28.9453],[75.3707,28.9404],[75.3644,28.9172],[75.3251,28.9195],[75.3302,28.9411],[75.3502,28.9497],[75.3501,28.9673],[75.3117,28.9885],[75.2872,28.9814],[75.3042,28.9569],[75.2824,28.9262],[75.2671,28.9346],[75.2334,28.9303],[75.2401,28.8865],[75.2113,28.8602],[75.1823,28.8695],[75.1648,28.8479],[75.1397,28.8749],[75.0931,28.8752],[75.0752,28.8645],[75.0196,28.8527],[75.0222,28.8808],[75.0377,28.8958],[75.0291,28.9394],[74.9964,28.9306],[74.9906,28.9176],[74.9113,28.9],[74.8912,28.9375],[74.8542,28.9469],[74.8034,28.9342],[74.7837,28.9232],[74.7647,28.9006],[74.7632,28.8803],[74.7928,28.8555],[74.7938,28.8361],[74.763,28.8264],[74.7339,28.8567],[74.6867,28.8396],[74.6299,28.8384],[74.6258,28.8162],[74.5939,28.8146],[74.5713,28.8304],[74.5362,28.822],[74.5172,28.8288],[74.4826,28.8215],[74.4317,28.833],[74.412,28.8861],[74.3738,28.8758],[74.3465,28.8489],[74.3165,28.8345],[74.2709,28.8011],[74.2324,28.8109],[74.1886,28.8095],[74.1643,28.7942],[74.1539,28.7778],[74.1346,28.7383],[74.1622,28.7381],[74.1876,28.7122],[74.0931,28.68],[74.0756,28.6696],[74.0762,28.6508],[74.1019,28.5897],[74.0692,28.5433],[74.0543,28.5296],[74.06,28.4981],[74.0541,28.4461],[74.0615,28.4165],[74.0411,28.4142],[74.0256,28.3993],[74.0239,28.3768],[74.0564,28.3278],[73.9894,28.3206],[73.9108,28.2914],[73.8608,28.3061],[73.8358,28.3298],[73.8197,28.3296],[73.8083,28.3026],[73.763,28.2893],[73.736,28.2598],[73.7362,28.2403],[73.7198,28.212],[73.7179,28.1696],[73.6982,28.1437],[73.6332,28.1154],[73.6599,28.0704],[73.6899,28.0647],[73.6943,28.0126],[73.6786,27.9995],[73.6649,27.9665],[73.6668,27.9377],[73.6866,27.937],[73.7106,27.9532],[73.7893,27.9005],[73.7932,27.8753],[73.8128,27.8564],[73.8121,27.8407],[73.8375,27.7912],[73.8265,27.7713],[73.8257,27.7382],[73.838,27.7195],[73.832,27.6948],[73.8397,27.6544],[73.8546,27.6084],[73.8449,27.5926],[73.8537,27.5719],[73.8476,27.5518],[73.8709,27.5324],[73.8818,27.5065],[73.8982,27.4971],[73.9467,27.5138],[73.9696,27.507],[74.026,27.536],[74.063,27.5071],[74.0779,27.4803],[74.1028,27.4776],[74.133,27.462],[74.1455,27.4422],[74.1371,27.4298],[74.1499,27.412],[74.1772,27.4243],[74.2003,27.4254],[74.202,27.4768],[74.1885,27.4821],[74.2015,27.5076],[74.2341,27.528],[74.2528,27.5647],[74.2525,27.6039],[74.3042,27.6499],[74.3285,27.6598],[74.3387,27.6811],[74.3668,27.6843],[74.3964,27.6997],[74.4046,27.6882],[74.4369,27.6935],[74.4589,27.6809],[74.4863,27.687],[74.4903,27.6677],[74.5203,27.6767],[74.5334,27.6657],[74.5542,27.6686],[74.6054,27.7082],[74.62,27.6945],[74.6013,27.6786],[74.6229,27.6506],[74.6755,27.6696],[74.7254,27.6785],[74.743,27.6919],[74.7468,27.7194],[74.7216,27.7201],[74.7355,27.7669],[74.7552,27.7675],[74.8113,27.8023],[74.7908,27.8395],[74.774,27.8345],[74.7612,27.8566],[74.7347,27.8576],[74.7323,27.8916],[74.778,27.9015],[74.7947,27.8989],[74.8229,27.913],[74.8148,27.9405],[74.775,27.9581],[74.7551,27.9901],[74.7864,28.0086],[74.8019,28.0607],[74.7816,28.0802],[74.783,28.1072],[74.7959,28.1194],[74.8233,28.1171],[74.8614,28.1477],[74.8858,28.1944],[74.911,28.1995],[74.9412,28.1899],[75.0008,28.2034],[75.0226,28.201],[75.0237,28.2156],[75.0424,28.2288],[75.0431,28.2559],[75.0938,28.2689],[75.1175,28.2877],[75.1416,28.2946],[75.1572,28.341],[75.1441,28.3824],[75.1241,28.4045],[75.1509,28.4105],[75.1597,28.3821],[75.2109,28.3934],[75.2162,28.4313],[75.227,28.4584],[75.2462,28.4628],[75.2717,28.4527],[75.2845,28.4287],[75.3227,28.3989],[75.3274,28.3702],[75.3754,28.3412],[75.4118,28.3449],[75.4108,28.3642],[75.4405,28.3666],[75.4542,28.3415],[75.5009,28.3435],[75.5109,28.3731],[75.5638,28.3814],[75.5657,28.4118],[75.6073,28.4099],[75.5844,28.4378],[75.5967,28.4496],[75.6078,28.5091],[75.6599,28.5125],[75.6639,28.5209],[75.6655,28.5333],[75.6291,28.546],[75.619,28.5887],[75.6093,28.6059],[75.5557,28.6146],[75.5396,28.6489],[75.5309,28.7328],[75.5161,28.7722],[75.4985,28.7877],[75.5134,28.8366],[75.488,28.8596],[75.4884,28.8983],[75.4671,28.9263],[75.4689,28.938]]]},"properties":{"NAME_1":"Rajasthan","NAME_2":"Churu"}},{"type":"Feature","geometry":{"type":"Polygon","coordinates":[[[76.9573,27.1515],[76.9294,27.1442],[76.8934,27.1681],[76.9019,27.2122],[76.8645,27.2366],[76.8516,27.2134],[76.8433,27.1778],[76.8237,27.1684],[76.8196,27.1395],[76.8345,27.1193],[76.8285,27.0818],[76.8113,27.0852],[76.8003,27.1102],[76.8089,27.1283],[76.7545,27.1129],[76.7011,27.1208],[76.6712,27.1167],[76.6657,27.1001],[76.6365,27.0999],[76.6245,27.1157],[76.6229,27.1454],[76.6464,27.1712],[76.614,27.1823],[76.5553,27.18],[76.5429,27.1367],[76.5159,27.1233],[76.4872,27.1186],[76.4575,27.0829],[76.4368,27.0964],[76.4261,27.1381],[76.4024,27.1309],[76.3939,27.0903],[76.3575,27.061],[76.3355,27.0667],[76.2866,27.0686],[76.2821,27.0477],[76.2362,27.0238],[76.1964,26.965],[76.1937,26.9147],[76.1977,26.8991],[76.1783,26.8795],[76.1914,26.8619],[76.2315,26.8622],[76.2614,26.8343],[76.2553,26.8055],[76.2171,26.8057],[76.2012,26.7893],[76.1999,26.7528],[76.2144,26.7264],[76.1888,26.6979],[76.1693,26.7181],[76.1578,26.712],[76.1631,26.6632],[76.1838,26.6351],[76.1617,26.5802],[76.1548,26.5194],[76.1748,26.4904],[76.2239,26.4672],[76.2405,26.468],[76.2447,26.4456],[76.2872,26.4581],[76.3171,26.459],[76.3356,26.4416],[76.3365,26.4153],[76.3878,26.3929],[76.431,26.4438],[76.4509,26.4794],[76.4755,26.5036],[76.4584,26.5275],[76.4559,26.5487],[76.4384,26.5554],[76.4092,26.5434],[76.4007,26.5576],[76.4205,26.6082],[76.4463,26.6448],[76.4624,26.6685],[76.4582,26.6866],[76.4879,26.7346],[76.5089,26.7593],[76.5334,26.7773],[76.547,26.7707],[76.5967,26.7748],[76.6118,26.7815],[76.6581,26.8233],[76.6955,26.849],[76.7371,26.8668],[76.7606,26.8824],[76.7546,26.9058],[76.7868,26.9375],[76.793,26.9603],[76.8127,26.9663],[76.8865,26.9318],[76.9154,26.9131],[76.9402,26.8844],[76.9822,26.8177],[77.0017,26.8211],[77.0374,26.8495],[77.0708,26.8647],[77.056,26.894],[77.0102,26.9338],[77.0152,26.9528],[77.0008,27.0058],[76.9787,27.029],[77.0021,27.0328],[76.9912,27.0543],[76.9673,27.0799],[76.9849,27.09],[76.9881,27.1125],[76.9559,27.1326],[76.9573,27.1515]]]},"properties":{"NAME_1":"Rajasthan","NAME_2":"Dausa"}},{"type":"Feature","geometry":{"type":"Polygon","coordinates":[[[78.2098,26.8361],[78.2049,26.8774],[78.2266,26.8826],[78.2482,26.9006],[78.2612,26.9318],[78.2327,26.9337],[78.1905,26.9468],[78.1395,26.9571],[78.1149,26.9549],[78.1127,26.9275],[78.0868,26.902],[78.0605,26.9159],[78.0422,26.9154],[78.0443,26.8845],[78.0354,26.8746],[78.0141,26.9084],[77.9919,26.9109],[77.9751,26.8975],[77.963,26.9126],[77.942,26.8998],[77.9096,26.9143],[77.8901,26.8895],[77.8715,26.9055],[77.8053,26.9285],[77.7889,26.9223],[77.7651,26.938],[77.7239,26.923],[77.7108,26.903],[77.7158,26.8813],[77.6717,26.8741],[77.6573,26.8564],[77.6249,26.8467],[77.6085,26.8345],[77.5721,26.832],[77.5648,26.8246],[77.5207,26.822],[77.5137,26.8451],[77.498,26.8479],[77.481,26.7878],[77.4933,26.767],[77.4804,26.7539],[77.4483,26.7467],[77.429,26.7336],[77.3766,26.7125],[77.3416,26.717],[77.342,26.6965],[77.3637,26.6666],[77.3467,26.6606],[77.3461,26.642],[77.3804,26.6389],[77.3508,26.5993],[77.3009,26.581],[77.284,26.5662],[77.2486,26.5578],[77.2201,26.5364],[77.2557,26.4341],[77.3039,26.445],[77.3409,26.4197],[77.3526,26.3863],[77.3662,26.3715],[77.3859,26.3624],[77.4018,26.3687],[77.4324,26.365],[77.4397,26.3787],[77.4277,26.4069],[77.475,26.4146],[77.5229,26.4149],[77.5515,26.4406],[77.5991,26.4542],[77.6267,26.483],[77.671,26.5097],[77.695,26.5009],[77.727,26.5154],[77.7394,26.5427],[77.767,26.5535],[77.813,26.5548],[77.8247,26.5727],[77.8204,26.5998],[77.8424,26.6152],[77.8794,26.6203],[77.8909,26.6545],[77.9036,26.6662],[77.9399,26.6627],[77.9688,26.6766],[77.9922,26.7026],[78.0491,26.6898],[78.0754,26.6782],[78.0881,26.6867],[78.0891,26.7381],[78.1117,26.7497],[78.0957,26.7718],[78.0954,26.7894],[78.119,26.8026],[78.1458,26.7917],[78.1794,26.8012],[78.1609,26.827],[78.2098,26.8361]]]},"properties":{"NAME_1":"Rajasthan","NAME_2":"Dhaulpur"}},{"type":"Feature","geometry":{"type":"Polygon","coordinates":[[[74.3852,23.9083],[74.368,23.936],[74.3274,23.9388],[74.3036,23.9628],[74.2741,23.9536],[74.2765,23.9379],[74.2283,23.9116],[74.207,23.9569],[74.1766,23.9717],[74.1618,24.0155],[74.135,24.0196],[74.1315,23.9956],[74.1074,23.9923],[74.0824,23.9702],[74.051,23.9826],[74.0037,23.9702],[73.9782,23.9794],[73.9492,23.9773],[73.9201,23.9849],[73.8686,23.9548],[73.8602,23.9378],[73.7794,23.9404],[73.7556,23.9496],[73.7412,23.9448],[73.6997,23.9596],[73.6738,23.9404],[73.5955,23.9667],[73.5738,23.9611],[73.5516,23.9376],[73.5213,23.9319],[73.5014,23.9041],[73.4732,23.8481],[73.4356,23.8379],[73.4076,23.8069],[73.3704,23.8144],[73.3611,23.7917],[73.3759,23.7667],[73.4,23.784],[73.4205,23.7793],[73.4508,23.7526],[73.4793,23.709],[73.5104,23.697],[73.5014,23.6354],[73.5267,23.6106],[73.5707,23.6535],[73.619,23.6514],[73.6607,23.6229],[73.65,23.6077],[73.6498,23.5753],[73.6383,23.5625],[73.637,23.5311],[73.6584,23.5142],[73.6438,23.4968],[73.6328,23.4524],[73.6532,23.4405],[73.6687,23.4519],[73.7042,23.4558],[73.7172,23.4188],[73.7261,23.4127],[73.7647,23.4586],[73.7831,23.4346],[73.8269,23.4468],[73.8668,23.3958],[73.8794,23.3681],[73.8949,23.3526],[73.8943,23.3371],[73.9389,23.3414],[73.9473,23.3735],[73.9625,23.3814],[73.9855,23.413],[74.0038,23.4231],[74.0152,23.443],[74.0144,23.4682],[74.0349,23.5461],[74.0617,23.5657],[74.0735,23.6009],[74.1207,23.6118],[74.1321,23.6484],[74.138,23.6939],[74.1235,23.7135],[74.1404,23.7676],[74.1563,23.7888],[74.2403,23.8168],[74.3189,23.8593],[74.3556,23.8867],[74.3613,23.9008],[74.3852,23.9083]]]},"properties":{"NAME_1":"Rajasthan","NAME_2":"Dungarpur"}},{"type":"Feature","geometry":{"type":"Polygon","coordinates":[[[74.279,29.9551],[74.0692,29.9689],[73.8912,29.9701],[73.8811,29.9963],[73.8984,30.0536],[73.9182,30.0681],[73.9625,30.1275],[73.9663,30.195],[73.8377,30.1087],[73.7941,30.0697],[73.754,30.0565],[73.6112,30.0224],[73.4128,29.9492],[73.3854,29.926],[73.3403,29.7689],[73.312,29.6862],[73.2976,29.6336],[73.2713,29.557],[73.1913,29.4286],[73.137,29.3293],[73.0785,29.2334],[73,29.1474],[72.9438,29.0299],[72.9282,29.0199],[72.7414,28.9483],[72.6435,28.8991],[72.6685,28.8598],[72.6877,28.8441],[72.742,28.7791],[72.7605,28.7962],[72.7869,28.7779],[72.8203,28.773],[72.9294,28.7257],[72.9526,28.737],[73.0061,28.7112],[73.0303,28.7404],[73.0815,28.7602],[73.1109,28.7646],[73.1544,28.7924],[73.1538,28.8155],[73.1996,28.8512],[73.1916,28.8819],[73.2219,28.9275],[73.2519,28.9402],[73.2743,28.9384],[73.2838,28.9694],[73.3015,28.9688],[73.3138,28.9872],[73.3392,29.004],[73.3814,29.0084],[73.4209,28.9902],[73.4482,28.9913],[73.4803,29.0105],[73.5144,28.9932],[73.5503,29.0076],[73.5639,28.9955],[73.5964,29.0267],[73.6174,29.0363],[73.6496,29.0175],[73.724,29.0256],[73.7356,29.0068],[73.7654,29.051],[73.793,29.0403],[73.7916,29.0065],[73.8354,28.969],[73.8456,28.9514],[73.8701,28.9406],[73.9041,28.9608],[73.9619,28.9762],[73.9526,28.9458],[73.9682,28.9037],[74.0193,28.9334],[74.0134,28.9602],[74.0219,29.0073],[74.0443,28.9979],[74.0657,28.9641],[74.0598,28.9383],[74.0787,28.9327],[74.105,28.9405],[74.1302,28.962],[74.1357,28.9899],[74.1211,29.0267],[74.1044,29.0965],[74.1201,29.1086],[74.1488,29.1102],[74.1736,29.1245],[74.1767,29.1437],[74.1488,29.1544],[74.1356,29.1724],[74.1416,29.1988],[74.1999,29.1932],[74.21,29.2028],[74.1615,29.2529],[74.1229,29.3001],[74.0569,29.3993],[74.0074,29.4799],[73.9824,29.5001],[73.9662,29.5415],[73.964,29.6],[73.9775,29.6427],[73.9915,29.6588],[74.0673,29.6271],[74.097,29.6222],[74.1403,29.628],[74.1159,29.6725],[74.15,29.6791],[74.244,29.6608],[74.2552,29.6632],[74.2768,29.7415],[74.3151,29.7873],[74.3202,29.8095],[74.2992,29.8926],[74.279,29.9551]]]},"properties":{"NAME_1":"Rajasthan","NAME_2":"Ganganagar"}},{"type":"Feature","geometry":{"type":"Polygon","coordinates":[[[74.442,29.9471],[74.4038,29.9473],[74.29,29.9563],[74.279,29.9551],[74.2992,29.8926],[74.3202,29.8095],[74.3151,29.7873],[74.2768,29.7415],[74.2552,29.6632],[74.244,29.6608],[74.15,29.6791],[74.1159,29.6725],[74.1403,29.628],[74.097,29.6222],[74.0673,29.6271],[73.9915,29.6588],[73.9775,29.6427],[73.964,29.6],[73.9662,29.5415],[73.9824,29.5001],[74.0074,29.4799],[74.0569,29.3993],[74.1229,29.3001],[74.1615,29.2529],[74.21,29.2028],[74.1999,29.1932],[74.1416,29.1988],[74.1356,29.1724],[74.1488,29.1544],[74.1767,29.1437],[74.1736,29.1245],[74.1488,29.1102],[74.1201,29.1086],[74.1044,29.0965],[74.1211,29.0267],[74.1357,28.9899],[74.1302,28.962],[74.105,28.9405],[74.1058,28.8997],[74.1232,28.8757],[74.1133,28.8475],[74.0861,28.8258],[74.0612,28.7921],[74.0898,28.7834],[74.129,28.7961],[74.1539,28.7778],[74.1643,28.7942],[74.1886,28.8095],[74.2324,28.8109],[74.2709,28.8011],[74.3165,28.8345],[74.3465,28.8489],[74.3738,28.8758],[74.412,28.8861],[74.4317,28.833],[74.4826,28.8215],[74.5172,28.8288],[74.5362,28.822],[74.5713,28.8304],[74.5939,28.8146],[74.6258,28.8162],[74.6299,28.8384],[74.6867,28.8396],[74.7339,28.8567],[74.763,28.8264],[74.7938,28.8361],[74.7928,28.8555],[74.7632,28.8803],[74.7647,28.9006],[74.7837,28.9232],[74.8034,28.9342],[74.8542,28.9469],[74.8912,28.9375],[74.9113,28.9],[74.9906,28.9176],[74.9964,28.9306],[75.0291,28.9394],[75.0377,28.8958],[75.0222,28.8808],[75.0196,28.8527],[75.0752,28.8645],[75.0931,28.8752],[75.1397,28.8749],[75.1648,28.8479],[75.1823,28.8695],[75.2113,28.8602],[75.2401,28.8865],[75.2334,28.9303],[75.2671,28.9346],[75.2824,28.9262],[75.3042,28.9569],[75.2872,28.9814],[75.3117,28.9885],[75.3501,28.9673],[75.3502,28.9497],[75.3302,28.9411],[75.3251,28.9195],[75.3644,28.9172],[75.3707,28.9404],[75.3911,28.9453],[75.3951,28.9701],[75.4118,28.9878],[75.4336,28.9958],[75.4416,28.9655],[75.4689,28.938],[75.4976,28.9415],[75.5165,28.9754],[75.5111,29.0108],[75.4734,29.0202],[75.4347,29.0165],[75.4406,29.0415],[75.4303,29.0647],[75.3807,29.0703],[75.3807,29.1107],[75.3962,29.1284],[75.3612,29.1426],[75.369,29.17],[75.3886,29.1707],[75.4007,29.1889],[75.3873,29.229],[75.3994,29.2403],[75.3957,29.2619],[75.3795,29.2639],[75.3502,29.2474],[75.3453,29.2262],[75.3149,29.236],[75.3254,29.2783],[75.3193,29.2934],[75.2767,29.2735],[75.2717,29.2544],[75.2352,29.2519],[75.2235,29.235],[75.1953,29.2442],[75.18,29.2686],[75.1475,29.2458],[75.1137,29.2429],[75.1082,29.2268],[75.0781,29.2325],[75.0509,29.2637],[75.0399,29.2871],[75.0239,29.2915],[74.991,29.2717],[74.9531,29.2819],[74.9401,29.3048],[74.9506,29.3185],[74.9271,29.3646],[74.8885,29.3867],[74.8706,29.3851],[74.8495,29.4028],[74.8095,29.3985],[74.7759,29.3602],[74.7317,29.3538],[74.7112,29.3689],[74.6887,29.3652],[74.6502,29.3724],[74.6418,29.3312],[74.5958,29.3283],[74.6,29.3543],[74.5729,29.3864],[74.57,29.4062],[74.5522,29.4224],[74.5313,29.425],[74.5346,29.465],[74.5789,29.4586],[74.6114,29.5315],[74.5717,29.5556],[74.5703,29.5859],[74.5785,29.6548],[74.6035,29.7214],[74.6054,29.7529],[74.5925,29.7667],[74.5714,29.7532],[74.5378,29.7539],[74.5258,29.7414],[74.472,29.744],[74.4653,29.7875],[74.4917,29.8265],[74.5325,29.8393],[74.5536,29.8656],[74.5337,29.9026],[74.505,29.9078],[74.5191,29.9433],[74.442,29.9471]]]},"properties":{"NAME_1":"Rajasthan","NAME_2":"Hanumangarh"}},{"type":"Feature","geometry":{"type":"Polygon","coordinates":[[[76.2233,27.8409],[76.1941,27.8312],[76.1729,27.8075],[76.1278,27.8332],[76.1221,27.8544],[76.0881,27.8684],[76.0801,27.8511],[76.0898,27.8348],[76.0595,27.7754],[76.0493,27.7764],[76.0274,27.736],[75.9839,27.7076],[75.9722,27.66],[75.9349,27.6261],[75.9529,27.5962],[75.9421,27.5345],[75.9323,27.5013],[75.9625,27.5076],[75.9787,27.4823],[75.9473,27.4805],[75.9128,27.4594],[75.8887,27.4609],[75.864,27.4208],[75.8769,27.4029],[75.8599,27.3925],[75.8392,27.4048],[75.8238,27.3939],[75.8045,27.4092],[75.7874,27.3851],[75.7676,27.4065],[75.7331,27.4084],[75.7185,27.3734],[75.6858,27.3762],[75.659,27.3699],[75.6539,27.3421],[75.6223,27.3444],[75.6076,27.3188],[75.5737,27.3103],[75.5665,27.3458],[75.5247,27.3478],[75.503,27.3334],[75.501,27.3184],[75.4706,27.2931],[75.4263,27.3048],[75.3892,27.2863],[75.3861,27.2342],[75.3522,27.2291],[75.3231,27.2175],[75.3115,27.1974],[75.3106,27.1628],[75.3358,27.1436],[75.3354,27.1214],[75.3608,27.1139],[75.3628,27.0913],[75.3345,27.0972],[75.2451,27.092],[75.2158,27.0863],[75.2178,27.0589],[75.254,27.0378],[75.2378,27.02],[75.1992,27.0105],[75.1988,26.9771],[75.1608,26.9651],[75.1606,26.9363],[75.1155,26.9351],[75.0981,26.9398],[75.0089,26.9485],[75.0096,26.8982],[74.9722,26.8935],[74.9525,26.8708],[74.952,26.85],[74.9123,26.84],[74.9301,26.7963],[74.9363,26.7529],[74.9775,26.7652],[75.0019,26.7516],[74.9956,26.7339],[74.9603,26.7254],[74.9613,26.6866],[74.97,26.6762],[74.9957,26.6897],[75.0171,26.6685],[75.0633,26.6539],[75.0638,26.6156],[75.0774,26.6133],[75.058,26.5593],[75.0671,26.5474],[75.1,26.5594],[75.1192,26.5503],[75.1117,26.527],[75.1486,26.5037],[75.1409,26.4774],[75.1658,26.4656],[75.2012,26.5192],[75.2327,26.5248],[75.2508,26.5452],[75.2822,26.5677],[75.3263,26.5619],[75.3476,26.5053],[75.3856,26.4858],[75.4324,26.4854],[75.448,26.4971],[75.5013,26.4831],[75.5224,26.4672],[75.548,26.4903],[75.5711,26.477],[75.5691,26.4503],[75.6124,26.4435],[75.6386,26.4466],[75.6478,26.4679],[75.7073,26.4491],[75.7246,26.4697],[75.7657,26.4713],[75.7667,26.4962],[75.7557,26.5164],[75.7789,26.5301],[75.7688,26.5476],[75.793,26.5542],[75.7947,26.535],[75.8307,26.5148],[75.8501,26.5229],[75.9287,26.5097],[75.9316,26.4981],[75.9576,26.4875],[75.9686,26.5067],[76.0033,26.4965],[76.0106,26.508],[76.0374,26.5152],[76.0667,26.5121],[76.0789,26.5278],[76.1073,26.54],[76.1457,26.5301],[76.1548,26.5194],[76.1617,26.5802],[76.1838,26.6351],[76.1631,26.6632],[76.1578,26.712],[76.1693,26.7181],[76.1888,26.6979],[76.2144,26.7264],[76.1999,26.7528],[76.2012,26.7893],[76.2171,26.8057],[76.2553,26.8055],[76.2614,26.8343],[76.2315,26.8622],[76.1914,26.8619],[76.1783,26.8795],[76.1977,26.8991],[76.1937,26.9147],[76.1964,26.965],[76.2362,27.0238],[76.2821,27.0477],[76.2866,27.0686],[76.2811,27.0773],[76.2863,27.1342],[76.274,27.1847],[76.2511,27.1813],[76.2379,27.1554],[76.2063,27.1301],[76.1878,27.126],[76.1783,27.1893],[76.1521,27.1893],[76.1563,27.2202],[76.1179,27.2428],[76.1206,27.2558],[76.1452,27.2874],[76.1528,27.318],[76.1746,27.3344],[76.1983,27.3693],[76.2268,27.4223],[76.2214,27.4426],[76.2398,27.4932],[76.2329,27.53],[76.2087,27.5416],[76.21,27.5575],[76.1951,27.6267],[76.2392,27.6314],[76.2468,27.6585],[76.2368,27.6764],[76.252,27.7047],[76.2385,27.766],[76.2532,27.7708],[76.2697,27.8074],[76.2601,27.8396],[76.2362,27.8548],[76.2233,27.8409]]]},"properties":{"NAME_1":"Rajasthan","NAME_2":"Jaipur"}},{"type":"Feature","geometry":{"type":"Polygon","coordinates":[[[71.8963,27.9568],[71.8585,27.9414],[71.7656,27.9099],[71.6583,27.8689],[71.5866,27.8703],[71.5308,27.8653],[71.4097,27.8658],[71.273,27.8419],[71.2087,27.8244],[71.034,27.7573],[70.9069,27.7006],[70.8842,27.6984],[70.819,27.7043],[70.7577,27.7172],[70.738,27.7422],[70.6784,27.8391],[70.6728,27.8698],[70.6721,27.9143],[70.6607,27.9305],[70.5626,28.0198],[70.5303,28.0325],[70.4791,28.0337],[70.3662,28.0082],[70.3365,27.9831],[70.3029,27.9462],[70.2076,27.8854],[70.157,27.834],[70.1078,27.7669],[70.0246,27.5697],[70.0163,27.556],[69.9362,27.5021],[69.9076,27.4596],[69.862,27.4028],[69.8125,27.3596],[69.6659,27.2514],[69.5867,27.178],[69.5652,27.1385],[69.5132,27.0169],[69.5009,26.9003],[69.4837,26.8062],[69.5077,26.7485],[69.5224,26.736],[69.7219,26.6538],[69.7719,26.6137],[69.8154,26.5922],[69.8556,26.5829],[69.9183,26.5826],[70.0248,26.5987],[70.0662,26.5993],[70.1069,26.5895],[70.1502,26.5683],[70.1677,26.5507],[70.1839,26.4868],[70.176,26.4333],[70.1783,26.3498],[70.1667,26.307],[70.1652,26.2771],[70.1727,26.2451],[70.1594,26.1945],[70.1452,26.1662],[70.0943,26.0974],[70.0805,26.0582],[70.091,25.9968],[70.0913,25.9652],[70.1067,25.9242],[70.1539,25.8603],[70.1084,25.924],[70.0945,26.05],[70.0951,26.0762],[70.1443,26.1418],[70.2001,26.1419],[70.2217,26.1296],[70.2324,26.1118],[70.262,26.1503],[70.2731,26.1546],[70.307,26.1409],[70.3382,26.1434],[70.3742,26.1378],[70.4176,26.1903],[70.4384,26.1711],[70.5096,26.1669],[70.5736,26.1931],[70.6055,26.1945],[70.655,26.1895],[70.689,26.2043],[70.7226,26.2033],[70.7197,26.159],[70.7491,26.136],[70.7582,26.1407],[70.8384,26.1296],[70.8832,26.1201],[70.9511,26.0449],[70.9499,26.0271],[70.9673,26.0144],[70.9739,26.0421],[70.9502,26.0716],[70.9695,26.0905],[71.0058,26.1078],[71.0311,26.1079],[71.0568,26.1351],[71.0454,26.1634],[70.9992,26.2138],[70.9488,26.2167],[70.9594,26.2413],[71.0029,26.2584],[71.0253,26.2759],[71.0529,26.2769],[71.0765,26.2949],[71.0823,26.3179],[71.1305,26.2985],[71.147,26.305],[71.1945,26.3819],[71.1932,26.4072],[71.2258,26.4396],[71.2599,26.4543],[71.2928,26.4599],[71.3292,26.4191],[71.4091,26.4668],[71.4436,26.4913],[71.4679,26.4919],[71.4758,26.4656],[71.494,26.4511],[71.523,26.4826],[71.5414,26.4836],[71.5808,26.5026],[71.6173,26.4769],[71.6317,26.4148],[71.6789,26.3797],[71.7087,26.3855],[71.7406,26.3708],[71.7603,26.3427],[71.7908,26.3414],[71.8143,26.3278],[71.8286,26.3611],[71.8452,26.3694],[71.8874,26.3366],[71.8976,26.296],[71.9223,26.2938],[71.9488,26.3124],[71.9858,26.3185],[72.0269,26.3426],[72.075,26.3458],[72.0754,26.3971],[72.0841,26.4393],[72.0579,26.4728],[72.0291,26.4948],[72.1002,26.5966],[72.0876,26.6196],[72.0413,26.6714],[72.0702,26.7148],[72.0886,26.7263],[72.0635,26.7562],[72.0554,26.7991],[72.0842,26.8039],[72.1003,26.8262],[72.0886,26.8453],[72.1029,26.8577],[72.1046,26.8829],[72.0763,26.9094],[72.0409,26.9316],[72.0508,26.9645],[72.045,27.0166],[72.0793,27.0727],[72.0878,27.1006],[72.0772,27.1124],[72.0006,27.1252],[71.9684,27.1349],[71.9578,27.15],[71.9559,27.1777],[71.9276,27.1692],[71.9169,27.1782],[71.9161,27.2063],[71.8457,27.2311],[71.821,27.2484],[71.7894,27.2504],[71.7942,27.2825],[71.8294,27.3236],[71.8204,27.3389],[71.8277,27.3945],[71.8147,27.4361],[71.8383,27.473],[71.8823,27.4792],[71.9027,27.4979],[71.9054,27.5241],[71.9305,27.5539],[71.9661,27.5446],[71.9998,27.5642],[72.0492,27.6096],[72.085,27.5881],[72.111,27.5863],[72.1283,27.5759],[72.1049,27.5555],[72.1447,27.528],[72.1571,27.4715],[72.1749,27.4576],[72.2022,27.471],[72.2102,27.485],[72.2446,27.4936],[72.2506,27.5293],[72.283,27.5448],[72.2811,27.5639],[72.3218,27.6301],[72.3416,27.688],[72.2984,27.7036],[72.2751,27.6942],[72.2504,27.6688],[72.2253,27.6529],[72.2191,27.6702],[72.1916,27.689],[72.1464,27.7065],[72.1162,27.7057],[72.094,27.717],[72.0925,27.7313],[72.1169,27.7436],[72.1542,27.7751],[72.1532,27.8064],[72.1419,27.8396],[72.144,27.8679],[72.0977,27.8924],[72.0767,27.9188],[72.0308,27.944],[71.992,27.9377],[71.9795,27.9218],[71.9457,27.9076],[71.9201,27.919],[71.8963,27.9568]]]},"properties":{"NAME_1":"Rajasthan","NAME_2":"Jaisalmer"}},{"type":"Feature","geometry":{"type":"Polygon","coordinates":[[[72.9426,25.2433],[72.9714,25.2441],[72.9957,25.2572],[73.0001,25.2885],[72.9783,25.3313],[72.941,25.3564],[72.9585,25.3723],[72.9746,25.3711],[72.9963,25.3471],[73.0091,25.3682],[73.0516,25.4002],[73.0713,25.4376],[73.06,25.4463],[73.0985,25.468],[73.0895,25.4914],[73.0599,25.5077],[73.0579,25.56],[73.0359,25.5816],[72.9846,25.6032],[72.9774,25.6234],[72.9368,25.6382],[72.9177,25.6819],[72.8911,25.6942],[72.8906,25.7338],[72.8726,25.7495],[72.8491,25.7541],[72.8136,25.7726],[72.8012,25.7914],[72.7795,25.8004],[72.7584,25.8076],[72.7492,25.7816],[72.7289,25.7739],[72.7262,25.7542],[72.7572,25.7403],[72.7512,25.721],[72.7238,25.6881],[72.6887,25.6686],[72.7139,25.6388],[72.7227,25.6078],[72.7024,25.5994],[72.6787,25.6106],[72.6327,25.6087],[72.5886,25.6005],[72.5517,25.5593],[72.5648,25.5298],[72.5147,25.5043],[72.4663,25.4525],[72.4598,25.4562],[72.4149,25.4342],[72.3818,25.4395],[72.3598,25.4515],[72.3364,25.4315],[72.3359,25.4011],[72.3207,25.3851],[72.2972,25.3892],[72.2745,25.4088],[72.2487,25.4134],[72.2204,25.4035],[72.1646,25.4315],[72.1085,25.4215],[72.0932,25.4624],[72.0612,25.4786],[72.0379,25.473],[72.0049,25.442],[71.937,25.3606],[71.9258,25.3415],[71.955,25.318],[71.9397,25.281],[71.8941,25.2585],[71.907,25.2466],[71.8863,25.2214],[71.8551,25.2035],[71.8437,25.1447],[71.8307,25.1232],[71.8096,25.1125],[71.8128,25.0989],[71.7987,25.0806],[71.8058,25.055],[71.7638,25.0708],[71.7431,25.0653],[71.7335,25.028],[71.7192,25.0191],[71.6861,24.9832],[71.6649,25.0094],[71.6351,25.0302],[71.5912,25.0185],[71.5633,24.9802],[71.5374,24.9693],[71.5343,24.9968],[71.5237,25.0029],[71.4817,24.994],[71.4148,24.9627],[71.3942,24.9645],[71.3488,24.929],[71.3552,24.9133],[71.34,24.8922],[71.3144,24.8855],[71.3369,24.8629],[71.3385,24.8456],[71.3128,24.8165],[71.2763,24.8043],[71.2629,24.7901],[71.2715,24.743],[71.2431,24.7106],[71.2184,24.6935],[71.1971,24.6429],[71.2073,24.6395],[71.2415,24.6266],[71.261,24.6205],[71.2977,24.6076],[71.3265,24.6429],[71.3567,24.6541],[71.3677,24.6273],[71.3807,24.6214],[71.4223,24.6381],[71.4515,24.6588],[71.4883,24.6739],[71.537,24.6789],[71.5514,24.6706],[71.5831,24.6765],[71.5978,24.6639],[71.6166,24.6707],[71.6449,24.6525],[71.6616,24.6333],[71.7163,24.6543],[71.7458,24.6543],[71.7845,24.6689],[71.8129,24.6609],[71.8118,24.6218],[71.8466,24.6149],[71.8687,24.6235],[71.8626,24.6495],[71.8711,24.6722],[71.9259,24.6621],[71.9188,24.6462],[71.9345,24.6269],[71.9674,24.6379],[71.9934,24.6567],[71.9941,24.6776],[72.0409,24.6955],[72.0525,24.7058],[72.0853,24.697],[72.0923,24.6748],[72.0849,24.6528],[72.1165,24.6334],[72.1507,24.6341],[72.1617,24.6158],[72.1859,24.6094],[72.2164,24.6202],[72.23,24.6329],[72.2489,24.6208],[72.2747,24.6222],[72.3151,24.6089],[72.3402,24.623],[72.3172,24.6471],[72.3186,24.6699],[72.3318,24.6997],[72.378,24.7595],[72.4058,24.7727],[72.4189,24.7521],[72.4865,24.7489],[72.5021,24.7645],[72.4969,24.8056],[72.5048,24.8168],[72.4884,24.8687],[72.5097,24.8792],[72.5104,24.9215],[72.5742,24.9336],[72.5852,24.94],[72.6376,24.9996],[72.6619,25.0396],[72.6921,25.0469],[72.6967,25.0763],[72.7124,25.1061],[72.7413,25.1269],[72.7541,25.1631],[72.7845,25.1912],[72.7821,25.2152],[72.8303,25.2864],[72.8676,25.2574],[72.8938,25.2458],[72.9208,25.2541],[72.9426,25.2433]]]},"properties":{"NAME_1":"Rajasthan","NAME_2":"Jalor"}},{"type":"Feature","geometry":{"type":"Polygon","coordinates":[[[76.4391,24.7876],[76.4407,24.8352],[76.4146,24.8478],[76.3958,24.8426],[76.3614,24.8756],[76.3369,24.8738],[76.3098,24.8445],[76.2869,24.8414],[76.2891,24.8218],[76.2622,24.8182],[76.2496,24.8349],[76.2236,24.8365],[76.2226,24.8004],[76.2008,24.7641],[76.1936,24.7168],[76.1973,24.6874],[76.1796,24.6687],[76.1852,24.6283],[76.1488,24.6588],[76.1112,24.6974],[76.1001,24.7003],[76.0654,24.6798],[76.0618,24.6275],[76.0785,24.5809],[76.0482,24.5804],[76.0289,24.5632],[75.9993,24.5682],[75.9588,24.5652],[75.952,24.5479],[75.9205,24.5438],[75.922,24.5273],[75.9055,24.5053],[75.9118,24.4924],[75.9034,24.4461],[75.8612,24.4233],[75.829,24.4225],[75.8125,24.4368],[75.8151,24.4651],[75.7911,24.4752],[75.7861,24.4584],[75.7564,24.4277],[75.7553,24.4093],[75.7358,24.4034],[75.7379,24.348],[75.7651,24.3107],[75.7974,24.3143],[75.813,24.3007],[75.8125,24.2607],[75.8053,24.2297],[75.7735,24.2209],[75.7435,24.1396],[75.7787,24.1347],[75.7896,24.1098],[75.8122,24.1029],[75.8306,24.1079],[75.8295,24.072],[75.7796,24.0621],[75.7802,24.0363],[75.762,23.998],[75.7378,23.9953],[75.7355,23.9806],[75.7004,23.9691],[75.6835,23.9982],[75.6858,24.0179],[75.6692,24.0335],[75.6415,24.0184],[75.6347,23.9998],[75.5693,23.9994],[75.5717,24.0174],[75.5319,24.0315],[75.5144,24.0487],[75.4918,24.0046],[75.4648,23.9807],[75.4565,23.9207],[75.4874,23.9108],[75.5041,23.8919],[75.5379,23.8767],[75.5625,23.8581],[75.566,23.8157],[75.5825,23.8004],[75.6166,23.806],[75.6493,23.7994],[75.6761,23.7821],[75.6845,23.7606],[75.6983,23.788],[75.6902,23.8196],[75.7222,23.8269],[75.7275,23.8645],[75.6981,23.8771],[75.7023,23.9041],[75.7282,23.9021],[75.7592,23.8813],[75.7616,23.8569],[75.7799,23.8547],[75.8027,23.8711],[75.8534,23.8942],[75.8786,23.8846],[75.9758,23.9329],[75.9802,23.9744],[75.9602,23.9975],[75.9602,24.0254],[75.9901,24.0301],[76.0267,24.0505],[76.0434,24.074],[76.1347,24.0953],[76.1292,24.1189],[76.1369,24.1313],[76.1309,24.1691],[76.1206,24.1782],[76.1234,24.2054],[76.1545,24.2438],[76.1422,24.2812],[76.1692,24.2961],[76.1855,24.3315],[76.2062,24.3109],[76.1947,24.2848],[76.2044,24.269],[76.2062,24.2327],[76.2156,24.2168],[76.2477,24.2279],[76.2764,24.2165],[76.2896,24.237],[76.3179,24.2511],[76.353,24.2489],[76.4118,24.2096],[76.4236,24.2269],[76.4532,24.2168],[76.4634,24.2289],[76.5084,24.2002],[76.5105,24.179],[76.5232,24.1632],[76.5548,24.1682],[76.5797,24.1807],[76.5658,24.2008],[76.5715,24.2135],[76.614,24.2422],[76.6163,24.2628],[76.6787,24.2706],[76.693,24.285],[76.7025,24.2488],[76.6878,24.2325],[76.6742,24.1934],[76.7207,24.1617],[76.755,24.1721],[76.7689,24.1647],[76.7909,24.1258],[76.8277,24.1256],[76.856,24.1389],[76.8776,24.1349],[76.8999,24.1311],[76.9161,24.1887],[76.9439,24.1989],[76.9165,24.232],[76.8742,24.2711],[76.8588,24.3123],[76.8449,24.328],[76.837,24.3607],[76.8491,24.3682],[76.8424,24.4085],[76.8507,24.4374],[76.8412,24.4428],[76.7963,24.4373],[76.7527,24.453],[76.7205,24.4185],[76.7016,24.4125],[76.6715,24.4435],[76.632,24.4186],[76.6009,24.4408],[76.5915,24.4619],[76.5763,24.4688],[76.5747,24.4967],[76.5464,24.5043],[76.5331,24.5185],[76.5343,24.5731],[76.5177,24.5945],[76.5273,24.6669],[76.4905,24.6564],[76.4728,24.6739],[76.4411,24.7684],[76.4391,24.7876]]]},"properties":{"NAME_1":"Rajasthan","NAME_2":"Jhalawar"}},{"type":"Feature","geometry":{"type":"Polygon","coordinates":[[[75.8892,28.3937],[75.8351,28.3977],[75.8026,28.4142],[75.7876,28.4044],[75.7654,28.4208],[75.7851,28.4392],[75.7782,28.4576],[75.735,28.4726],[75.7365,28.4872],[75.6901,28.4991],[75.6639,28.5209],[75.6599,28.5125],[75.6078,28.5091],[75.5967,28.4496],[75.5844,28.4378],[75.6073,28.4099],[75.5657,28.4118],[75.5638,28.3814],[75.5109,28.3731],[75.5009,28.3435],[75.4542,28.3415],[75.4405,28.3666],[75.4108,28.3642],[75.4118,28.3449],[75.3754,28.3412],[75.3274,28.3702],[75.3227,28.3989],[75.2845,28.4287],[75.2717,28.4527],[75.2462,28.4628],[75.227,28.4584],[75.2162,28.4313],[75.2109,28.3934],[75.1597,28.3821],[75.1509,28.4105],[75.1241,28.4045],[75.1441,28.3824],[75.1572,28.341],[75.1416,28.2946],[75.1175,28.2877],[75.0938,28.2689],[75.0431,28.2559],[75.0424,28.2288],[75.0237,28.2156],[75.0226,28.201],[75.0363,28.194],[75.0741,28.1934],[75.0552,28.162],[75.0826,28.1624],[75.1217,28.1378],[75.1058,28.115],[75.1108,28.0888],[75.0959,28.0673],[75.1231,28.0282],[75.1417,28.0288],[75.1518,27.9893],[75.1684,27.9607],[75.189,27.96],[75.1887,27.9137],[75.2054,27.8843],[75.2234,27.881],[75.2375,27.8458],[75.2353,27.8138],[75.2809,27.8195],[75.2832,27.7737],[75.258,27.7675],[75.2828,27.7194],[75.3434,27.7038],[75.3678,27.6858],[75.3872,27.6616],[75.4115,27.6476],[75.4551,27.6666],[75.4756,27.6879],[75.5153,27.6974],[75.5297,27.7129],[75.6129,27.7067],[75.6303,27.7202],[75.6582,27.7172],[75.6514,27.6993],[75.6627,27.6783],[75.6821,27.6776],[75.6896,27.7116],[75.7122,27.7488],[75.7046,27.7601],[75.7333,27.8048],[75.7626,27.8376],[75.7974,27.8623],[75.8578,27.893],[75.8901,27.9192],[75.9236,27.9331],[75.9632,27.937],[75.9683,27.9623],[75.9869,27.9846],[75.9555,27.9886],[75.9727,28.0181],[75.9744,28.0369],[76.0101,28.0367],[76.0019,28.0607],[75.9771,28.0842],[75.9361,28.0935],[75.9425,28.1056],[75.9771,28.1272],[75.9947,28.1506],[76.0277,28.1727],[76.0664,28.1678],[76.0651,28.1445],[76.0929,28.1552],[76.0748,28.1724],[76.0656,28.1989],[76.0451,28.2029],[76.053,28.2242],[76.0112,28.2418],[76.0187,28.281],[75.9866,28.2959],[75.9563,28.3384],[75.9274,28.3451],[75.9224,28.3689],[75.8971,28.3801],[75.8892,28.3937]]]},"properties":{"NAME_1":"Rajasthan","NAME_2":"Jhunjhunun"}},{"type":"Feature","geometry":{"type":"Polygon","coordinates":[[[73.1608,27.2939],[73.1494,27.3197],[73.1429,27.3891],[73.1182,27.407],[73.0402,27.409],[73.0105,27.3992],[72.9855,27.3823],[72.9464,27.4027],[72.9375,27.4459],[72.9001,27.4134],[72.8928,27.4489],[72.8578,27.4412],[72.8805,27.475],[72.8288,27.4641],[72.8235,27.5194],[72.8454,27.5316],[72.8481,27.5531],[72.8333,27.5776],[72.7717,27.5609],[72.7764,27.5332],[72.7642,27.5207],[72.7261,27.5511],[72.7156,27.5857],[72.694,27.6018],[72.674,27.5724],[72.6695,27.5399],[72.6225,27.5683],[72.6021,27.6037],[72.5679,27.6034],[72.5584,27.6154],[72.5001,27.5804],[72.4671,27.5873],[72.4479,27.5824],[72.4361,27.5582],[72.4062,27.5394],[72.3827,27.5393],[72.3667,27.5241],[72.36,27.4863],[72.3258,27.5099],[72.2998,27.494],[72.2777,27.4617],[72.2478,27.4641],[72.2509,27.5033],[72.2786,27.5088],[72.2951,27.539],[72.283,27.5448],[72.2506,27.5293],[72.2446,27.4936],[72.2102,27.485],[72.2022,27.471],[72.1749,27.4576],[72.1571,27.4715],[72.1447,27.528],[72.1049,27.5555],[72.1283,27.5759],[72.111,27.5863],[72.085,27.5881],[72.0492,27.6096],[71.9998,27.5642],[71.9661,27.5446],[71.9305,27.5539],[71.9054,27.5241],[71.9027,27.4979],[71.8823,27.4792],[71.8383,27.473],[71.8147,27.4361],[71.8277,27.3945],[71.8204,27.3389],[71.8294,27.3236],[71.7942,27.2825],[71.7894,27.2504],[71.821,27.2484],[71.8457,27.2311],[71.9161,27.2063],[71.9169,27.1782],[71.9276,27.1692],[71.9559,27.1777],[71.9578,27.15],[71.9684,27.1349],[72.0006,27.1252],[72.0772,27.1124],[72.0878,27.1006],[72.0793,27.0727],[72.045,27.0166],[72.0508,26.9645],[72.0409,26.9316],[72.0763,26.9094],[72.1046,26.8829],[72.1029,26.8577],[72.0886,26.8453],[72.1003,26.8262],[72.0842,26.8039],[72.0554,26.7991],[72.0635,26.7562],[72.0886,26.7263],[72.0702,26.7148],[72.0413,26.6714],[72.0876,26.6196],[72.1002,26.5966],[72.0291,26.4948],[72.0579,26.4728],[72.0841,26.4393],[72.0754,26.3971],[72.075,26.3458],[72.0999,26.3155],[72.1163,26.3178],[72.1553,26.3049],[72.1617,26.2777],[72.2034,26.2534],[72.2194,26.2285],[72.2571,26.2075],[72.3104,26.214],[72.3423,26.2418],[72.3761,26.2229],[72.4111,26.2365],[72.4269,26.2605],[72.4286,26.284],[72.4684,26.2987],[72.493,26.297],[72.5088,26.2764],[72.5532,26.2624],[72.5973,26.278],[72.6348,26.2265],[72.6894,26.1847],[72.6825,26.1718],[72.6956,26.1044],[72.6802,26.0703],[72.6896,26.0624],[72.6861,26.028],[72.6194,26.005],[72.6205,25.9763],[72.6335,25.9626],[72.6611,25.9534],[72.6933,25.9283],[72.7024,25.9323],[72.755,25.8909],[72.7786,25.8806],[72.8077,25.8518],[72.8358,25.8621],[72.8435,25.8897],[72.9134,25.8927],[72.9346,25.9017],[72.9592,25.901],[72.9755,25.9345],[73.0013,25.9526],[73.0326,25.9513],[73.0507,25.9672],[73.0595,26.0117],[73.1186,26.0306],[73.132,26.0429],[73.187,26.0329],[73.1782,26.0542],[73.2076,26.0766],[73.2505,26.0647],[73.2752,26.0433],[73.3164,26.0343],[73.3298,26.055],[73.3588,26.0755],[73.3407,26.1174],[73.3651,26.1358],[73.3764,26.1566],[73.4027,26.1625],[73.406,26.1303],[73.4302,26.1302],[73.466,26.0858],[73.4913,26.0832],[73.5289,26.0643],[73.5221,26.1036],[73.576,26.1164],[73.6278,26.1479],[73.6522,26.1271],[73.6494,26.079],[73.6948,26.0647],[73.7229,26.1097],[73.7455,26.1128],[73.7641,26.099],[73.8047,26.1011],[73.8091,26.1278],[73.7848,26.1648],[73.8033,26.2081],[73.7887,26.2373],[73.8058,26.265],[73.8121,26.2882],[73.8125,26.3507],[73.8405,26.3858],[73.8442,26.4086],[73.8712,26.4318],[73.8576,26.4469],[73.8547,26.4685],[73.8133,26.5016],[73.7921,26.5055],[73.7533,26.5417],[73.7196,26.5399],[73.7189,26.5529],[73.6923,26.5894],[73.6995,26.6034],[73.6751,26.647],[73.6576,26.6487],[73.6707,26.679],[73.6478,26.7107],[73.6697,26.7524],[73.6528,26.8084],[73.63,26.8074],[73.6288,26.8399],[73.604,26.8443],[73.5855,26.8637],[73.5283,26.8588],[73.5102,26.8811],[73.4896,26.8871],[73.4562,26.873],[73.4362,26.8863],[73.4003,26.8831],[73.3846,26.8689],[73.35,26.868],[73.3255,26.8564],[73.291,26.8734],[73.2839,26.8637],[73.2411,26.863],[73.2116,26.868],[73.1896,26.8814],[73.1758,26.9288],[73.1538,26.9282],[73.1214,26.9432],[73.1132,26.9648],[73.151,26.9916],[73.1562,27.0242],[73.1901,27.0557],[73.1747,27.0922],[73.1502,27.12],[73.1651,27.1437],[73.1543,27.1981],[73.1299,27.2342],[73.1517,27.2508],[73.1608,27.2939]]]},"properties":{"NAME_1":"Rajasthan","NAME_2":"Jodhpur"}},{"type":"Feature","geometry":{"type":"Polygon","coordinates":[[[77.0708,26.8647],[77.0374,26.8495],[77.0017,26.8211],[76.9822,26.8177],[76.9402,26.8844],[76.9154,26.9131],[76.8865,26.9318],[76.8127,26.9663],[76.793,26.9603],[76.7868,26.9375],[76.7546,26.9058],[76.7606,26.8824],[76.7371,26.8668],[76.6955,26.849],[76.6581,26.8233],[76.6118,26.7815],[76.5967,26.7748],[76.547,26.7707],[76.5334,26.7773],[76.5089,26.7593],[76.4879,26.7346],[76.4582,26.6866],[76.4624,26.6685],[76.4463,26.6448],[76.4993,26.6235],[76.5476,26.6089],[76.5734,26.5937],[76.602,26.5932],[76.6208,26.5755],[76.661,26.5624],[76.6692,26.5363],[76.6918,26.5137],[76.7189,26.533],[76.8053,26.5739],[76.8844,26.6269],[76.9388,26.6574],[76.9505,26.6263],[76.9653,26.6087],[76.9514,26.5939],[76.9323,26.5935],[76.9255,26.5759],[76.9537,26.5713],[76.9554,26.5505],[76.9365,26.5406],[76.9092,26.562],[76.8788,26.5268],[76.8439,26.5053],[76.827,26.4872],[76.8048,26.4938],[76.7773,26.4796],[76.7645,26.4446],[76.7338,26.4364],[76.6756,26.3984],[76.679,26.3783],[76.6665,26.3586],[76.6306,26.3509],[76.618,26.309],[76.5833,26.2705],[76.594,26.2576],[76.5738,26.2371],[76.577,26.2125],[76.6656,26.1653],[76.6897,26.1789],[76.7128,26.1551],[76.7307,26.149],[76.7581,26.1097],[76.7822,26.0987],[76.7941,26.0731],[76.8151,26.0674],[76.8381,26.0364],[76.8704,26.0564],[76.8878,26.0933],[76.9387,26.1061],[76.9945,26.1378],[77.0048,26.1592],[77.0239,26.1762],[77.0526,26.1862],[77.0846,26.1872],[77.0964,26.1954],[77.1094,26.2251],[77.1295,26.2397],[77.1649,26.2445],[77.1945,26.236],[77.267,26.2762],[77.3082,26.315],[77.318,26.3464],[77.3662,26.3715],[77.3526,26.3863],[77.3409,26.4197],[77.3039,26.445],[77.2557,26.4341],[77.2201,26.5364],[77.2486,26.5578],[77.284,26.5662],[77.3009,26.581],[77.3508,26.5993],[77.3804,26.6389],[77.3461,26.642],[77.3467,26.6606],[77.3637,26.6666],[77.342,26.6965],[77.3416,26.717],[77.3449,26.7604],[77.3368,26.7729],[77.3508,26.8006],[77.3241,26.8062],[77.2867,26.7851],[77.2516,26.8241],[77.2213,26.7995],[77.203,26.8152],[77.1485,26.8325],[77.1283,26.8443],[77.098,26.8792],[77.0708,26.8647]]]},"properties":{"NAME_1":"Rajasthan","NAME_2":"Karauli"}},{"type":"Feature","geometry":{"type":"Polygon","coordinates":[[[76.5668,25.8397],[76.4945,25.8478],[76.4769,25.8373],[76.4845,25.8209],[76.4606,25.7909],[76.4346,25.7728],[76.4076,25.7695],[76.3593,25.7432],[76.3297,25.7784],[76.3169,25.8138],[76.2888,25.7891],[76.2651,25.8103],[76.2452,25.7989],[76.2268,25.8091],[76.2092,25.843],[76.1958,25.8467],[76.1692,25.8048],[76.1525,25.7664],[76.1413,25.7499],[76.1532,25.7326],[76.1863,25.7102],[76.2359,25.6959],[76.2562,25.6738],[76.2829,25.6949],[76.3179,25.66],[76.3191,25.6473],[76.2962,25.6368],[76.2965,25.598],[76.2855,25.5738],[76.288,25.5494],[76.2702,25.5156],[76.2275,25.5041],[76.2046,25.4889],[76.1805,25.4971],[76.171,25.443],[76.152,25.4162],[76.1339,25.3747],[76.1529,25.3648],[76.148,25.3403],[76.1267,25.3484],[76.1088,25.3332],[76.0701,25.3539],[76.0609,25.3329],[76.0209,25.3188],[76.0294,25.2814],[76.0173,25.2675],[75.9772,25.2444],[75.9456,25.2799],[75.9093,25.2593],[75.8987,25.2386],[75.8819,25.2403],[75.8262,25.2309],[75.8332,25.2443],[75.7904,25.2622],[75.7914,25.2285],[75.7748,25.2009],[75.7328,25.1698],[75.7468,25.1449],[75.7237,25.1279],[75.7548,25.1155],[75.7399,25.0763],[75.693,25.0343],[75.6211,25.0003],[75.6531,24.9787],[75.6636,24.9489],[75.6985,24.9209],[75.7256,24.9062],[75.7581,24.8805],[75.7844,24.8721],[75.8187,24.8711],[75.8114,24.8274],[75.7974,24.7828],[75.7862,24.7655],[75.8388,24.7299],[75.842,24.7175],[75.8282,24.6682],[75.8439,24.6693],[75.8525,24.6143],[75.8741,24.6071],[75.8844,24.5817],[75.9111,24.5771],[75.907,24.5505],[75.9205,24.5438],[75.952,24.5479],[75.9588,24.5652],[75.9993,24.5682],[76.0289,24.5632],[76.0482,24.5804],[76.0785,24.5809],[76.0618,24.6275],[76.0654,24.6798],[76.1001,24.7003],[76.1112,24.6974],[76.1488,24.6588],[76.1852,24.6283],[76.1796,24.6687],[76.1973,24.6874],[76.1936,24.7168],[76.2008,24.7641],[76.2226,24.8004],[76.2236,24.8365],[76.2496,24.8349],[76.2622,24.8182],[76.2891,24.8218],[76.2869,24.8414],[76.3098,24.8445],[76.3369,24.8738],[76.3614,24.8756],[76.3958,24.8426],[76.4146,24.8478],[76.4407,24.8352],[76.4391,24.7876],[76.4862,24.8265],[76.5032,24.8267],[76.5527,24.8086],[76.569,24.8214],[76.5717,24.8625],[76.4824,24.925],[76.4479,24.9272],[76.4418,24.9578],[76.4173,24.9817],[76.3734,24.9848],[76.3581,24.9932],[76.3362,24.9882],[76.3201,24.9634],[76.3006,24.9756],[76.2856,25.0052],[76.2436,25.0453],[76.214,25.0887],[76.2307,25.1648],[76.2506,25.1934],[76.2496,25.2423],[76.2837,25.2512],[76.3052,25.2993],[76.3104,25.3354],[76.3267,25.3791],[76.3667,25.3933],[76.4363,25.3841],[76.4445,25.4041],[76.4868,25.4117],[76.4971,25.4259],[76.5217,25.417],[76.5566,25.4188],[76.5743,25.4367],[76.5607,25.4499],[76.5596,25.4733],[76.5379,25.5102],[76.5203,25.5299],[76.5222,25.5504],[76.5098,25.5798],[76.5147,25.6337],[76.4994,25.6483],[76.5108,25.6728],[76.4778,25.6951],[76.4824,25.7181],[76.5266,25.731],[76.5222,25.7663],[76.5293,25.798],[76.5668,25.8397]]]},"properties":{"NAME_1":"Rajasthan","NAME_2":"Kota"}},{"type":"Feature","geometry":{"type":"Polygon","coordinates":[[[74.6755,27.6696],[74.6229,27.6506],[74.6013,27.6786],[74.62,27.6945],[74.6054,27.7082],[74.5542,27.6686],[74.5334,27.6657],[74.5203,27.6767],[74.4903,27.6677],[74.4863,27.687],[74.4589,27.6809],[74.4369,27.6935],[74.4046,27.6882],[74.3964,27.6997],[74.3668,27.6843],[74.3387,27.6811],[74.3285,27.6598],[74.3042,27.6499],[74.2525,27.6039],[74.2528,27.5647],[74.2341,27.528],[74.2015,27.5076],[74.1885,27.4821],[74.202,27.4768],[74.2003,27.4254],[74.1772,27.4243],[74.1499,27.412],[74.1371,27.4298],[74.1455,27.4422],[74.133,27.462],[74.1028,27.4776],[74.0779,27.4803],[74.063,27.5071],[74.026,27.536],[73.9696,27.507],[73.9467,27.5138],[73.8982,27.4971],[73.8818,27.5065],[73.8709,27.5324],[73.8476,27.5518],[73.8336,27.5489],[73.8061,27.5181],[73.7734,27.5105],[73.7381,27.5431],[73.6879,27.5254],[73.6638,27.558],[73.6387,27.5649],[73.6021,27.5386],[73.6158,27.5173],[73.6042,27.4926],[73.5837,27.4838],[73.5364,27.494],[73.5225,27.4782],[73.5197,27.4447],[73.503,27.4337],[73.5023,27.3952],[73.5231,27.3751],[73.4916,27.3603],[73.5012,27.3333],[73.4472,27.3095],[73.3726,27.2601],[73.3579,27.2376],[73.3487,27.1966],[73.3308,27.1988],[73.3198,27.2203],[73.2817,27.2546],[73.2613,27.2842],[73.2655,27.3031],[73.2399,27.3253],[73.2111,27.3036],[73.206,27.277],[73.1608,27.2939],[73.1517,27.2508],[73.1299,27.2342],[73.1543,27.1981],[73.1651,27.1437],[73.1502,27.12],[73.1747,27.0922],[73.1901,27.0557],[73.1562,27.0242],[73.151,26.9916],[73.1132,26.9648],[73.1214,26.9432],[73.1538,26.9282],[73.1758,26.9288],[73.1896,26.8814],[73.2116,26.868],[73.2411,26.863],[73.2839,26.8637],[73.291,26.8734],[73.3255,26.8564],[73.35,26.868],[73.3846,26.8689],[73.4003,26.8831],[73.4362,26.8863],[73.4562,26.873],[73.4896,26.8871],[73.5102,26.8811],[73.5283,26.8588],[73.5855,26.8637],[73.604,26.8443],[73.6288,26.8399],[73.63,26.8074],[73.6528,26.8084],[73.6697,26.7524],[73.6478,26.7107],[73.6707,26.679],[73.6576,26.6487],[73.6751,26.647],[73.6995,26.6034],[73.6923,26.5894],[73.7189,26.5529],[73.7196,26.5399],[73.7533,26.5417],[73.7921,26.5055],[73.8133,26.5016],[73.8547,26.4685],[73.8576,26.4469],[73.8712,26.4318],[73.8955,26.425],[73.9561,26.4207],[74.0268,26.4245],[74.039,26.4106],[74.0675,26.4247],[74.1018,26.4185],[74.0971,26.4482],[74.121,26.4581],[74.1309,26.4382],[74.1723,26.4232],[74.1886,26.4391],[74.2227,26.4514],[74.2355,26.4633],[74.2881,26.4511],[74.3138,26.4597],[74.3343,26.445],[74.3497,26.4707],[74.3724,26.4911],[74.4259,26.4884],[74.4402,26.5047],[74.462,26.4892],[74.4781,26.4999],[74.5376,26.5649],[74.5897,26.6317],[74.6142,26.6026],[74.5981,26.5847],[74.6152,26.5686],[74.6703,26.5968],[74.6899,26.6415],[74.718,26.6785],[74.7197,26.7047],[74.6616,26.7141],[74.6808,26.7366],[74.6938,26.7739],[74.7453,26.7733],[74.761,26.7952],[74.7769,26.8015],[74.7689,26.8253],[74.7699,26.8516],[74.8005,26.8556],[74.8268,26.9025],[74.8228,26.9242],[74.8475,26.978],[74.9067,26.979],[74.9156,26.9659],[74.9502,26.966],[74.9787,26.9444],[74.9722,26.8935],[75.0096,26.8982],[75.0089,26.9485],[75.0981,26.9398],[75.1155,26.9351],[75.1606,26.9363],[75.1608,26.9651],[75.1988,26.9771],[75.1992,27.0105],[75.2378,27.02],[75.254,27.0378],[75.2178,27.0589],[75.2158,27.0863],[75.2451,27.092],[75.3345,27.0972],[75.3628,27.0913],[75.3608,27.1139],[75.3354,27.1214],[75.3358,27.1436],[75.3106,27.1628],[75.2956,27.1327],[75.2674,27.1369],[75.2035,27.1369],[75.1732,27.1443],[75.1497,27.1705],[75.1292,27.1728],[75.1128,27.1873],[75.1199,27.2144],[75.104,27.2231],[75.0666,27.2226],[75.0843,27.2471],[75.1026,27.2545],[75.1317,27.2872],[75.1541,27.2843],[75.1623,27.3197],[75.1316,27.328],[75.1103,27.3477],[75.1125,27.3798],[75.0681,27.3885],[75.0415,27.3805],[75.0324,27.3601],[75.004,27.35],[74.9416,27.3493],[74.9341,27.3387],[74.8933,27.3328],[74.8741,27.3136],[74.8616,27.3376],[74.8737,27.3478],[74.8685,27.3749],[74.8397,27.3815],[74.8679,27.4148],[74.8518,27.4531],[74.7978,27.4525],[74.7933,27.4849],[74.746,27.5037],[74.7178,27.5037],[74.711,27.54],[74.7561,27.5702],[74.7356,27.5876],[74.7225,27.61],[74.7005,27.5951],[74.695,27.6195],[74.7051,27.6308],[74.6958,27.6542],[74.6755,27.6696]]]},"properties":{"NAME_1":"Rajasthan","NAME_2":"Nagaur"}},{"type":"Feature","geometry":{"type":"Polygon","coordinates":[[[74.2881,26.4511],[74.2355,26.4633],[74.2227,26.4514],[74.1886,26.4391],[74.1723,26.4232],[74.1309,26.4382],[74.121,26.4581],[74.0971,26.4482],[74.1018,26.4185],[74.0675,26.4247],[74.039,26.4106],[74.0268,26.4245],[73.9561,26.4207],[73.8955,26.425],[73.8712,26.4318],[73.8442,26.4086],[73.8405,26.3858],[73.8125,26.3507],[73.8121,26.2882],[73.8058,26.265],[73.7887,26.2373],[73.8033,26.2081],[73.7848,26.1648],[73.8091,26.1278],[73.8047,26.1011],[73.7641,26.099],[73.7455,26.1128],[73.7229,26.1097],[73.6948,26.0647],[73.6494,26.079],[73.6522,26.1271],[73.6278,26.1479],[73.576,26.1164],[73.5221,26.1036],[73.5289,26.0643],[73.4913,26.0832],[73.466,26.0858],[73.4302,26.1302],[73.406,26.1303],[73.4027,26.1625],[73.3764,26.1566],[73.3651,26.1358],[73.3407,26.1174],[73.3588,26.0755],[73.3298,26.055],[73.3164,26.0343],[73.2752,26.0433],[73.2505,26.0647],[73.2076,26.0766],[73.1782,26.0542],[73.187,26.0329],[73.132,26.0429],[73.1186,26.0306],[73.0595,26.0117],[73.0507,25.9672],[73.0326,25.9513],[73.0013,25.9526],[72.9755,25.9345],[72.9592,25.901],[72.9346,25.9017],[72.9134,25.8927],[72.8435,25.8897],[72.8358,25.8621],[72.8501,25.8408],[72.8362,25.8151],[72.8124,25.8209],[72.785,25.8115],[72.7795,25.8004],[72.8012,25.7914],[72.8136,25.7726],[72.8491,25.7541],[72.8726,25.7495],[72.8906,25.7338],[72.8911,25.6942],[72.9177,25.6819],[72.9368,25.6382],[72.9774,25.6234],[72.9846,25.6032],[73.0359,25.5816],[73.0579,25.56],[73.0599,25.5077],[73.0895,25.4914],[73.0985,25.468],[73.06,25.4463],[73.0713,25.4376],[73.0516,25.4002],[73.0091,25.3682],[72.9963,25.3471],[72.9746,25.3711],[72.9585,25.3723],[72.941,25.3564],[72.9783,25.3313],[73.0001,25.2885],[72.9957,25.2572],[72.9714,25.2441],[72.9426,25.2433],[72.9477,25.2175],[72.9794,25.2167],[72.9755,25.1926],[72.9501,25.165],[72.9579,25.1416],[73.0014,25.1437],[73.0039,25.1008],[73.0264,25.0892],[73.0524,25.1041],[73.0436,25.1407],[73.0591,25.1591],[73.1209,25.1077],[73.1344,25.109],[73.1337,25.0646],[73.1104,25.037],[73.0505,25.0046],[73.0344,24.9633],[73.015,24.941],[73.0109,24.9214],[73.0312,24.8876],[73.0478,24.886],[73.0741,24.8575],[73.0987,24.858],[73.1047,24.8452],[73.1457,24.8432],[73.1632,24.8184],[73.1656,24.7815],[73.1477,24.7579],[73.2034,24.7874],[73.2336,24.7939],[73.2418,24.8306],[73.2684,24.8575],[73.2738,24.8778],[73.2928,24.8755],[73.3298,24.9092],[73.3481,24.9612],[73.3317,24.9777],[73.3459,24.9901],[73.3464,25.0108],[73.3732,25.0297],[73.3935,25.0671],[73.4251,25.0907],[73.4634,25.0903],[73.4921,25.1084],[73.5017,25.1269],[73.5535,25.1643],[73.5738,25.1858],[73.6023,25.2045],[73.6127,25.254],[73.6231,25.2591],[73.6128,25.2874],[73.6244,25.3038],[73.6599,25.3318],[73.6696,25.3472],[73.6988,25.361],[73.7088,25.3831],[73.7339,25.3835],[73.749,25.4054],[73.7528,25.4318],[73.7794,25.4837],[73.8072,25.5125],[73.8329,25.5769],[73.8306,25.5881],[73.8587,25.6277],[73.8642,25.6524],[73.9016,25.6762],[73.9056,25.6868],[73.9129,25.6994],[73.9059,25.742],[73.9314,25.7714],[73.9235,25.7954],[73.9417,25.8055],[73.9428,25.8327],[73.97,25.8359],[73.975,25.8506],[74.0077,25.8652],[74.0442,25.8337],[74.0551,25.8308],[74.0783,25.8487],[74.0977,25.8487],[74.1157,25.8681],[74.1133,25.8817],[74.1366,25.8911],[74.1588,25.9307],[74.1429,25.9428],[74.1538,25.9597],[74.1299,25.9652],[74.1715,26.0124],[74.1548,26.0244],[74.1515,26.0479],[74.1722,26.0657],[74.1812,26.0313],[74.2045,26.0499],[74.2192,26.0437],[74.2431,26.0804],[74.2854,26.123],[74.2847,26.1529],[74.3003,26.1871],[74.3139,26.1833],[74.3399,26.1987],[74.3669,26.1925],[74.3742,26.2087],[74.3714,26.25],[74.3993,26.2693],[74.362,26.2938],[74.3084,26.254],[74.2703,26.2629],[74.2512,26.2884],[74.2739,26.3143],[74.3015,26.3312],[74.3021,26.3847],[74.2862,26.4187],[74.2881,26.4511]]]},"properties":{"NAME_1":"Rajasthan","NAME_2":"Pali"}},{"type":"Feature","geometry":{"type":"Polygon","coordinates":[[[74.1821,25.8505],[74.1721,25.8463],[74.1157,25.8681],[74.0977,25.8487],[74.0783,25.8487],[74.0551,25.8308],[74.0686,25.8063],[74.0945,25.7857],[74.0922,25.769],[74.0406,25.7472],[74.0159,25.7484],[73.9771,25.7157],[74.0119,25.7055],[73.9877,25.6737],[73.9484,25.6523],[73.9257,25.6822],[73.9056,25.6868],[73.9016,25.6762],[73.8642,25.6524],[73.8587,25.6277],[73.8306,25.5881],[73.8329,25.5769],[73.8072,25.5125],[73.7794,25.4837],[73.7528,25.4318],[73.749,25.4054],[73.7339,25.3835],[73.7088,25.3831],[73.6988,25.361],[73.6696,25.3472],[73.6599,25.3318],[73.6244,25.3038],[73.6128,25.2874],[73.6231,25.2591],[73.6127,25.254],[73.6023,25.2045],[73.5738,25.1858],[73.5535,25.1643],[73.5017,25.1269],[73.4921,25.1084],[73.5049,25.0798],[73.4747,25.0264],[73.4881,25.0063],[73.5028,25.021],[73.5317,25.0053],[73.5106,24.9801],[73.526,24.9714],[73.5407,24.9204],[73.5657,24.9168],[73.5807,24.8674],[73.6104,24.8622],[73.6292,24.8197],[73.6302,24.7902],[73.6553,24.7851],[73.6587,24.7589],[73.6553,24.7086],[73.6699,24.7086],[73.7083,24.7452],[73.7358,24.7252],[73.725,24.6869],[73.7589,24.6683],[73.7769,24.7074],[73.762,24.7151],[73.7988,24.7499],[73.7852,24.7661],[73.7907,24.8052],[73.8325,24.8466],[73.8084,24.8742],[73.8442,24.9133],[73.8563,24.9123],[73.904,24.8805],[73.9255,24.8967],[73.9455,24.8568],[73.9648,24.8615],[73.97,24.905],[73.9942,24.909],[74.0219,24.8969],[74.0459,24.9058],[74.0631,24.8803],[74.0907,24.8647],[74.1212,24.8854],[74.147,24.8883],[74.1648,24.9183],[74.1882,24.932],[74.2008,24.9546],[74.1997,24.9809],[74.2275,24.9974],[74.2708,24.994],[74.297,25],[74.3166,25.0144],[74.3194,25.0345],[74.2735,25.0652],[74.2592,25.0674],[74.2333,25.0714],[74.2164,25.0506],[74.1887,25.0623],[74.1814,25.1149],[74.1646,25.1296],[74.1096,25.1359],[74.0798,25.1511],[74.0587,25.1485],[74.0753,25.1809],[74.1016,25.1871],[74.1048,25.2068],[74.1227,25.2439],[74.0982,25.2374],[74.0687,25.2469],[74.05,25.2383],[74.0275,25.2852],[74.0428,25.3039],[74.0762,25.303],[74.0836,25.3188],[74.0338,25.3334],[74.0236,25.3534],[74.0317,25.3869],[74.0547,25.4054],[74.0657,25.4317],[74.058,25.4414],[74.0218,25.4344],[74.0442,25.5009],[74.0641,25.4911],[74.0937,25.5064],[74.0977,25.517],[74.0762,25.5399],[74.0835,25.5589],[74.0657,25.582],[74.1043,25.5938],[74.1157,25.6124],[74.1163,25.6383],[74.093,25.6753],[74.0756,25.6793],[74.0973,25.718],[74.1946,25.7414],[74.1893,25.7682],[74.2056,25.7763],[74.1976,25.8008],[74.2141,25.808],[74.1803,25.8345],[74.1821,25.8505]]]},"properties":{"NAME_1":"Rajasthan","NAME_2":"Rajsamand"}},{"type":"Feature","geometry":{"type":"Polygon","coordinates":[[[76.8381,26.0364],[76.8151,26.0674],[76.7941,26.0731],[76.7822,26.0987],[76.7581,26.1097],[76.7307,26.149],[76.7128,26.1551],[76.6897,26.1789],[76.6656,26.1653],[76.577,26.2125],[76.5738,26.2371],[76.594,26.2576],[76.5833,26.2705],[76.618,26.309],[76.6306,26.3509],[76.6665,26.3586],[76.679,26.3783],[76.6756,26.3984],[76.7338,26.4364],[76.7645,26.4446],[76.7773,26.4796],[76.8048,26.4938],[76.827,26.4872],[76.8439,26.5053],[76.8788,26.5268],[76.9092,26.562],[76.9365,26.5406],[76.9554,26.5505],[76.9537,26.5713],[76.9255,26.5759],[76.9323,26.5935],[76.9514,26.5939],[76.9653,26.6087],[76.9505,26.6263],[76.9388,26.6574],[76.8844,26.6269],[76.8053,26.5739],[76.7189,26.533],[76.6918,26.5137],[76.6692,26.5363],[76.661,26.5624],[76.6208,26.5755],[76.602,26.5932],[76.5734,26.5937],[76.5476,26.6089],[76.4993,26.6235],[76.4463,26.6448],[76.4205,26.6082],[76.4007,26.5576],[76.4092,26.5434],[76.4384,26.5554],[76.4559,26.5487],[76.4584,26.5275],[76.4755,26.5036],[76.4509,26.4794],[76.431,26.4438],[76.3878,26.3929],[76.3365,26.4153],[76.3356,26.4416],[76.3171,26.459],[76.2872,26.4581],[76.2447,26.4456],[76.2405,26.468],[76.2239,26.4672],[76.1748,26.4904],[76.1359,26.4555],[76.1525,26.4449],[76.1433,26.4037],[76.1289,26.3738],[76.1252,26.3495],[76.1423,26.3128],[76.1104,26.2786],[76.1178,26.2598],[76.0984,26.2437],[76.0248,26.2564],[76.0257,26.2268],[75.9874,26.2246],[75.9765,26.1993],[76.0016,26.1811],[75.9905,26.1639],[75.9894,26.1201],[76.025,26.1147],[76.0508,26.1201],[76.0636,26.1349],[76.0873,26.1182],[76.0945,26.1],[76.0857,26.0739],[76.111,26.0609],[76.0715,26.0181],[76.0649,25.9997],[76.0872,25.9931],[76.1135,25.9999],[76.1411,25.9708],[76.1578,25.9944],[76.1773,25.9934],[76.1849,26.0156],[76.2118,26.0122],[76.2451,26.0241],[76.2416,25.9919],[76.2517,25.9713],[76.2431,25.9401],[76.2444,25.9182],[76.2139,25.9167],[76.2173,25.8669],[76.2704,25.8285],[76.2969,25.8257],[76.3169,25.8138],[76.3297,25.7784],[76.3593,25.7432],[76.4076,25.7695],[76.4346,25.7728],[76.4606,25.7909],[76.4845,25.8209],[76.4769,25.8373],[76.4945,25.8478],[76.5668,25.8397],[76.5975,25.8765],[76.6317,25.8752],[76.6414,25.9063],[76.6744,25.9118],[76.7145,25.901],[76.7333,25.9025],[76.7624,25.9221],[76.7607,25.9425],[76.7948,25.9442],[76.8189,25.9713],[76.818,25.9843],[76.8402,26.0113],[76.8381,26.0364]]]},"properties":{"NAME_1":"Rajasthan","NAME_2":"Sawai Madhopur"}},{"type":"Feature","geometry":{"type":"Polygon","coordinates":[[[75.0226,28.201],[75.0008,28.2034],[74.9412,28.1899],[74.911,28.1995],[74.8858,28.1944],[74.8614,28.1477],[74.8233,28.1171],[74.7959,28.1194],[74.783,28.1072],[74.7816,28.0802],[74.8019,28.0607],[74.7864,28.0086],[74.7551,27.9901],[74.775,27.9581],[74.8148,27.9405],[74.8229,27.913],[74.7947,27.8989],[74.778,27.9015],[74.7323,27.8916],[74.7347,27.8576],[74.7612,27.8566],[74.774,27.8345],[74.7908,27.8395],[74.8113,27.8023],[74.7552,27.7675],[74.7355,27.7669],[74.7216,27.7201],[74.7468,27.7194],[74.743,27.6919],[74.7254,27.6785],[74.6755,27.6696],[74.6958,27.6542],[74.7051,27.6308],[74.695,27.6195],[74.7005,27.5951],[74.7225,27.61],[74.7356,27.5876],[74.7561,27.5702],[74.711,27.54],[74.7178,27.5037],[74.746,27.5037],[74.7933,27.4849],[74.7978,27.4525],[74.8518,27.4531],[74.8679,27.4148],[74.8397,27.3815],[74.8685,27.3749],[74.8737,27.3478],[74.8616,27.3376],[74.8741,27.3136],[74.8933,27.3328],[74.9341,27.3387],[74.9416,27.3493],[75.004,27.35],[75.0324,27.3601],[75.0415,27.3805],[75.0681,27.3885],[75.1125,27.3798],[75.1103,27.3477],[75.1316,27.328],[75.1623,27.3197],[75.1541,27.2843],[75.1317,27.2872],[75.1026,27.2545],[75.0843,27.2471],[75.0666,27.2226],[75.104,27.2231],[75.1199,27.2144],[75.1128,27.1873],[75.1292,27.1728],[75.1497,27.1705],[75.1732,27.1443],[75.2035,27.1369],[75.2674,27.1369],[75.2956,27.1327],[75.3106,27.1628],[75.3115,27.1974],[75.3231,27.2175],[75.3522,27.2291],[75.3861,27.2342],[75.3892,27.2863],[75.4263,27.3048],[75.4706,27.2931],[75.501,27.3184],[75.503,27.3334],[75.5247,27.3478],[75.5665,27.3458],[75.5737,27.3103],[75.6076,27.3188],[75.6223,27.3444],[75.6539,27.3421],[75.659,27.3699],[75.6858,27.3762],[75.7185,27.3734],[75.7331,27.4084],[75.7676,27.4065],[75.7874,27.3851],[75.8045,27.4092],[75.8238,27.3939],[75.8392,27.4048],[75.8599,27.3925],[75.8769,27.4029],[75.864,27.4208],[75.8887,27.4609],[75.9128,27.4594],[75.9473,27.4805],[75.9787,27.4823],[75.9625,27.5076],[75.9323,27.5013],[75.9421,27.5345],[75.9529,27.5962],[75.9349,27.6261],[75.9722,27.66],[75.9839,27.7076],[76.0274,27.736],[76.0493,27.7764],[76.0595,27.7754],[76.0898,27.8348],[76.0801,27.8511],[76.0496,27.8479],[76.0093,27.8626],[75.9754,27.8646],[75.9774,27.9093],[75.9559,27.9195],[75.9288,27.9168],[75.9236,27.9331],[75.8901,27.9192],[75.8578,27.893],[75.7974,27.8623],[75.7626,27.8376],[75.7333,27.8048],[75.7046,27.7601],[75.7122,27.7488],[75.6896,27.7116],[75.6821,27.6776],[75.6627,27.6783],[75.6514,27.6993],[75.6582,27.7172],[75.6303,27.7202],[75.6129,27.7067],[75.5297,27.7129],[75.5153,27.6974],[75.4756,27.6879],[75.4551,27.6666],[75.4115,27.6476],[75.3872,27.6616],[75.3678,27.6858],[75.3434,27.7038],[75.2828,27.7194],[75.258,27.7675],[75.2832,27.7737],[75.2809,27.8195],[75.2353,27.8138],[75.2375,27.8458],[75.2234,27.881],[75.2054,27.8843],[75.1887,27.9137],[75.189,27.96],[75.1684,27.9607],[75.1518,27.9893],[75.1417,28.0288],[75.1231,28.0282],[75.0959,28.0673],[75.1108,28.0888],[75.1058,28.115],[75.1217,28.1378],[75.0826,28.1624],[75.0552,28.162],[75.0741,28.1934],[75.0363,28.194],[75.0226,28.201]]]},"properties":{"NAME_1":"Rajasthan","NAME_2":"Sikar"}},{"type":"Feature","geometry":{"type":"Polygon","coordinates":[[[72.9426,25.2433],[72.9208,25.2541],[72.8938,25.2458],[72.8676,25.2574],[72.8303,25.2864],[72.7821,25.2152],[72.7845,25.1912],[72.7541,25.1631],[72.7413,25.1269],[72.7124,25.1061],[72.6967,25.0763],[72.6921,25.0469],[72.6619,25.0396],[72.6376,24.9996],[72.5852,24.94],[72.5742,24.9336],[72.5104,24.9215],[72.5097,24.8792],[72.4884,24.8687],[72.5048,24.8168],[72.4969,24.8056],[72.5021,24.7645],[72.4865,24.7489],[72.4189,24.7521],[72.4058,24.7727],[72.378,24.7595],[72.3318,24.6997],[72.3186,24.6699],[72.3172,24.6471],[72.3402,24.623],[72.3538,24.6181],[72.3422,24.5935],[72.314,24.5854],[72.3003,24.6002],[72.2767,24.5992],[72.251,24.5802],[72.2717,24.5502],[72.2951,24.5384],[72.3324,24.5424],[72.3579,24.5525],[72.3863,24.5005],[72.4211,24.5081],[72.4482,24.4933],[72.4367,24.4605],[72.4562,24.4381],[72.4647,24.4071],[72.4874,24.4054],[72.51,24.4183],[72.5006,24.4503],[72.5421,24.5049],[72.5742,24.4881],[72.5885,24.4725],[72.6586,24.4564],[72.693,24.4602],[72.6935,24.4193],[72.7066,24.3913],[72.7325,24.3613],[72.8153,24.3582],[72.8292,24.365],[72.8681,24.3658],[72.9006,24.3514],[72.9239,24.3263],[72.9654,24.3511],[72.9915,24.364],[72.9642,24.3922],[72.9906,24.4209],[72.981,24.451],[73.0128,24.4824],[73.01,24.4941],[73.0304,24.5313],[73.0481,24.5477],[73.0864,24.6115],[73.0873,24.6365],[73.1411,24.6879],[73.1432,24.7528],[73.1477,24.7579],[73.1656,24.7815],[73.1632,24.8184],[73.1457,24.8432],[73.1047,24.8452],[73.0987,24.858],[73.0741,24.8575],[73.0478,24.886],[73.0312,24.8876],[73.0109,24.9214],[73.015,24.941],[73.0344,24.9633],[73.0505,25.0046],[73.1104,25.037],[73.1337,25.0646],[73.1344,25.109],[73.1209,25.1077],[73.0591,25.1591],[73.0436,25.1407],[73.0524,25.1041],[73.0264,25.0892],[73.0039,25.1008],[73.0014,25.1437],[72.9579,25.1416],[72.9501,25.165],[72.9755,25.1926],[72.9794,25.2167],[72.9477,25.2175],[72.9426,25.2433]]]},"properties":{"NAME_1":"Rajasthan","NAME_2":"Sirohi"}},{"type":"Feature","geometry":{"type":"Polygon","coordinates":[[[76.1548,26.5194],[76.1457,26.5301],[76.1073,26.54],[76.0789,26.5278],[76.0667,26.5121],[76.0374,26.5152],[76.0106,26.508],[76.0033,26.4965],[75.9686,26.5067],[75.9576,26.4875],[75.9316,26.4981],[75.9287,26.5097],[75.8501,26.5229],[75.8307,26.5148],[75.7947,26.535],[75.793,26.5542],[75.7688,26.5476],[75.7789,26.5301],[75.7557,26.5164],[75.7667,26.4962],[75.7657,26.4713],[75.7246,26.4697],[75.7073,26.4491],[75.6478,26.4679],[75.6386,26.4466],[75.6124,26.4435],[75.5691,26.4503],[75.5711,26.477],[75.548,26.4903],[75.5224,26.4672],[75.5013,26.4831],[75.448,26.4971],[75.4324,26.4854],[75.3856,26.4858],[75.3476,26.5053],[75.3263,26.5619],[75.2822,26.5677],[75.2508,26.5452],[75.2327,26.5248],[75.2012,26.5192],[75.1658,26.4656],[75.1726,26.4477],[75.1602,26.4241],[75.1328,26.4129],[75.1257,26.4004],[75.1404,26.3693],[75.122,26.3583],[75.1344,26.3212],[75.1273,26.2958],[75.1095,26.2884],[75.1136,26.2555],[75.1395,26.2476],[75.1569,26.2041],[75.1548,26.1862],[75.1843,26.1671],[75.1844,26.1135],[75.2168,26.1108],[75.2422,26.082],[75.2614,26.1036],[75.2732,26.1392],[75.303,26.1507],[75.3359,26.1345],[75.325,26.1043],[75.3045,26.0843],[75.3049,26.0663],[75.3242,26.06],[75.3516,26.0231],[75.3448,26.0056],[75.3241,26.0024],[75.3136,25.9579],[75.3034,25.9452],[75.2763,25.9477],[75.2478,25.9411],[75.2456,25.8996],[75.2626,25.884],[75.2601,25.8567],[75.3078,25.8573],[75.3233,25.8415],[75.3513,25.8337],[75.3364,25.8147],[75.3317,25.7864],[75.3157,25.7676],[75.3875,25.763],[75.3999,25.7783],[75.4224,25.752],[75.4416,25.7446],[75.4608,25.7224],[75.4736,25.7388],[75.5077,25.7405],[75.5296,25.7184],[75.5603,25.7008],[75.5775,25.7134],[75.5919,25.6891],[75.6187,25.6811],[75.6278,25.7129],[75.6575,25.7469],[75.6909,25.7646],[75.743,25.755],[75.7573,25.7606],[75.757,25.7981],[75.769,25.8268],[75.8041,25.8206],[75.8094,25.8022],[75.8337,25.8082],[75.8301,25.8389],[75.8442,25.8548],[75.8699,25.856],[75.8895,25.8732],[75.9049,25.8506],[75.901,25.8189],[75.9428,25.8206],[75.9545,25.8403],[75.9527,25.8691],[75.9828,25.8696],[76.008,25.8864],[76.0164,25.873],[76.0566,25.8642],[76.0496,25.8245],[76.0626,25.8111],[76.0976,25.8147],[76.1099,25.7922],[76.1357,25.7887],[76.1525,25.7664],[76.1692,25.8048],[76.1958,25.8467],[76.2092,25.843],[76.2268,25.8091],[76.2452,25.7989],[76.2651,25.8103],[76.2888,25.7891],[76.3169,25.8138],[76.2969,25.8257],[76.2704,25.8285],[76.2173,25.8669],[76.2139,25.9167],[76.2444,25.9182],[76.2431,25.9401],[76.2517,25.9713],[76.2416,25.9919],[76.2451,26.0241],[76.2118,26.0122],[76.1849,26.0156],[76.1773,25.9934],[76.1578,25.9944],[76.1411,25.9708],[76.1135,25.9999],[76.0872,25.9931],[76.0649,25.9997],[76.0715,26.0181],[76.111,26.0609],[76.0857,26.0739],[76.0945,26.1],[76.0873,26.1182],[76.0636,26.1349],[76.0508,26.1201],[76.025,26.1147],[75.9894,26.1201],[75.9905,26.1639],[76.0016,26.1811],[75.9765,26.1993],[75.9874,26.2246],[76.0257,26.2268],[76.0248,26.2564],[76.0984,26.2437],[76.1178,26.2598],[76.1104,26.2786],[76.1423,26.3128],[76.1252,26.3495],[76.1289,26.3738],[76.1433,26.4037],[76.1525,26.4449],[76.1359,26.4555],[76.1748,26.4904],[76.1548,26.5194]]]},"properties":{"NAME_1":"Rajasthan","NAME_2":"Tonk"}},{"type":"Feature","geometry":{"type":"Polygon","coordinates":[[[74.147,24.8883],[74.1212,24.8854],[74.0907,24.8647],[74.0631,24.8803],[74.0459,24.9058],[74.0219,24.8969],[73.9942,24.909],[73.97,24.905],[73.9648,24.8615],[73.9455,24.8568],[73.9255,24.8967],[73.904,24.8805],[73.8563,24.9123],[73.8442,24.9133],[73.8084,24.8742],[73.8325,24.8466],[73.7907,24.8052],[73.7852,24.7661],[73.7988,24.7499],[73.762,24.7151],[73.7769,24.7074],[73.7589,24.6683],[73.725,24.6869],[73.7358,24.7252],[73.7083,24.7452],[73.6699,24.7086],[73.6553,24.7086],[73.6587,24.7589],[73.6553,24.7851],[73.6302,24.7902],[73.6292,24.8197],[73.6104,24.8622],[73.5807,24.8674],[73.5657,24.9168],[73.5407,24.9204],[73.526,24.9714],[73.5106,24.9801],[73.5317,25.0053],[73.5028,25.021],[73.4881,25.0063],[73.4747,25.0264],[73.5049,25.0798],[73.4921,25.1084],[73.4634,25.0903],[73.4251,25.0907],[73.3935,25.0671],[73.3732,25.0297],[73.3464,25.0108],[73.3459,24.9901],[73.3317,24.9777],[73.3481,24.9612],[73.3298,24.9092],[73.2928,24.8755],[73.2738,24.8778],[73.2684,24.8575],[73.2418,24.8306],[73.2336,24.7939],[73.2034,24.7874],[73.1477,24.7579],[73.1432,24.7528],[73.1411,24.6879],[73.0873,24.6365],[73.0864,24.6115],[73.0481,24.5477],[73.0304,24.5313],[73.01,24.4941],[73.0128,24.4824],[73.0219,24.4651],[73.051,24.4653],[73.0944,24.4947],[73.1072,24.4568],[73.1062,24.4203],[73.085,24.3945],[73.1112,24.3868],[73.1274,24.3688],[73.162,24.3527],[73.1802,24.3507],[73.211,24.3754],[73.2315,24.3647],[73.2111,24.3342],[73.187,24.3349],[73.1848,24.3091],[73.1733,24.3011],[73.145,24.3079],[73.1389,24.2801],[73.1161,24.2626],[73.0917,24.2209],[73.0827,24.185],[73.1234,24.1403],[73.1717,24.1113],[73.2238,24.0982],[73.2006,24.0452],[73.2525,24.0111],[73.2753,24.028],[73.291,24.0274],[73.3068,24.0515],[73.3266,24.0625],[73.3345,24.0826],[73.3352,24.1151],[73.3696,24.1125],[73.3696,24.088],[73.3966,24.0725],[73.4138,24.0511],[73.4106,23.9983],[73.4215,23.9747],[73.4201,23.9234],[73.3865,23.9058],[73.3598,23.8546],[73.3704,23.8144],[73.4076,23.8069],[73.4356,23.8379],[73.4732,23.8481],[73.5014,23.9041],[73.5213,23.9319],[73.5516,23.9376],[73.5738,23.9611],[73.5955,23.9667],[73.6738,23.9404],[73.6997,23.9596],[73.7412,23.9448],[73.7556,23.9496],[73.7794,23.9404],[73.8602,23.9378],[73.8686,23.9548],[73.9201,23.9849],[73.9492,23.9773],[73.9782,23.9794],[74.0037,23.9702],[74.051,23.9826],[74.0824,23.9702],[74.1074,23.9923],[74.1315,23.9956],[74.135,24.0196],[74.1618,24.0155],[74.1766,23.9717],[74.207,23.9569],[74.2283,23.9116],[74.2765,23.9379],[74.2741,23.9536],[74.3036,23.9628],[74.3274,23.9388],[74.368,23.936],[74.3852,23.9083],[74.4351,23.9086],[74.452,23.9224],[74.4807,23.9267],[74.4988,23.8975],[74.5506,23.882],[74.537,23.9436],[74.5151,23.9845],[74.5574,24.0011],[74.5575,24.0363],[74.5723,24.0615],[74.5608,24.0862],[74.5771,24.092],[74.5825,24.1281],[74.5794,24.1525],[74.5273,24.2011],[74.5054,24.2096],[74.5016,24.24],[74.4419,24.2854],[74.4374,24.3196],[74.3864,24.3135],[74.3746,24.3565],[74.3755,24.3759],[74.3466,24.3751],[74.357,24.3978],[74.3788,24.4004],[74.3764,24.4226],[74.3511,24.4459],[74.3222,24.4449],[74.3268,24.471],[74.3548,24.5052],[74.3337,24.5083],[74.3133,24.4869],[74.2934,24.5042],[74.2745,24.4781],[74.2447,24.4554],[74.2184,24.4686],[74.2216,24.4885],[74.2517,24.5107],[74.262,24.5359],[74.2778,24.5362],[74.2725,24.5646],[74.2786,24.5952],[74.2609,24.5977],[74.2456,24.6157],[74.2513,24.6555],[74.2222,24.6496],[74.205,24.6719],[74.1721,24.6805],[74.1731,24.7183],[74.1517,24.7334],[74.1194,24.7415],[74.1194,24.7625],[74.1071,24.7832],[74.1109,24.8137],[74.1317,24.848],[74.147,24.8883]]]},"properties":{"NAME_1":"Rajasthan","NAME_2":"Udaipur"}}]}