{"type":"FeatureCollection","features":[{"type":"Feature","geometry":{"type":"Polygon","coordinates":[[[88.7178,27.144],[88.7325,27.1374],[88.7372,27.1395],[88.7517,27.1482],[88.7607,27.1581],[88.7584,27.172],[88.7847,27.182],[88.8007,27.2207],[88.8011,27.2476],[88.8352,27.2631],[88.8724,27.2588],[88.8992,27.275],[88.9224,27.3263],[88.8899,27.3364],[88.8792,27.3644],[88.8565,27.3868],[88.8383,27.3788],[88.806,27.4142],[88.7925,27.4164],[88.7683,27.4164],[88.7489,27.4147],[88.7139,27.4167],[88.6955,27.4018],[88.6703,27.4001],[88.6442,27.3919],[88.6326,27.3885],[88.5948,27.3908],[88.5858,27.3963],[88.577,27.3945],[88.5389,27.3941],[88.524,27.3962],[88.5142,27.3946],[88.4862,27.3787],[88.481,27.3784],[88.4778,27.3288],[88.4495,27.3154],[88.4377,27.2812],[88.4421,27.2613],[88.476,27.2467],[88.4898,27.2305],[88.4863,27.2023],[88.499,27.1851],[88.5208,27.1782],[88.529,27.1778],[88.559,27.1888],[88.594,27.1912],[88.5981,27.1914],[88.619,27.1879],[88.6425,27.1672],[88.6596,27.1622],[88.6844,27.1802],[88.702,27.1741],[88.715,27.1502],[88.7178,27.144]]]},"properties":{"NAME_1":"Sikkim","NAME_2":"East"}},{"type":"Feature","geometry":{"type":"Polygon","coordinates":[[[88.7925,27.4164],[88.8032,27.4271],[88.7834,27.4556],[88.7832,27.4965],[88.7886,27.5286],[88.7751,27.5376],[88.7671,27.565],[88.7856,27.5763],[88.8055,27.6033],[88.8099,27.6419],[88.8223,27.6428],[88.8466,27.6689],[88.8455,27.7003],[88.8624,27.739],[88.8523,27.7783],[88.8557,27.8181],[88.881,27.839],[88.8802,27.8952],[88.8589,27.9253],[88.8363,27.932],[88.8409,27.991],[88.8291,28.0152],[88.7994,28.0307],[88.7823,28.0508],[88.7511,28.0733],[88.6858,28.079],[88.6668,28.0741],[88.6377,28.1044],[88.6165,28.1037],[88.5748,28.0856],[88.5545,28.0848],[88.5523,28.0654],[88.5333,28.0366],[88.5011,28.0489],[88.4819,28.045],[88.4616,28.0198],[88.4265,28.0081],[88.3888,27.9778],[88.3638,27.9881],[88.3378,27.988],[88.3048,27.97],[88.2804,27.9678],[88.2439,27.9485],[88.2328,27.9659],[88.2035,27.9666],[88.1948,27.9462],[88.1736,27.9447],[88.1391,27.9635],[88.1139,27.9122],[88.13,27.8815],[88.1513,27.8765],[88.2039,27.8373],[88.1879,27.8103],[88.1999,27.7905],[88.1844,27.7745],[88.1812,27.7468],[88.161,27.7406],[88.1507,27.702],[88.1574,27.6904],[88.1473,27.6654],[88.1226,27.6453],[88.1169,27.614],[88.2042,27.5815],[88.2266,27.5573],[88.2361,27.535],[88.2763,27.513],[88.2857,27.5189],[88.3299,27.5277],[88.3504,27.5214],[88.3594,27.5104],[88.3704,27.4976],[88.4004,27.4757],[88.4019,27.4634],[88.4109,27.4466],[88.4091,27.4394],[88.4216,27.4132],[88.4275,27.4045],[88.4487,27.3886],[88.4654,27.3856],[88.4862,27.3787],[88.5142,27.3946],[88.524,27.3962],[88.5389,27.3941],[88.577,27.3945],[88.5858,27.3963],[88.5948,27.3908],[88.6326,27.3885],[88.6442,27.3919],[88.6703,27.4001],[88.6955,27.4018],[88.7139,27.4167],[88.7489,27.4147],[88.7683,27.4164],[88.7925,27.4164]]]},"properties":{"NAME_1":"Sikkim","NAME_2":"North Sikkim"}},{"type":"Feature","geometry":{"type":"Polygon","coordinates":[[[88.481,27.3784],[88.4654,27.3856],[88.4487,27.3886],[88.4275,27.4045],[88.4216,27.4132],[88.4091,27.4394],[88.4109,27.4466],[88.4019,27.4634],[88.4004,27.4757],[88.3704,27.4976],[88.3594,27.5104],[88.3504,27.5214],[88.3299,27.5277],[88.2857,27.5189],[88.2661,27.5037],[88.2608,27.4899],[88.2694,27.4197],[88.274,27.4059],[88.2789,27.4053],[88.3005,27.417],[88.3428,27.4142],[88.3532,27.3784],[88.3255,27.3688],[88.3229,27.365],[88.3146,27.3461],[88.2953,27.3342],[88.3056,27.3158],[88.306,27.3057],[88.2909,27.2972],[88.2856,27.295],[88.2734,27.2817],[88.299,27.261],[88.3028,27.2262],[88.3181,27.2206],[88.3242,27.2045],[88.3269,27.2013],[88.3269,27.1988],[88.3295,27.1946],[88.3238,27.1876],[88.3148,27.1856],[88.3046,27.1781],[88.2856,27.1542],[88.2822,27.1511],[88.2781,27.1308],[88.2999,27.128],[88.3045,27.1286],[88.3205,27.1166],[88.3238,27.1049],[88.3408,27.1107],[88.3639,27.0984],[88.411,27.0907],[88.4463,27.0854],[88.4545,27.0896],[88.4648,27.1048],[88.4813,27.1229],[88.5075,27.136],[88.5187,27.1478],[88.5217,27.1503],[88.532,27.1543],[88.5205,27.175],[88.5208,27.1782],[88.499,27.1851],[88.4863,27.2023],[88.4898,27.2305],[88.476,27.2467],[88.4421,27.2613],[88.4377,27.2812],[88.4495,27.3154],[88.4778,27.3288],[88.481,27.3784]]]},"properties":{"NAME_1":"Sikkim","NAME_2":"South Sikkim"}},{"type":"Feature","geometry":{"type":"Polygon","coordinates":[[[88.274,27.4059],[88.2694,27.4197],[88.2608,27.4899],[88.2661,27.5037],[88.2763,27.513],[88.2361,27.535],[88.2266,27.5573],[88.2042,27.5815],[88.1169,27.614],[88.0871,27.589],[88.0635,27.5397],[88.0641,27.5118],[88.0492,27.5012],[88.0466,27.4784],[88.0813,27.4318],[88.0532,27.4126],[88.0444,27.3707],[88.0692,27.3356],[88.0552,27.3243],[88.0343,27.286],[88.0334,27.2497],[88.017,27.2189],[88.0329,27.221],[88.0582,27.2139],[88.075,27.2008],[88.0675,27.1903],[88.0833,27.165],[88.083,27.1489],[88.0927,27.1363],[88.1233,27.1238],[88.1366,27.1169],[88.1523,27.1117],[88.1584,27.1144],[88.179,27.1347],[88.1837,27.1352],[88.1956,27.1362],[88.2138,27.1351],[88.2401,27.1204],[88.2709,27.1301],[88.2781,27.1308],[88.2822,27.1511],[88.2856,27.1542],[88.3046,27.1781],[88.3148,27.1856],[88.3238,27.1876],[88.324,27.1919],[88.3295,27.1946],[88.3269,27.1988],[88.3269,27.2013],[88.3242,27.2045],[88.3181,27.2206],[88.3028,27.2262],[88.299,27.261],[88.2734,27.2817],[88.2856,27.295],[88.2909,27.2972],[88.306,27.3057],[88.3056,27.3158],[88.2953,27.3342],[88.3146,27.3461],[88.3229,27.365],[88.3255,27.3688],[88.3532,27.3784],[88.3428,27.4142],[88.3005,27.417],[88.2789,27.4053],[88.274,27.4059]]]},"properties":{"NAME_1":"Sikkim","NAME_2":"West Sikkim"}}]}