{"type":"FeatureCollection","features":[{"type":"Feature","geometry":{"type":"Polygon","coordinates":[[[79.4433,11.1347],[79.451,11.1548],[79.4662,11.1587],[79.4891,11.1888],[79.4976,11.2118],[79.48,11.2336],[79.4883,11.2428],[79.4828,11.2892],[79.445,11.3118],[79.4228,11.3191],[79.4223,11.3425],[79.3992,11.3478],[79.3792,11.3406],[79.3765,11.385],[79.3544,11.4053],[79.2987,11.4044],[79.2792,11.3983],[79.2832,11.367],[79.2457,11.375],[79.2255,11.358],[79.2143,11.3782],[79.1654,11.3603],[79.1545,11.364],[79.1478,11.355],[79.1368,11.3471],[79.1345,11.322],[79.1157,11.3066],[79.1118,11.2969],[79.1294,11.2959],[79.1264,11.2793],[79.1067,11.279],[79.0969,11.269],[79.1019,11.2573],[79.1066,11.2531],[79.1071,11.2438],[79.0956,11.2306],[79.0931,11.2186],[79.0838,11.2078],[79.0813,11.194],[79.0673,11.1904],[79.0554,11.1927],[79.0522,11.1909],[79.0628,11.175],[79.0633,11.1686],[79.0596,11.1632],[79.0596,11.1519],[79.0465,11.1302],[79.0437,11.1276],[79.0461,11.1199],[79.0496,11.116],[79.0537,11.0925],[79.0396,11.0722],[79.0172,11.0694],[79.0035,11.0516],[78.9947,11.0464],[78.993,11.0435],[78.9935,10.9939],[78.9684,10.9769],[78.9501,10.9351],[78.9837,10.9067],[78.9912,10.8759],[79.0188,10.8695],[79.0407,10.8747],[79.0675,10.9095],[79.0914,10.908],[79.1291,10.9247],[79.2051,10.9289],[79.2585,10.9743],[79.2783,10.9996],[79.297,11.0006],[79.3464,11.0346],[79.3783,11.0478],[79.3969,11.0654],[79.4151,11.1027],[79.4433,11.1347]]]},"properties":{"NAME_1":"Tamil Nadu","NAME_2":"Ariyalur"}},{"type":"Feature","geometry":{"type":"Polygon","coordinates":[[[80.2976,13.1266],[80.2292,13.1273],[80.23,13.1133],[80.1897,13.1119],[80.1801,13.0904],[80.1803,13.0689],[80.1696,13.0336],[80.1743,13.0145],[80.2013,12.9911],[80.1922,12.9643],[80.2098,12.9518],[80.2335,12.9691],[80.2624,12.9545],[80.2793,13.0251],[80.2821,13.0565],[80.3043,13.0938],[80.2976,13.1266]]]},"properties":{"NAME_1":"Tamil Nadu","NAME_2":"Chennai"}},{"type":"Feature","geometry":{"type":"Polygon","coordinates":[[[77.404,10.6157],[77.3845,10.6426],[77.3514,10.6425],[77.3398,10.682],[77.309,10.6806],[77.301,10.7396],[77.2893,10.7428],[77.2849,10.7687],[77.2633,10.7828],[77.2765,10.8033],[77.2763,10.8398],[77.3184,10.8583],[77.3649,10.8698],[77.361,10.8932],[77.3912,10.8945],[77.4092,10.9026],[77.4154,10.9209],[77.4615,10.944],[77.4758,10.9949],[77.4903,11.0142],[77.485,11.0349],[77.4627,11.0349],[77.4516,11.081],[77.4399,11.0844],[77.4385,11.1115],[77.4038,11.1174],[77.3829,11.1102],[77.3812,11.1463],[77.3929,11.189],[77.3687,11.2017],[77.3596,11.2189],[77.3759,11.2465],[77.3637,11.2791],[77.35,11.2942],[77.3354,11.2774],[77.3199,11.2456],[77.2852,11.2618],[77.2739,11.2795],[77.2688,11.3238],[77.2552,11.3085],[77.2297,11.3132],[77.2088,11.3281],[77.1653,11.33],[77.1694,11.3037],[77.1289,11.3266],[77.117,11.3549],[77.1012,11.3684],[77.0981,11.3968],[77.0583,11.373],[77.0587,11.3901],[77.0379,11.3921],[77.0051,11.359],[76.9638,11.3762],[76.9539,11.3744],[76.8984,11.3394],[76.882,11.3565],[76.8411,11.3305],[76.8526,11.2977],[76.833,11.2783],[76.7895,11.2833],[76.7797,11.269],[76.7567,11.2753],[76.7586,11.2533],[76.7236,11.2368],[76.7033,11.2497],[76.697,11.2313],[76.7265,11.2065],[76.7212,11.1845],[76.7064,11.1796],[76.686,11.1577],[76.6967,11.1327],[76.7406,11.1099],[76.7457,11.0839],[76.7345,11.0639],[76.7511,11.0468],[76.757,11.0246],[76.7121,11.0325],[76.6904,11.0175],[76.6778,10.9797],[76.6604,10.9605],[76.6528,10.92],[76.6846,10.9024],[76.7004,10.9008],[76.7327,10.881],[76.773,10.8816],[76.7853,10.8715],[76.8176,10.8618],[76.8452,10.8265],[76.8371,10.8155],[76.86,10.7998],[76.8883,10.7999],[76.8975,10.7708],[76.875,10.7067],[76.8551,10.6724],[76.8702,10.6641],[76.8726,10.6294],[76.805,10.6263],[76.8154,10.5883],[76.8297,10.5851],[76.8245,10.5376],[76.832,10.5292],[76.8203,10.4907],[76.8175,10.4385],[76.8073,10.4149],[76.8157,10.3865],[76.8393,10.3597],[76.8268,10.3303],[76.8197,10.2952],[76.8319,10.2838],[76.8621,10.2825],[76.8623,10.2671],[76.8918,10.2431],[76.9093,10.2232],[76.9278,10.2296],[76.9588,10.2187],[76.9815,10.2199],[77.0186,10.2418],[77.0386,10.2482],[77.0461,10.2743],[77.0734,10.2958],[77.1143,10.3106],[77.163,10.3463],[77.2222,10.3403],[77.2145,10.3058],[77.2505,10.2538],[77.2512,10.2244],[77.2748,10.2205],[77.3115,10.253],[77.3288,10.2513],[77.3363,10.2665],[77.3133,10.3155],[77.3221,10.3441],[77.3011,10.3457],[77.3013,10.38],[77.311,10.4404],[77.3393,10.4363],[77.3711,10.4399],[77.3695,10.4851],[77.3869,10.4888],[77.3914,10.5127],[77.3644,10.5154],[77.3555,10.5265],[77.3742,10.5857],[77.404,10.6157]]]},"properties":{"NAME_1":"Tamil Nadu","NAME_2":"Coimbatore"}},{"type":"Feature","geometry":{"type":"Polygon","coordinates":[[[79.6935,11.8539],[79.6905,11.8741],[79.6804,11.8706],[79.6732,11.87],[79.6806,11.8289],[79.6682,11.7978],[79.6212,11.7857],[79.6041,11.8076],[79.5722,11.8269],[79.553,11.8241],[79.5121,11.8419],[79.4409,11.8562],[79.4364,11.8408],[79.4674,11.8153],[79.4695,11.7931],[79.4283,11.794],[79.4199,11.7532],[79.4349,11.7478],[79.4455,11.7246],[79.4211,11.7073],[79.4208,11.6842],[79.4298,11.6501],[79.3678,11.665],[79.3219,11.6466],[79.2822,11.6207],[79.2748,11.6342],[79.2383,11.6373],[79.2244,11.6266],[79.1963,11.6208],[79.1699,11.5724],[79.1392,11.584],[79.1256,11.575],[79.0999,11.6003],[79.0721,11.6167],[79.0556,11.6164],[79.0529,11.5829],[79.0034,11.5914],[78.9922,11.5633],[78.9769,11.5581],[78.9304,11.557],[78.9088,11.5519],[78.8903,11.4896],[78.861,11.4924],[78.8753,11.4722],[78.8907,11.4613],[78.9034,11.4409],[78.9102,11.436],[78.9321,11.4049],[78.9436,11.3927],[78.95,11.3881],[78.9783,11.3913],[79.0007,11.3832],[79.0284,11.3854],[79.0405,11.3883],[79.0571,11.3877],[79.0927,11.3878],[79.1308,11.3701],[79.1429,11.3677],[79.1545,11.364],[79.1654,11.3603],[79.2143,11.3782],[79.2255,11.358],[79.2457,11.375],[79.2832,11.367],[79.2792,11.3983],[79.2987,11.4044],[79.3544,11.4053],[79.3765,11.385],[79.3792,11.3406],[79.3992,11.3478],[79.4223,11.3425],[79.4228,11.3191],[79.445,11.3118],[79.4828,11.2892],[79.4883,11.2428],[79.48,11.2336],[79.4976,11.2118],[79.4891,11.1888],[79.4662,11.1587],[79.451,11.1548],[79.4433,11.1347],[79.4852,11.1597],[79.5071,11.1663],[79.5385,11.186],[79.5827,11.2028],[79.5965,11.2351],[79.6163,11.2309],[79.6328,11.246],[79.6275,11.268],[79.6409,11.2876],[79.6539,11.2897],[79.6815,11.3063],[79.7179,11.3345],[79.7443,11.3363],[79.7425,11.3569],[79.7623,11.3621],[79.7744,11.3562],[79.7889,11.3674],[79.7938,11.3945],[79.7996,11.4083],[79.814,11.4191],[79.8074,11.4446],[79.7732,11.5079],[79.7588,11.5521],[79.7613,11.621],[79.7771,11.7096],[79.794,11.7679],[79.8004,11.8084],[79.794,11.8156],[79.793,11.8176],[79.7918,11.827],[79.7879,11.8351],[79.7818,11.8403],[79.7671,11.8405],[79.7581,11.8221],[79.7487,11.8358],[79.7516,11.8417],[79.7498,11.8605],[79.7384,11.835],[79.7303,11.8469],[79.7067,11.8471],[79.6977,11.8524],[79.6935,11.8539]]]},"properties":{"NAME_1":"Tamil Nadu","NAME_2":"Cuddalore"}},{"type":"Feature","geometry":{"type":"Polygon","coordinates":[[[78.2206,12.7526],[78.1662,12.765],[78.1581,12.7602],[78.1207,12.77],[78.1145,12.7871],[78.0865,12.8033],[78.0646,12.8302],[78.0222,12.8412],[77.9933,12.8137],[77.9813,12.8104],[77.958,12.8363],[77.9399,12.8293],[77.933,12.8129],[77.9092,12.822],[77.9153,12.8443],[77.9278,12.8505],[77.9144,12.8735],[77.8588,12.8576],[77.8256,12.859],[77.8221,12.8498],[77.7836,12.8283],[77.801,12.8208],[77.7879,12.7813],[77.7716,12.7598],[77.785,12.7451],[77.7584,12.7293],[77.763,12.7145],[77.7502,12.6872],[77.7038,12.6737],[77.6955,12.6512],[77.6678,12.6506],[77.6703,12.6712],[77.6543,12.6742],[77.5903,12.6575],[77.5893,12.6483],[77.5978,12.621],[77.5821,12.6051],[77.5815,12.5842],[77.5701,12.5579],[77.5785,12.507],[77.6018,12.4917],[77.5966,12.4646],[77.6252,12.4773],[77.6158,12.4049],[77.6038,12.3538],[77.5686,12.3242],[77.5561,12.2972],[77.5183,12.2695],[77.4932,12.2728],[77.4702,12.2619],[77.463,12.2358],[77.4737,12.2249],[77.4657,12.2023],[77.4825,12.1901],[77.5113,12.184],[77.5385,12.1945],[77.5558,12.1871],[77.6041,12.1952],[77.6289,12.1863],[77.6554,12.1877],[77.7264,12.1673],[77.7391,12.1479],[77.7402,12.1293],[77.767,12.1091],[77.7461,12.0693],[77.7204,12.0534],[77.6895,12.0099],[77.6637,11.953],[77.6647,11.9397],[77.6818,11.9298],[77.7268,11.9272],[77.7508,11.9017],[77.7979,11.8983],[77.8351,11.883],[77.8547,11.9031],[77.8935,11.8898],[77.9481,11.8875],[77.9617,11.8823],[77.995,11.9],[78.0166,11.9047],[78.0242,11.9175],[78.0584,11.9222],[78.0869,11.9371],[78.1336,11.9519],[78.161,11.952],[78.2228,11.9642],[78.2437,11.9242],[78.2877,11.9048],[78.3084,11.9161],[78.3286,11.8811],[78.3411,11.8948],[78.3548,11.8654],[78.3432,11.8485],[78.3382,11.8224],[78.3172,11.7843],[78.3424,11.7813],[78.3684,11.8126],[78.3906,11.8587],[78.4038,11.8644],[78.4211,11.8476],[78.4409,11.8125],[78.4639,11.8011],[78.5097,11.798],[78.529,11.7888],[78.5825,11.8068],[78.5949,11.8339],[78.6134,11.8518],[78.6279,11.87],[78.6747,11.886],[78.6928,11.8785],[78.7108,11.9034],[78.6918,11.9219],[78.704,11.9679],[78.6851,11.9765],[78.6922,12.0148],[78.713,12.0794],[78.734,12.1135],[78.7274,12.1221],[78.6786,12.1015],[78.6535,12.1011],[78.6234,12.1316],[78.6364,12.15],[78.6217,12.1644],[78.6316,12.1924],[78.6571,12.197],[78.6568,12.218],[78.6399,12.2272],[78.6394,12.2463],[78.6281,12.2542],[78.5943,12.2515],[78.602,12.2825],[78.5884,12.3115],[78.6046,12.326],[78.6006,12.3397],[78.5798,12.3457],[78.5578,12.3742],[78.5037,12.3934],[78.4807,12.3928],[78.4778,12.3756],[78.4476,12.3731],[78.4244,12.3854],[78.4428,12.4181],[78.4389,12.4386],[78.4218,12.4508],[78.4053,12.4752],[78.403,12.5154],[78.4087,12.5572],[78.3962,12.5905],[78.3975,12.6136],[78.3683,12.6118],[78.3088,12.65],[78.2905,12.6529],[78.2644,12.6918],[78.2274,12.6893],[78.2281,12.6739],[78.2001,12.6756],[78.1947,12.6953],[78.2203,12.7033],[78.2289,12.7202],[78.2206,12.7526]]]},"properties":{"NAME_1":"Tamil Nadu","NAME_2":"Dharmapuri"}},{"type":"Feature","geometry":{"type":"Polygon","coordinates":[[[78.1824,10.5352],[78.1552,10.5423],[78.1183,10.5618],[78.1231,10.5881],[78.1506,10.6024],[78.1491,10.6376],[78.1311,10.6402],[78.1401,10.7327],[78.1537,10.7652],[78.1581,10.7909],[78.1715,10.808],[78.1438,10.82],[78.1345,10.7938],[78.0916,10.7938],[78.0824,10.7756],[78.0832,10.7534],[78.0526,10.7552],[78.0193,10.7692],[77.9853,10.7618],[77.9806,10.7515],[77.9484,10.7493],[77.9251,10.7548],[77.9177,10.724],[77.9371,10.7307],[77.9827,10.7304],[77.9984,10.7169],[77.9926,10.6629],[77.9587,10.6617],[77.9647,10.6269],[77.9378,10.626],[77.9148,10.6352],[77.8821,10.6334],[77.8585,10.62],[77.8343,10.6284],[77.8164,10.6211],[77.8007,10.6391],[77.7948,10.6686],[77.7747,10.674],[77.7535,10.6683],[77.7381,10.6532],[77.7415,10.6395],[77.7154,10.6196],[77.6872,10.6483],[77.6956,10.6768],[77.6881,10.7198],[77.6506,10.7046],[77.6419,10.6635],[77.626,10.6575],[77.5828,10.6648],[77.5714,10.6723],[77.5585,10.6474],[77.5347,10.6245],[77.5298,10.6021],[77.4959,10.5957],[77.4878,10.6325],[77.468,10.6394],[77.4416,10.6304],[77.4336,10.619],[77.404,10.6157],[77.3742,10.5857],[77.3555,10.5265],[77.3644,10.5154],[77.3914,10.5127],[77.3869,10.4888],[77.3695,10.4851],[77.3711,10.4399],[77.3393,10.4363],[77.311,10.4404],[77.3013,10.38],[77.3011,10.3457],[77.3221,10.3441],[77.3133,10.3155],[77.3363,10.2665],[77.3288,10.2513],[77.3115,10.253],[77.2748,10.2205],[77.2804,10.2073],[77.2644,10.1797],[77.261,10.1287],[77.2533,10.1114],[77.2691,10.1069],[77.2897,10.1258],[77.3104,10.1158],[77.3473,10.1376],[77.3573,10.127],[77.3799,10.1493],[77.3963,10.1333],[77.4222,10.1209],[77.4498,10.1179],[77.5317,10.1758],[77.5535,10.1696],[77.5868,10.1887],[77.5965,10.2018],[77.6212,10.196],[77.6433,10.179],[77.655,10.1856],[77.6855,10.1799],[77.7072,10.1508],[77.7012,10.1185],[77.6581,10.1341],[77.6595,10.1063],[77.685,10.0925],[77.6939,10.0683],[77.6952,10.01],[77.7264,10.0239],[77.7483,10.045],[77.7663,10.0393],[77.7866,10.0539],[77.8387,10.0646],[77.8606,10.0484],[77.9037,10.0722],[77.9227,10.0753],[77.921,10.0959],[77.9367,10.1293],[77.9586,10.1202],[77.9839,10.148],[78.0029,10.1486],[78.0143,10.1682],[78.0557,10.1673],[78.1052,10.1776],[78.1333,10.1631],[78.147,10.1288],[78.1438,10.0992],[78.162,10.0807],[78.1992,10.0635],[78.2428,10.0738],[78.2561,10.1183],[78.2673,10.1364],[78.2493,10.1634],[78.2833,10.184],[78.3122,10.2139],[78.3117,10.2725],[78.3175,10.288],[78.3212,10.3138],[78.3016,10.3363],[78.2652,10.3581],[78.2725,10.3893],[78.2904,10.3967],[78.2988,10.4265],[78.2807,10.4373],[78.1921,10.4605],[78.1748,10.485],[78.1561,10.4904],[78.1824,10.5352]]]},"properties":{"NAME_1":"Tamil Nadu","NAME_2":"Dindigul"}},{"type":"Feature","geometry":{"type":"Polygon","coordinates":[[[77.6647,11.9397],[77.6367,11.9403],[77.5733,11.924],[77.548,11.9307],[77.5237,11.9215],[77.4904,11.9297],[77.476,11.8896],[77.4539,11.8906],[77.4563,11.8391],[77.4311,11.7717],[77.4125,11.7623],[77.3819,11.7762],[77.3552,11.7784],[77.3457,11.7641],[77.3261,11.7589],[77.2848,11.7984],[77.2783,11.7897],[77.2417,11.8025],[77.2271,11.7837],[77.1897,11.7828],[77.1372,11.772],[77.1139,11.7618],[77.0963,11.7231],[77.0759,11.7239],[77.0501,11.7577],[77.0413,11.7776],[77.0044,11.803],[76.9748,11.791],[76.9596,11.7652],[76.9444,11.7813],[76.8997,11.7833],[76.888,11.7659],[76.8809,11.7246],[76.8536,11.6988],[76.83,11.649],[76.8297,11.6293],[76.8509,11.6018],[76.8373,11.5745],[76.8801,11.562],[76.9307,11.5678],[76.9634,11.5558],[76.9972,11.5353],[77.0008,11.5063],[76.9867,11.5004],[76.9836,11.47],[77.0039,11.4423],[77.0019,11.425],[76.974,11.4295],[76.9736,11.3918],[76.9539,11.3744],[76.9638,11.3762],[77.0051,11.359],[77.0379,11.3921],[77.0587,11.3901],[77.0583,11.373],[77.0981,11.3968],[77.1012,11.3684],[77.117,11.3549],[77.1289,11.3266],[77.1694,11.3037],[77.1653,11.33],[77.2088,11.3281],[77.2297,11.3132],[77.2552,11.3085],[77.2688,11.3238],[77.2739,11.2795],[77.2852,11.2618],[77.3199,11.2456],[77.3354,11.2774],[77.35,11.2942],[77.3637,11.2791],[77.3759,11.2465],[77.3596,11.2189],[77.3687,11.2017],[77.3929,11.189],[77.3812,11.1463],[77.3829,11.1102],[77.4038,11.1174],[77.4385,11.1115],[77.4399,11.0844],[77.4516,11.081],[77.4627,11.0349],[77.485,11.0349],[77.4903,11.0142],[77.4758,10.9949],[77.4615,10.944],[77.4154,10.9209],[77.4092,10.9026],[77.3912,10.8945],[77.361,10.8932],[77.3649,10.8698],[77.3184,10.8583],[77.2763,10.8398],[77.2765,10.8033],[77.2633,10.7828],[77.2849,10.7687],[77.2893,10.7428],[77.301,10.7396],[77.309,10.6806],[77.3398,10.682],[77.3514,10.6425],[77.3845,10.6426],[77.404,10.6157],[77.4336,10.619],[77.4416,10.6304],[77.468,10.6394],[77.4878,10.6325],[77.4959,10.5957],[77.5298,10.6021],[77.5347,10.6245],[77.5585,10.6474],[77.5714,10.6723],[77.5828,10.6648],[77.626,10.6575],[77.6419,10.6635],[77.6506,10.7046],[77.6881,10.7198],[77.6956,10.6768],[77.6872,10.6483],[77.7154,10.6196],[77.7415,10.6395],[77.7381,10.6532],[77.7535,10.6683],[77.7747,10.674],[77.7948,10.6686],[77.7939,10.6833],[77.8099,10.7044],[77.8103,10.7399],[77.7699,10.7452],[77.7545,10.7552],[77.7623,10.7787],[77.7789,10.7782],[77.7868,10.7945],[77.8218,10.774],[77.8762,10.7626],[77.8529,10.7871],[77.8602,10.7966],[77.8547,10.8288],[77.8451,10.8364],[77.8248,10.8219],[77.7785,10.8669],[77.7466,10.8893],[77.7555,10.9447],[77.7363,10.9644],[77.7657,10.984],[77.7774,11.0199],[77.766,11.05],[77.8115,11.05],[77.8527,11.011],[77.8854,11.0201],[77.9043,11.0338],[77.9185,11.0568],[77.8888,11.0608],[77.8755,11.0715],[77.8691,11.1089],[77.8702,11.1464],[77.8492,11.1712],[77.8585,11.2012],[77.8491,11.2341],[77.8291,11.247],[77.7954,11.2545],[77.7477,11.3201],[77.7399,11.3404],[77.7094,11.3623],[77.6711,11.4094],[77.6839,11.4484],[77.6894,11.4692],[77.7213,11.5009],[77.7138,11.5185],[77.735,11.5541],[77.7273,11.592],[77.75,11.6355],[77.7381,11.6487],[77.6912,11.621],[77.6791,11.6492],[77.6874,11.679],[77.6808,11.7067],[77.7109,11.7823],[77.6989,11.7973],[77.6574,11.8113],[77.6487,11.8353],[77.6517,11.8655],[77.6737,11.8648],[77.6647,11.9397]]]},"properties":{"NAME_1":"Tamil Nadu","NAME_2":"Erode"}},{"type":"Feature","geometry":{"type":"Polygon","coordinates":[[[80.1743,13.0145],[80.1338,13.0163],[80.134,13.0273],[80.1103,13.0463],[80.1122,13.0939],[80.0985,13.1184],[80.0655,13.1289],[80.0164,13.1165],[80.0004,13.118],[79.9992,13.0939],[79.974,13.0778],[79.966,13.0519],[79.9839,13.0383],[79.9774,13.0178],[79.9571,13.0339],[79.932,13.0199],[79.8839,13.0211],[79.8909,13.0015],[79.9295,12.9934],[79.9151,12.9772],[79.8986,12.9897],[79.8869,12.9747],[79.9025,12.9635],[79.8812,12.933],[79.8393,12.9367],[79.8107,12.95],[79.8063,12.987],[79.7853,13.0134],[79.7725,13.009],[79.7476,12.9973],[79.7218,12.9719],[79.6776,12.9544],[79.6478,12.9353],[79.649,12.9166],[79.6087,12.8993],[79.56,12.8866],[79.5466,12.8608],[79.5473,12.8367],[79.5749,12.8207],[79.6267,12.8032],[79.6261,12.7722],[79.6361,12.7604],[79.6595,12.7642],[79.6653,12.7777],[79.6892,12.7624],[79.6984,12.7447],[79.733,12.7294],[79.7237,12.6863],[79.7316,12.6801],[79.6707,12.6542],[79.635,12.6544],[79.6201,12.6177],[79.632,12.5966],[79.6569,12.5788],[79.6782,12.5869],[79.712,12.5741],[79.7035,12.5354],[79.7428,12.5044],[79.7245,12.4399],[79.7217,12.414],[79.7033,12.4221],[79.6915,12.3996],[79.6495,12.3689],[79.6491,12.3514],[79.6306,12.3315],[79.6351,12.3293],[79.6372,12.3204],[79.6556,12.3062],[79.6821,12.3104],[79.6876,12.3163],[79.7138,12.3161],[79.7382,12.3105],[79.7465,12.3133],[79.7578,12.3186],[79.7849,12.3222],[79.8285,12.2749],[79.8562,12.23],[79.8896,12.2143],[79.9115,12.2321],[79.9451,12.2187],[79.9458,12.219],[79.9463,12.2191],[80.0135,12.2635],[80.0499,12.3243],[80.036,12.3376],[80.0443,12.3638],[80.0701,12.3526],[80.1162,12.4054],[80.1574,12.4712],[80.1657,12.5249],[80.1988,12.6151],[80.254,12.779],[80.2468,12.8062],[80.2496,12.8601],[80.2624,12.9545],[80.2335,12.9691],[80.2098,12.9518],[80.1922,12.9643],[80.2013,12.9911],[80.1743,13.0145]]]},"properties":{"NAME_1":"Tamil Nadu","NAME_2":"Kancheepuram"}},{"type":"Feature","geometry":{"type":"Polygon","coordinates":[[[77.2515,8.571],[77.2652,8.5374],[77.2475,8.5014],[77.2226,8.4883],[77.2064,8.5044],[77.1909,8.4882],[77.2095,8.4377],[77.1887,8.4347],[77.1798,8.4091],[77.1537,8.3774],[77.1348,8.3785],[77.1568,8.3452],[77.1498,8.3219],[77.1219,8.3229],[77.1047,8.3016],[77.0907,8.2975],[77.161,8.246],[77.184,8.2199],[77.2157,8.2021],[77.2476,8.1726],[77.2965,8.1496],[77.306,8.1285],[77.3504,8.1229],[77.4104,8.1038],[77.5362,8.0782],[77.5599,8.0904],[77.5593,8.1196],[77.5751,8.1343],[77.5626,8.1465],[77.5306,8.1495],[77.5184,8.1671],[77.5321,8.1841],[77.5236,8.1999],[77.529,8.2142],[77.5403,8.2366],[77.5529,8.2402],[77.5423,8.2564],[77.5438,8.2626],[77.5355,8.2684],[77.5295,8.2923],[77.5127,8.3137],[77.5138,8.327],[77.5204,8.339],[77.5166,8.3499],[77.5193,8.3786],[77.4727,8.3715],[77.4547,8.3915],[77.4451,8.4194],[77.4525,8.4472],[77.4434,8.4593],[77.4295,8.4791],[77.428,8.4843],[77.4228,8.4949],[77.4055,8.5043],[77.3704,8.5138],[77.3669,8.512],[77.3586,8.5094],[77.344,8.5329],[77.3354,8.5332],[77.3202,8.5434],[77.2685,8.5599],[77.2515,8.571]]]},"properties":{"NAME_1":"Tamil Nadu","NAME_2":"Kanniyakumari"}},{"type":"Feature","geometry":{"type":"Polygon","coordinates":[[[78.154,10.9997],[78.1309,11.0266],[78.0922,11.0578],[78.0625,11.066],[78.0426,11.0632],[78.0134,11.0804],[77.9727,11.0789],[77.9368,11.054],[77.9185,11.0568],[77.9043,11.0338],[77.8854,11.0201],[77.8527,11.011],[77.8115,11.05],[77.766,11.05],[77.7774,11.0199],[77.7657,10.984],[77.7363,10.9644],[77.7555,10.9447],[77.7466,10.8893],[77.7785,10.8669],[77.8248,10.8219],[77.8451,10.8364],[77.8547,10.8288],[77.8602,10.7966],[77.8529,10.7871],[77.8762,10.7626],[77.8218,10.774],[77.7868,10.7945],[77.7789,10.7782],[77.7623,10.7787],[77.7545,10.7552],[77.7699,10.7452],[77.8103,10.7399],[77.8099,10.7044],[77.7939,10.6833],[77.7948,10.6686],[77.8007,10.6391],[77.8164,10.6211],[77.8343,10.6284],[77.8585,10.62],[77.8821,10.6334],[77.9148,10.6352],[77.9378,10.626],[77.9647,10.6269],[77.9587,10.6617],[77.9926,10.6629],[77.9984,10.7169],[77.9827,10.7304],[77.9371,10.7307],[77.9177,10.724],[77.9251,10.7548],[77.9484,10.7493],[77.9806,10.7515],[77.9853,10.7618],[78.0193,10.7692],[78.0526,10.7552],[78.0832,10.7534],[78.0824,10.7756],[78.0916,10.7938],[78.1345,10.7938],[78.1438,10.82],[78.1715,10.808],[78.1581,10.7909],[78.1537,10.7652],[78.1401,10.7327],[78.1311,10.6402],[78.1491,10.6376],[78.1506,10.6024],[78.1231,10.5881],[78.1183,10.5618],[78.1552,10.5423],[78.1824,10.5352],[78.2303,10.546],[78.2453,10.5688],[78.2408,10.5941],[78.2486,10.6031],[78.2675,10.7327],[78.2772,10.7172],[78.2787,10.6907],[78.3251,10.6941],[78.3311,10.7087],[78.3621,10.7133],[78.3876,10.6801],[78.4117,10.6641],[78.4168,10.6802],[78.4424,10.677],[78.4582,10.6917],[78.4981,10.68],[78.5104,10.696],[78.5514,10.7244],[78.5482,10.7545],[78.5299,10.7798],[78.5384,10.7995],[78.5609,10.7959],[78.5714,10.8168],[78.5616,10.8381],[78.5335,10.8634],[78.4736,10.8802],[78.4621,10.896],[78.4115,10.9347],[78.3673,10.9528],[78.3137,10.9468],[78.2636,10.9546],[78.1844,10.9478],[78.1532,10.989],[78.154,10.9997]]]},"properties":{"NAME_1":"Tamil Nadu","NAME_2":"Karur"}},{"type":"Feature","geometry":{"type":"Polygon","coordinates":[[[78.364,10.2971],[78.3483,10.2809],[78.3175,10.288],[78.3117,10.2725],[78.3122,10.2139],[78.2833,10.184],[78.2493,10.1634],[78.2673,10.1364],[78.2561,10.1183],[78.2428,10.0738],[78.1992,10.0635],[78.162,10.0807],[78.1438,10.0992],[78.147,10.1288],[78.1333,10.1631],[78.1052,10.1776],[78.0557,10.1673],[78.0143,10.1682],[78.0029,10.1486],[77.9839,10.148],[77.9586,10.1202],[77.9367,10.1293],[77.921,10.0959],[77.9227,10.0753],[77.9037,10.0722],[77.8606,10.0484],[77.8387,10.0646],[77.7866,10.0539],[77.7663,10.0393],[77.7483,10.045],[77.7264,10.0239],[77.6952,10.01],[77.6824,10.0027],[77.6773,9.9575],[77.659,9.9445],[77.6647,9.9242],[77.6337,9.8807],[77.6066,9.8534],[77.6024,9.8277],[77.6086,9.8125],[77.5841,9.7668],[77.5533,9.738],[77.5097,9.651],[77.4888,9.6398],[77.4896,9.6267],[77.448,9.5693],[77.462,9.5531],[77.4825,9.567],[77.5001,9.6024],[77.504,9.6285],[77.5702,9.6561],[77.5949,9.6879],[77.6277,9.6953],[77.6527,9.6666],[77.6794,9.6821],[77.7086,9.6829],[77.7483,9.6695],[77.7592,9.63],[77.7901,9.6315],[77.8266,9.6249],[77.8304,9.6397],[77.8742,9.6312],[77.8848,9.6139],[77.9082,9.6354],[77.9469,9.6343],[77.9578,9.6194],[77.9859,9.6379],[77.9979,9.6282],[78.0235,9.6653],[78.061,9.6486],[78.0714,9.6642],[78.0634,9.6944],[78.046,9.7297],[78.0678,9.7477],[78.0734,9.7653],[78.092,9.7736],[78.1102,9.7582],[78.1283,9.7721],[78.1259,9.7945],[78.1535,9.7863],[78.1757,9.7953],[78.1555,9.8169],[78.1222,9.7993],[78.1101,9.8317],[78.1382,9.8615],[78.1628,9.8552],[78.1865,9.8631],[78.2302,9.8466],[78.2361,9.8606],[78.2958,9.8532],[78.302,9.9111],[78.3228,9.9234],[78.3558,9.9206],[78.3601,9.9506],[78.3768,9.9406],[78.4405,9.9556],[78.4446,9.9983],[78.4118,10.0399],[78.4343,10.048],[78.4405,10.088],[78.435,10.1066],[78.4168,10.1223],[78.3868,10.1248],[78.3979,10.1469],[78.3792,10.1657],[78.3958,10.2004],[78.3817,10.2135],[78.3793,10.234],[78.4066,10.2446],[78.3876,10.2632],[78.3714,10.2572],[78.364,10.2971]]]},"properties":{"NAME_1":"Tamil Nadu","NAME_2":"Madurai"}},{"type":"Feature","geometry":{"type":"MultiPolygon","coordinates":[[[[79.7196,10.9058],[79.7208,10.9107],[79.7086,10.9142],[79.6774,10.9046],[79.6508,10.8647],[79.6419,10.8227],[79.6629,10.8001],[79.6799,10.8157],[79.7104,10.8123],[79.7101,10.7962],[79.7593,10.8014],[79.7965,10.793],[79.7581,10.7502],[79.7439,10.7244],[79.7422,10.6973],[79.7506,10.6712],[79.7188,10.6492],[79.7364,10.6402],[79.7152,10.6231],[79.6914,10.6188],[79.6874,10.6121],[79.6946,10.6072],[79.687,10.5966],[79.6923,10.5821],[79.7087,10.5725],[79.7194,10.572],[79.7194,10.5173],[79.7017,10.4863],[79.6729,10.4664],[79.6486,10.442],[79.6486,10.3513],[79.637,10.3182],[79.6871,10.3254],[79.7301,10.311],[79.7613,10.3132],[79.7637,10.301],[79.7443,10.2749],[79.796,10.2729],[79.8357,10.2754],[79.8671,10.2863],[79.884,10.306],[79.8715,10.3682],[79.866,10.4163],[79.8599,10.5501],[79.8562,10.5871],[79.851,10.7607],[79.8512,10.8138],[79.8357,10.8117],[79.8198,10.8111],[79.8133,10.8141],[79.8137,10.8184],[79.8133,10.8287],[79.8059,10.828],[79.8031,10.8337],[79.7931,10.8395],[79.7923,10.8488],[79.8075,10.8527],[79.7896,10.8618],[79.8056,10.8637],[79.7883,10.8729],[79.7756,10.8758],[79.7701,10.878],[79.7764,10.8817],[79.7732,10.8896],[79.7605,10.8832],[79.7542,10.8867],[79.7479,10.8952],[79.7414,10.8833],[79.7418,10.8944],[79.743,10.8994],[79.7284,10.9023],[79.7259,10.9069],[79.7239,10.908],[79.7196,10.9058]]],[[[79.814,11.4191],[79.7996,11.4083],[79.7938,11.3945],[79.7889,11.3674],[79.7744,11.3562],[79.7623,11.3621],[79.7425,11.3569],[79.7443,11.3363],[79.7179,11.3345],[79.6815,11.3063],[79.6539,11.2897],[79.6409,11.2876],[79.6275,11.268],[79.6328,11.246],[79.6163,11.2309],[79.5965,11.2351],[79.5827,11.2028],[79.5385,11.186],[79.5071,11.1663],[79.5215,11.1628],[79.529,11.1436],[79.5574,11.1304],[79.5297,11.0924],[79.5206,11.0523],[79.4987,11.0254],[79.5185,10.9938],[79.4956,10.9717],[79.4981,10.9531],[79.5357,10.9508],[79.5418,10.9587],[79.6145,10.9703],[79.6259,10.9926],[79.6623,11.0006],[79.6862,10.9981],[79.7176,10.9798],[79.7299,10.9814],[79.7302,10.9851],[79.7431,10.9851],[79.7605,10.9806],[79.7744,10.9772],[79.7896,10.9734],[79.7964,10.9831],[79.8026,10.9849],[79.8098,10.9821],[79.812,10.983],[79.8139,10.9871],[79.8249,10.9848],[79.8345,10.9768],[79.8354,10.9766],[79.8506,10.9758],[79.8551,10.9776],[79.859,11.1399],[79.8493,11.2332],[79.8393,11.2829],[79.8388,11.3482],[79.8293,11.3546],[79.814,11.4191]]]]},"properties":{"NAME_1":"Tamil Nadu","NAME_2":"Nagapattinam"}},{"type":"Feature","geometry":{"type":"Polygon","coordinates":[[[78.4722,11.3913],[78.4314,11.3862],[78.4303,11.4379],[78.4138,11.4535],[78.4273,11.4819],[78.4496,11.4822],[78.4582,11.5038],[78.4402,11.5268],[78.4384,11.5817],[78.3733,11.5709],[78.3541,11.5627],[78.3179,11.5188],[78.3155,11.544],[78.2957,11.55],[78.2919,11.574],[78.2599,11.5641],[78.2535,11.5452],[78.2322,11.5405],[78.1941,11.5497],[78.189,11.5383],[78.1548,11.5342],[78.1461,11.5243],[78.1074,11.5255],[78.0908,11.5419],[78.064,11.5275],[78.0449,11.5009],[78.0055,11.5166],[77.9896,11.5099],[77.9689,11.5158],[77.9593,11.4551],[77.9356,11.4582],[77.9273,11.4468],[77.8999,11.44],[77.8993,11.4198],[77.8607,11.3984],[77.8096,11.4339],[77.8176,11.4543],[77.7829,11.4528],[77.7573,11.4687],[77.7467,11.4389],[77.7268,11.4311],[77.6976,11.4532],[77.6839,11.4484],[77.6711,11.4094],[77.7094,11.3623],[77.7399,11.3404],[77.7477,11.3201],[77.7954,11.2545],[77.8291,11.247],[77.8491,11.2341],[77.8585,11.2012],[77.8492,11.1712],[77.8702,11.1464],[77.8691,11.1089],[77.8755,11.0715],[77.8888,11.0608],[77.9185,11.0568],[77.9368,11.054],[77.9727,11.0789],[78.0134,11.0804],[78.0426,11.0632],[78.0625,11.066],[78.0922,11.0578],[78.1309,11.0266],[78.154,10.9997],[78.1808,11.0099],[78.1699,11.0281],[78.1504,11.032],[78.1685,11.0557],[78.1892,11.0604],[78.222,11.0542],[78.2153,11.0818],[78.2338,11.0794],[78.2501,11.0556],[78.2605,11.0649],[78.3093,11.0447],[78.3141,11.0185],[78.33,11.0128],[78.3479,11.0509],[78.3114,11.086],[78.3286,11.0995],[78.3348,11.1234],[78.3677,11.1267],[78.3669,11.1751],[78.3947,11.1836],[78.4519,11.299],[78.4376,11.3159],[78.4564,11.3729],[78.4722,11.3913]]]},"properties":{"NAME_1":"Tamil Nadu","NAME_2":"Namakkal"}},{"type":"Feature","geometry":{"type":"Polygon","coordinates":[[[76.8373,11.5745],[76.8165,11.5972],[76.7514,11.6067],[76.6257,11.6038],[76.6079,11.6004],[76.5536,11.6129],[76.5404,11.6705],[76.5042,11.698],[76.4737,11.6781],[76.4514,11.6551],[76.4235,11.6593],[76.4342,11.6335],[76.4213,11.6251],[76.3801,11.6224],[76.3707,11.5935],[76.3356,11.5783],[76.3286,11.5886],[76.2979,11.5643],[76.2906,11.5806],[76.271,11.5929],[76.2257,11.5644],[76.243,11.5242],[76.2332,11.5187],[76.2579,11.4732],[76.2781,11.4745],[76.3209,11.4447],[76.3337,11.4587],[76.3615,11.448],[76.4082,11.4148],[76.4484,11.3814],[76.5101,11.3612],[76.5095,11.3466],[76.5382,11.3516],[76.5398,11.321],[76.5135,11.262],[76.4464,11.2305],[76.438,11.1945],[76.4527,11.1802],[76.4659,11.1987],[76.506,11.202],[76.5212,11.1903],[76.5778,11.1968],[76.6021,11.1955],[76.623,11.1857],[76.697,11.2313],[76.7033,11.2497],[76.7236,11.2368],[76.7586,11.2533],[76.7567,11.2753],[76.7797,11.269],[76.7895,11.2833],[76.833,11.2783],[76.8526,11.2977],[76.8411,11.3305],[76.882,11.3565],[76.8984,11.3394],[76.9539,11.3744],[76.9736,11.3918],[76.974,11.4295],[77.0019,11.425],[77.0039,11.4423],[76.9836,11.47],[76.9867,11.5004],[77.0008,11.5063],[76.9972,11.5353],[76.9634,11.5558],[76.9307,11.5678],[76.8801,11.562],[76.8373,11.5745]]]},"properties":{"NAME_1":"Tamil Nadu","NAME_2":"Nilgiris"}},{"type":"Feature","geometry":{"type":"Polygon","coordinates":[[[78.8753,11.4722],[78.8581,11.4949],[78.853,11.5017],[78.8442,11.5064],[78.8303,11.507],[78.8231,11.5017],[78.7966,11.4914],[78.795,11.4685],[78.7831,11.4612],[78.7818,11.436],[78.8032,11.4243],[78.8015,11.4176],[78.7974,11.3981],[78.7947,11.3926],[78.7838,11.3707],[78.775,11.3726],[78.7713,11.3772],[78.7582,11.3943],[78.7561,11.4026],[78.7428,11.4211],[78.7287,11.4308],[78.6855,11.4412],[78.6735,11.4199],[78.6371,11.4074],[78.6367,11.3922],[78.6431,11.3825],[78.6453,11.3654],[78.6736,11.3672],[78.6604,11.3541],[78.6451,11.3416],[78.6431,11.3377],[78.6365,11.3301],[78.6309,11.3238],[78.6225,11.3155],[78.6396,11.3186],[78.646,11.3083],[78.6717,11.307],[78.6943,11.3103],[78.7179,11.3086],[78.7213,11.3056],[78.7238,11.2814],[78.7347,11.2682],[78.7314,11.2667],[78.715,11.253],[78.7051,11.2434],[78.7002,11.2393],[78.6978,11.2254],[78.6951,11.2209],[78.6986,11.1994],[78.6748,11.1802],[78.6587,11.172],[78.6455,11.1579],[78.6619,11.134],[78.6653,11.1226],[78.6696,11.115],[78.672,11.1007],[78.6798,11.079],[78.6859,11.0581],[78.6937,11.0511],[78.7029,11.0393],[78.7049,11.0605],[78.7234,11.0742],[78.722,11.0949],[78.7364,11.104],[78.7622,11.1042],[78.7632,11.1001],[78.7667,11.1035],[78.7805,11.1016],[78.7862,11.1019],[78.7955,11.0915],[78.7933,11.0669],[78.8131,11.0652],[78.8171,11.0636],[78.8294,11.0713],[78.8456,11.0769],[78.8568,11.073],[78.8687,11.0879],[78.8736,11.0886],[78.899,11.0844],[78.9113,11.0767],[78.9366,11.0811],[78.9505,11.0811],[78.9716,11.0621],[78.9756,11.0622],[78.986,11.0558],[78.9947,11.0464],[79.0035,11.0516],[79.0172,11.0694],[79.0396,11.0722],[79.0537,11.0925],[79.0496,11.116],[79.0461,11.1199],[79.0437,11.1276],[79.0465,11.1302],[79.0596,11.1519],[79.0596,11.1632],[79.0633,11.1686],[79.0628,11.175],[79.0522,11.1909],[79.0554,11.1927],[79.0673,11.1904],[79.0813,11.194],[79.0838,11.2078],[79.0931,11.2186],[79.0956,11.2306],[79.1071,11.2438],[79.1066,11.2531],[79.1019,11.2573],[79.0969,11.269],[79.1067,11.279],[79.1264,11.2793],[79.1294,11.2959],[79.1118,11.2969],[79.1157,11.3066],[79.1345,11.322],[79.1368,11.3471],[79.1478,11.355],[79.1545,11.364],[79.1429,11.3677],[79.1308,11.3701],[79.0927,11.3878],[79.0571,11.3877],[79.0405,11.3883],[79.0284,11.3854],[79.0007,11.3832],[78.9783,11.3913],[78.95,11.3881],[78.9436,11.3927],[78.9321,11.4049],[78.9102,11.436],[78.9034,11.4409],[78.8907,11.4613],[78.8753,11.4722]]]},"properties":{"NAME_1":"Tamil Nadu","NAME_2":"Perambalur"}},{"type":"Feature","geometry":{"type":"Polygon","coordinates":[[[78.8549,10.6928],[78.8563,10.6745],[78.8044,10.6801],[78.7733,10.6337],[78.7447,10.6388],[78.7282,10.6336],[78.7203,10.6574],[78.7302,10.6739],[78.7262,10.6951],[78.7079,10.7],[78.6921,10.7169],[78.6722,10.714],[78.6788,10.6839],[78.6668,10.6562],[78.638,10.6433],[78.6433,10.6904],[78.6135,10.6917],[78.5795,10.6441],[78.5513,10.6475],[78.5535,10.6665],[78.5097,10.6609],[78.5033,10.6381],[78.5123,10.615],[78.4652,10.6243],[78.4348,10.5929],[78.4485,10.5616],[78.4485,10.53],[78.4666,10.5271],[78.4807,10.4951],[78.482,10.472],[78.5131,10.4733],[78.5268,10.4944],[78.5524,10.5021],[78.5543,10.475],[78.5727,10.461],[78.5715,10.4433],[78.5455,10.4182],[78.5082,10.4236],[78.5012,10.3934],[78.5101,10.3685],[78.491,10.3626],[78.4806,10.3399],[78.5056,10.3135],[78.4978,10.2528],[78.4373,10.2531],[78.4337,10.2328],[78.4601,10.2332],[78.4722,10.2201],[78.4555,10.1911],[78.4716,10.1769],[78.4905,10.1748],[78.4987,10.2109],[78.5198,10.2408],[78.5371,10.2346],[78.5556,10.2435],[78.5639,10.2721],[78.6297,10.2452],[78.6336,10.2124],[78.6549,10.1918],[78.6478,10.1653],[78.6545,10.1414],[78.6744,10.1338],[78.6906,10.1607],[78.7136,10.1463],[78.7502,10.1511],[78.7501,10.1801],[78.7931,10.1982],[78.8058,10.1828],[78.7993,10.1559],[78.8288,10.1116],[78.8596,10.1295],[78.8892,10.1383],[78.8913,10.1158],[78.9317,10.0927],[78.954,10.1069],[78.9683,10.0746],[78.9443,10.081],[78.9168,10.058],[78.9118,10.0082],[78.9575,9.983],[78.9823,9.9596],[78.9719,9.9316],[78.9973,9.8894],[79.0041,9.8886],[79.0273,9.846],[79.0508,9.8367],[79.0807,9.8421],[79.0962,9.8313],[79.1193,9.8515],[79.1188,9.8737],[79.1279,9.894],[79.1537,9.9204],[79.1551,9.9324],[79.1924,9.9676],[79.2424,10.0249],[79.2621,10.0407],[79.2524,10.0665],[79.2368,10.0738],[79.2265,10.0985],[79.2301,10.1319],[79.1999,10.1245],[79.1856,10.1458],[79.1342,10.1528],[79.1347,10.183],[79.1565,10.186],[79.1633,10.2037],[79.1262,10.205],[79.1276,10.2224],[79.0992,10.2228],[79.1143,10.2587],[79.1038,10.2723],[79.1042,10.293],[79.1264,10.3299],[79.1319,10.3347],[79.1306,10.3547],[79.1313,10.3608],[79.1284,10.3643],[79.1304,10.3746],[79.1373,10.3849],[79.1282,10.3975],[79.1145,10.4119],[79.1324,10.4446],[79.1587,10.432],[79.1551,10.4627],[79.1361,10.4602],[79.123,10.484],[79.1251,10.4987],[79.1427,10.5173],[79.1696,10.526],[79.1663,10.5613],[79.1285,10.5895],[79.1109,10.6195],[79.0872,10.608],[79.0539,10.6225],[79.0469,10.6546],[79.0251,10.663],[79.0013,10.6609],[78.9832,10.7089],[78.9735,10.7049],[78.967,10.6692],[78.9409,10.6497],[78.9215,10.6727],[78.8918,10.6577],[78.8549,10.6928]]]},"properties":{"NAME_1":"Tamil Nadu","NAME_2":"Pudukkottai"}},{"type":"Feature","geometry":{"type":"MultiPolygon","coordinates":[[[[79.3124,9.3285],[79.2893,9.3199],[79.2676,9.2932],[79.2204,9.2921],[79.2213,9.2671],[79.2771,9.2546],[79.3215,9.2368],[79.3965,9.189],[79.3788,9.2154],[79.3276,9.2599],[79.316,9.2849],[79.3351,9.3115],[79.3124,9.3285]]],[[[78.3629,9.0854],[78.3646,9.086],[78.371,9.081],[78.4115,9.1121],[78.4576,9.1265],[78.5104,9.1351],[78.5524,9.1374],[78.5757,9.1315],[78.6143,9.1521],[78.6518,9.1588],[78.649,9.1857],[78.6674,9.1971],[78.7185,9.1901],[78.7354,9.2118],[78.7568,9.216],[78.8601,9.2535],[78.9065,9.2496],[78.9235,9.2646],[78.979,9.2735],[79.064,9.261],[79.0938,9.2599],[79.1693,9.2796],[79.1449,9.2913],[79.106,9.289],[79.0654,9.2996],[79.0215,9.3276],[78.9893,9.3538],[78.9354,9.4113],[78.901,9.4682],[78.8982,9.489],[78.9149,9.494],[78.9185,9.5365],[78.9343,9.6068],[78.956,9.6254],[78.9713,9.656],[78.9799,9.6874],[79.0176,9.7326],[79.0393,9.764],[79.0579,9.7726],[79.0962,9.8313],[79.0807,9.8421],[79.0508,9.8367],[79.0273,9.846],[79.0041,9.8886],[78.9973,9.8894],[78.9719,9.9316],[78.9496,9.9228],[78.9385,9.9074],[78.8982,9.9029],[78.883,9.8807],[78.8643,9.868],[78.8546,9.8478],[78.8655,9.8041],[78.8651,9.7856],[78.8817,9.7701],[78.8655,9.7404],[78.8391,9.741],[78.8063,9.711],[78.7977,9.7267],[78.8275,9.7685],[78.8287,9.7826],[78.8126,9.8032],[78.8069,9.8579],[78.7825,9.8749],[78.7645,9.8675],[78.731,9.8698],[78.7149,9.8819],[78.6965,9.8773],[78.7058,9.8546],[78.6902,9.7994],[78.7065,9.784],[78.7145,9.7522],[78.6906,9.7217],[78.7058,9.6963],[78.7576,9.7055],[78.7808,9.6782],[78.7664,9.6376],[78.7752,9.6114],[78.8043,9.602],[78.801,9.58],[78.7352,9.5642],[78.6889,9.5851],[78.6596,9.5853],[78.665,9.5535],[78.6347,9.5305],[78.6373,9.5061],[78.5982,9.5232],[78.5785,9.5415],[78.5231,9.5722],[78.4979,9.5697],[78.458,9.5987],[78.4323,9.6065],[78.4,9.5838],[78.3582,9.5543],[78.3655,9.504],[78.3302,9.5029],[78.3142,9.5118],[78.3117,9.4671],[78.2811,9.4447],[78.2569,9.4339],[78.2013,9.4326],[78.2065,9.3985],[78.2255,9.3935],[78.2261,9.3653],[78.2777,9.3769],[78.288,9.364],[78.3185,9.3539],[78.3349,9.322],[78.3574,9.3061],[78.3583,9.2798],[78.3302,9.2673],[78.3128,9.2496],[78.2636,9.2634],[78.2577,9.2509],[78.2539,9.2204],[78.2532,9.1903],[78.2678,9.1926],[78.2797,9.1916],[78.27,9.1549],[78.2566,9.1294],[78.3042,9.1192],[78.3629,9.0854]]]]},"properties":{"NAME_1":"Tamil Nadu","NAME_2":"Ramanathapuram"}},{"type":"Feature","geometry":{"type":"Polygon","coordinates":[[[78.6134,11.8518],[78.5949,11.8339],[78.5825,11.8068],[78.529,11.7888],[78.5097,11.798],[78.4639,11.8011],[78.4409,11.8125],[78.4211,11.8476],[78.4038,11.8644],[78.3906,11.8587],[78.3684,11.8126],[78.3424,11.7813],[78.3172,11.7843],[78.3382,11.8224],[78.3432,11.8485],[78.3548,11.8654],[78.3411,11.8948],[78.3286,11.8811],[78.3084,11.9161],[78.2877,11.9048],[78.2437,11.9242],[78.2228,11.9642],[78.161,11.952],[78.1336,11.9519],[78.0869,11.9371],[78.0584,11.9222],[78.0242,11.9175],[78.0166,11.9047],[77.995,11.9],[77.9617,11.8823],[77.9481,11.8875],[77.8935,11.8898],[77.8547,11.9031],[77.8351,11.883],[77.7979,11.8983],[77.7508,11.9017],[77.7268,11.9272],[77.6818,11.9298],[77.6647,11.9397],[77.6737,11.8648],[77.6517,11.8655],[77.6487,11.8353],[77.6574,11.8113],[77.6989,11.7973],[77.7109,11.7823],[77.6808,11.7067],[77.6874,11.679],[77.6791,11.6492],[77.6912,11.621],[77.7381,11.6487],[77.75,11.6355],[77.7273,11.592],[77.735,11.5541],[77.7138,11.5185],[77.7213,11.5009],[77.6894,11.4692],[77.6839,11.4484],[77.6976,11.4532],[77.7268,11.4311],[77.7467,11.4389],[77.7573,11.4687],[77.7829,11.4528],[77.8176,11.4543],[77.8096,11.4339],[77.8607,11.3984],[77.8993,11.4198],[77.8999,11.44],[77.9273,11.4468],[77.9356,11.4582],[77.9593,11.4551],[77.9689,11.5158],[77.9896,11.5099],[78.0055,11.5166],[78.0449,11.5009],[78.064,11.5275],[78.0908,11.5419],[78.1074,11.5255],[78.1461,11.5243],[78.1548,11.5342],[78.189,11.5383],[78.1941,11.5497],[78.2322,11.5405],[78.2535,11.5452],[78.2599,11.5641],[78.2919,11.574],[78.2957,11.55],[78.3155,11.544],[78.3179,11.5188],[78.3541,11.5627],[78.3733,11.5709],[78.4384,11.5817],[78.4402,11.5268],[78.4582,11.5038],[78.4496,11.4822],[78.4273,11.4819],[78.4138,11.4535],[78.4303,11.4379],[78.4314,11.3862],[78.4722,11.3913],[78.4842,11.3908],[78.5105,11.3591],[78.5376,11.3453],[78.5416,11.3028],[78.5637,11.3025],[78.5947,11.3244],[78.6286,11.3302],[78.6507,11.3598],[78.6453,11.3654],[78.6431,11.3825],[78.6367,11.3922],[78.6371,11.4074],[78.6735,11.4199],[78.6855,11.4412],[78.7287,11.4308],[78.7428,11.4211],[78.7561,11.4026],[78.7582,11.3943],[78.7713,11.3772],[78.775,11.3726],[78.7838,11.3707],[78.7947,11.3926],[78.7974,11.3981],[78.8015,11.4176],[78.8032,11.4243],[78.7818,11.436],[78.7831,11.4612],[78.795,11.4685],[78.7966,11.4914],[78.8231,11.5017],[78.8303,11.507],[78.8212,11.5257],[78.8014,11.5332],[78.8141,11.5638],[78.8026,11.5755],[78.765,11.5912],[78.776,11.6095],[78.7708,11.6328],[78.7894,11.6445],[78.7901,11.6726],[78.7677,11.6864],[78.7514,11.6784],[78.701,11.6685],[78.676,11.6709],[78.6636,11.6547],[78.6663,11.6293],[78.646,11.6322],[78.637,11.6515],[78.639,11.6996],[78.6245,11.7061],[78.6272,11.748],[78.6496,11.7638],[78.6595,11.7843],[78.6765,11.7866],[78.6811,11.8336],[78.6134,11.8518]]]},"properties":{"NAME_1":"Tamil Nadu","NAME_2":"Salem"}},{"type":"Feature","geometry":{"type":"Polygon","coordinates":[[[78.491,10.3626],[78.4909,10.3743],[78.4411,10.395],[78.4231,10.3751],[78.4204,10.3504],[78.399,10.3495],[78.3748,10.3037],[78.364,10.2971],[78.3714,10.2572],[78.3876,10.2632],[78.4066,10.2446],[78.3793,10.234],[78.3817,10.2135],[78.3958,10.2004],[78.3792,10.1657],[78.3979,10.1469],[78.3868,10.1248],[78.4168,10.1223],[78.435,10.1066],[78.4405,10.088],[78.4343,10.048],[78.4118,10.0399],[78.4446,9.9983],[78.4405,9.9556],[78.3768,9.9406],[78.3601,9.9506],[78.3558,9.9206],[78.3228,9.9234],[78.302,9.9111],[78.2958,9.8532],[78.2361,9.8606],[78.2302,9.8466],[78.1865,9.8631],[78.1628,9.8552],[78.1382,9.8615],[78.1101,9.8317],[78.1222,9.7993],[78.1555,9.8169],[78.1757,9.7953],[78.1535,9.7863],[78.1259,9.7945],[78.1283,9.7721],[78.1472,9.7409],[78.1826,9.755],[78.219,9.7468],[78.2435,9.7483],[78.257,9.7403],[78.2832,9.7413],[78.2711,9.7134],[78.2775,9.6984],[78.2993,9.6923],[78.3245,9.6701],[78.3333,9.6526],[78.3747,9.637],[78.3711,9.6189],[78.3971,9.6057],[78.4,9.5838],[78.4323,9.6065],[78.458,9.5987],[78.4979,9.5697],[78.5231,9.5722],[78.5785,9.5415],[78.5982,9.5232],[78.6373,9.5061],[78.6347,9.5305],[78.665,9.5535],[78.6596,9.5853],[78.6889,9.5851],[78.7352,9.5642],[78.801,9.58],[78.8043,9.602],[78.7752,9.6114],[78.7664,9.6376],[78.7808,9.6782],[78.7576,9.7055],[78.7058,9.6963],[78.6906,9.7217],[78.7145,9.7522],[78.7065,9.784],[78.6902,9.7994],[78.7058,9.8546],[78.6965,9.8773],[78.7149,9.8819],[78.731,9.8698],[78.7645,9.8675],[78.7825,9.8749],[78.8069,9.8579],[78.8126,9.8032],[78.8287,9.7826],[78.8275,9.7685],[78.7977,9.7267],[78.8063,9.711],[78.8391,9.741],[78.8655,9.7404],[78.8817,9.7701],[78.8651,9.7856],[78.8655,9.8041],[78.8546,9.8478],[78.8643,9.868],[78.883,9.8807],[78.8982,9.9029],[78.9385,9.9074],[78.9496,9.9228],[78.9719,9.9316],[78.9823,9.9596],[78.9575,9.983],[78.9118,10.0082],[78.9168,10.058],[78.9443,10.081],[78.9683,10.0746],[78.954,10.1069],[78.9317,10.0927],[78.8913,10.1158],[78.8892,10.1383],[78.8596,10.1295],[78.8288,10.1116],[78.7993,10.1559],[78.8058,10.1828],[78.7931,10.1982],[78.7501,10.1801],[78.7502,10.1511],[78.7136,10.1463],[78.6906,10.1607],[78.6744,10.1338],[78.6545,10.1414],[78.6478,10.1653],[78.6549,10.1918],[78.6336,10.2124],[78.6297,10.2452],[78.5639,10.2721],[78.5556,10.2435],[78.5371,10.2346],[78.5198,10.2408],[78.4987,10.2109],[78.4905,10.1748],[78.4716,10.1769],[78.4555,10.1911],[78.4722,10.2201],[78.4601,10.2332],[78.4337,10.2328],[78.4373,10.2531],[78.4978,10.2528],[78.5056,10.3135],[78.4806,10.3399],[78.491,10.3626]]]},"properties":{"NAME_1":"Tamil Nadu","NAME_2":"Sivaganga"}},{"type":"Feature","geometry":{"type":"Polygon","coordinates":[[[79.4856,10.3359],[79.4868,10.3537],[79.4593,10.3574],[79.4471,10.3798],[79.4565,10.3925],[79.4336,10.4161],[79.4521,10.4204],[79.4525,10.443],[79.4668,10.4717],[79.4371,10.4785],[79.4411,10.4984],[79.3794,10.5436],[79.385,10.561],[79.3733,10.5657],[79.3688,10.5655],[79.3656,10.5665],[79.3554,10.5636],[79.3485,10.5643],[79.3333,10.5687],[79.3368,10.5918],[79.3324,10.6],[79.331,10.6047],[79.3352,10.6138],[79.3334,10.6315],[79.3301,10.637],[79.3234,10.641],[79.2987,10.6571],[79.3012,10.6721],[79.2891,10.6941],[79.2861,10.7165],[79.2876,10.7302],[79.2879,10.7563],[79.2856,10.7895],[79.2879,10.8869],[79.3124,10.9009],[79.3301,10.8947],[79.3425,10.8851],[79.3539,10.8816],[79.3528,10.8782],[79.3902,10.8733],[79.4007,10.8703],[79.4129,10.8633],[79.4413,10.8474],[79.491,10.8807],[79.4684,10.9033],[79.4988,10.9241],[79.4981,10.9531],[79.4956,10.9717],[79.5185,10.9938],[79.4987,11.0254],[79.5206,11.0523],[79.5297,11.0924],[79.5574,11.1304],[79.529,11.1436],[79.5215,11.1628],[79.5071,11.1663],[79.4852,11.1597],[79.4433,11.1347],[79.4151,11.1027],[79.3969,11.0654],[79.3783,11.0478],[79.3464,11.0346],[79.297,11.0006],[79.2783,10.9996],[79.2585,10.9743],[79.2051,10.9289],[79.1291,10.9247],[79.0914,10.908],[79.0675,10.9095],[79.0407,10.8747],[79.0188,10.8695],[78.9912,10.8759],[78.9277,10.8741],[78.9114,10.8539],[78.8392,10.8305],[78.8478,10.813],[78.8478,10.7886],[78.8624,10.7743],[78.8488,10.7211],[78.8549,10.6928],[78.8918,10.6577],[78.9215,10.6727],[78.9409,10.6497],[78.967,10.6692],[78.9735,10.7049],[78.9832,10.7089],[79.0013,10.6609],[79.0251,10.663],[79.0469,10.6546],[79.0539,10.6225],[79.0872,10.608],[79.1109,10.6195],[79.1285,10.5895],[79.1663,10.5613],[79.1696,10.526],[79.1427,10.5173],[79.1251,10.4987],[79.123,10.484],[79.1361,10.4602],[79.1551,10.4627],[79.1587,10.432],[79.1324,10.4446],[79.1145,10.4119],[79.1282,10.3975],[79.1373,10.3849],[79.1304,10.3746],[79.1284,10.3643],[79.1313,10.3608],[79.1306,10.3547],[79.1319,10.3347],[79.1264,10.3299],[79.1042,10.293],[79.1038,10.2723],[79.1143,10.2587],[79.0992,10.2228],[79.1276,10.2224],[79.1262,10.205],[79.1633,10.2037],[79.1565,10.186],[79.1347,10.183],[79.1342,10.1528],[79.1856,10.1458],[79.1999,10.1245],[79.2301,10.1319],[79.2399,10.1543],[79.2412,10.1807],[79.2813,10.2137],[79.2676,10.2299],[79.294,10.2599],[79.326,10.2818],[79.3707,10.2957],[79.3821,10.3154],[79.3968,10.3179],[79.5124,10.309],[79.486,10.3249],[79.4856,10.3359]]]},"properties":{"NAME_1":"Tamil Nadu","NAME_2":"Thanjavur"}},{"type":"Feature","geometry":{"type":"Polygon","coordinates":[[[77.6952,10.01],[77.6939,10.0683],[77.685,10.0925],[77.6595,10.1063],[77.6581,10.1341],[77.7012,10.1185],[77.7072,10.1508],[77.6855,10.1799],[77.655,10.1856],[77.6433,10.179],[77.6212,10.196],[77.5965,10.2018],[77.5868,10.1887],[77.5535,10.1696],[77.5317,10.1758],[77.4498,10.1179],[77.4222,10.1209],[77.3963,10.1333],[77.3799,10.1493],[77.3573,10.127],[77.3473,10.1376],[77.3104,10.1158],[77.2897,10.1258],[77.2691,10.1069],[77.2533,10.1114],[77.2305,10.1201],[77.1881,10.0957],[77.2044,10.0685],[77.2489,10.0158],[77.2407,10.0029],[77.2498,9.9728],[77.2614,9.9637],[77.2219,9.9228],[77.2044,9.8943],[77.1991,9.866],[77.2237,9.843],[77.219,9.8133],[77.234,9.7885],[77.2098,9.7799],[77.2082,9.7217],[77.1899,9.7155],[77.1917,9.6862],[77.1796,9.6604],[77.1657,9.6482],[77.1555,9.6015],[77.186,9.6059],[77.2228,9.5728],[77.2611,9.5667],[77.2865,9.5873],[77.3043,9.593],[77.321,9.5674],[77.3506,9.5403],[77.3505,9.5263],[77.3707,9.5087],[77.3868,9.5167],[77.4126,9.5367],[77.4409,9.5301],[77.4606,9.5397],[77.462,9.5531],[77.448,9.5693],[77.4896,9.6267],[77.4888,9.6398],[77.5097,9.651],[77.5533,9.738],[77.5841,9.7668],[77.6086,9.8125],[77.6024,9.8277],[77.6066,9.8534],[77.6337,9.8807],[77.6647,9.9242],[77.659,9.9445],[77.6773,9.9575],[77.6824,10.0027],[77.6952,10.01]]]},"properties":{"NAME_1":"Tamil Nadu","NAME_2":"Theni"}},{"type":"Feature","geometry":{"type":"Polygon","coordinates":[[[80.0758,13.5268],[80.0694,13.5376],[80.0454,13.522],[80.0295,13.5236],[80.0077,13.5324],[79.9897,13.5268],[80.036,13.4845],[80.0059,13.4878],[79.9954,13.4595],[79.9619,13.4513],[79.9632,13.4179],[79.9325,13.4044],[79.9356,13.3848],[79.9536,13.3741],[79.9255,13.3359],[79.9039,13.3333],[79.8512,13.3034],[79.8003,13.3043],[79.7798,13.2821],[79.7541,13.3028],[79.7461,13.28],[79.7218,13.2657],[79.7833,13.2282],[79.7444,13.1949],[79.7325,13.215],[79.7157,13.2144],[79.6711,13.2358],[79.6843,13.2567],[79.6685,13.2819],[79.6325,13.2735],[79.6208,13.259],[79.6011,13.2677],[79.5854,13.2471],[79.5654,13.2494],[79.5414,13.2789],[79.5358,13.3111],[79.4546,13.3243],[79.4173,13.322],[79.3746,13.303],[79.4054,13.2854],[79.4218,13.2867],[79.4073,13.2377],[79.4206,13.1845],[79.3844,13.1847],[79.3478,13.163],[79.3501,13.1255],[79.2988,13.1148],[79.2738,13.1209],[79.2735,13.1078],[79.289,13.0776],[79.3347,13.0484],[79.3702,13.0665],[79.4044,13.0707],[79.4092,13.0858],[79.3898,13.0938],[79.3997,13.1235],[79.4118,13.1323],[79.4407,13.0799],[79.4631,13.1005],[79.4699,13.1257],[79.5572,13.1214],[79.5793,13.1298],[79.6168,13.131],[79.6197,13.1563],[79.6326,13.1656],[79.6424,13.1957],[79.6797,13.177],[79.6796,13.1518],[79.723,13.1516],[79.7268,13.1236],[79.7194,13.0823],[79.7358,13.0372],[79.7582,13.0461],[79.7738,13.0394],[79.7725,13.009],[79.7853,13.0134],[79.8063,12.987],[79.8107,12.95],[79.8393,12.9367],[79.8812,12.933],[79.9025,12.9635],[79.8869,12.9747],[79.8986,12.9897],[79.9151,12.9772],[79.9295,12.9934],[79.8909,13.0015],[79.8839,13.0211],[79.932,13.0199],[79.9571,13.0339],[79.9774,13.0178],[79.9839,13.0383],[79.966,13.0519],[79.974,13.0778],[79.9992,13.0939],[80.0004,13.118],[80.0164,13.1165],[80.0655,13.1289],[80.0985,13.1184],[80.1122,13.0939],[80.1103,13.0463],[80.134,13.0273],[80.1338,13.0163],[80.1743,13.0145],[80.1696,13.0336],[80.1803,13.0689],[80.1801,13.0904],[80.1897,13.1119],[80.23,13.1133],[80.2292,13.1273],[80.2976,13.1266],[80.3374,13.2526],[80.3463,13.2949],[80.3457,13.3276],[80.3296,13.4001],[80.3282,13.4299],[80.313,13.4279],[80.3154,13.3715],[80.276,13.3891],[80.2599,13.4474],[80.2464,13.4654],[80.2162,13.4818],[80.1631,13.4776],[80.1565,13.4789],[80.1521,13.4789],[80.1507,13.48],[80.1447,13.4847],[80.1355,13.4922],[80.1327,13.4959],[80.1208,13.5024],[80.1004,13.5052],[80.0957,13.5098],[80.0887,13.5255],[80.0794,13.5294],[80.0758,13.5268]]]},"properties":{"NAME_1":"Tamil Nadu","NAME_2":"Thiruvallur"}},{"type":"Feature","geometry":{"type":"Polygon","coordinates":[[[79.7299,10.9814],[79.7176,10.9798],[79.6862,10.9981],[79.6623,11.0006],[79.6259,10.9926],[79.6145,10.9703],[79.5418,10.9587],[79.5357,10.9508],[79.4981,10.9531],[79.4988,10.9241],[79.4684,10.9033],[79.491,10.8807],[79.4413,10.8474],[79.4129,10.8633],[79.4007,10.8703],[79.3902,10.8733],[79.3528,10.8782],[79.3539,10.8816],[79.3425,10.8851],[79.3301,10.8947],[79.3124,10.9009],[79.2879,10.8869],[79.2856,10.7895],[79.2879,10.7563],[79.2876,10.7302],[79.2861,10.7165],[79.2891,10.6941],[79.3012,10.6721],[79.2987,10.6571],[79.3234,10.641],[79.3301,10.637],[79.3334,10.6315],[79.3352,10.6138],[79.331,10.6047],[79.3324,10.6],[79.3368,10.5918],[79.3333,10.5687],[79.3485,10.5643],[79.3554,10.5636],[79.3656,10.5665],[79.3688,10.5655],[79.3733,10.5657],[79.385,10.561],[79.3794,10.5436],[79.4411,10.4984],[79.4371,10.4785],[79.4668,10.4717],[79.4525,10.443],[79.4521,10.4204],[79.4336,10.4161],[79.4565,10.3925],[79.4471,10.3798],[79.4593,10.3574],[79.4868,10.3537],[79.4856,10.3359],[79.486,10.3357],[79.5082,10.3246],[79.5087,10.3243],[79.5149,10.3211],[79.5151,10.321],[79.5471,10.3479],[79.5901,10.3401],[79.5865,10.3279],[79.5599,10.3326],[79.5496,10.3168],[79.5265,10.3054],[79.7271,10.274],[79.6857,10.2896],[79.6654,10.2896],[79.5824,10.3029],[79.6135,10.3174],[79.637,10.3182],[79.6486,10.3513],[79.6486,10.442],[79.6729,10.4664],[79.7017,10.4863],[79.7194,10.5173],[79.7194,10.572],[79.7087,10.5725],[79.6923,10.5821],[79.687,10.5966],[79.6946,10.6072],[79.6874,10.6121],[79.6914,10.6188],[79.7152,10.6231],[79.7364,10.6402],[79.7188,10.6492],[79.7506,10.6712],[79.7422,10.6973],[79.7439,10.7244],[79.7581,10.7502],[79.7965,10.793],[79.7593,10.8014],[79.7101,10.7962],[79.7104,10.8123],[79.6799,10.8157],[79.6629,10.8001],[79.6419,10.8227],[79.6508,10.8647],[79.6774,10.9046],[79.7086,10.9142],[79.708,10.9151],[79.7104,10.9191],[79.7044,10.921],[79.7212,10.9353],[79.7156,10.9383],[79.7093,10.9356],[79.7032,10.9383],[79.7029,10.9456],[79.7155,10.9533],[79.7267,10.9524],[79.7401,10.9437],[79.7457,10.9493],[79.7381,10.9586],[79.7413,10.9633],[79.7395,10.9661],[79.7382,10.9693],[79.7299,10.9814]]]},"properties":{"NAME_1":"Tamil Nadu","NAME_2":"Thiruvarur"}},{"type":"Feature","geometry":{"type":"Polygon","coordinates":[[[78.1515,9.3566],[78.1218,9.3577],[78.0843,9.35],[78.0536,9.3475],[78.0381,9.3463],[78.0341,9.3318],[78.0175,9.3202],[78.033,9.2919],[78.0022,9.2942],[77.9915,9.2888],[77.9928,9.2619],[77.973,9.2574],[77.9676,9.247],[77.9389,9.2388],[77.9268,9.2079],[77.9125,9.2112],[77.8935,9.1881],[77.8629,9.1957],[77.8637,9.2323],[77.8298,9.2317],[77.8427,9.1845],[77.8239,9.1565],[77.7928,9.165],[77.7686,9.1537],[77.7279,9.1505],[77.72,9.175],[77.6895,9.1762],[77.6882,9.1586],[77.6744,9.1471],[77.6836,9.1255],[77.6579,9.1256],[77.6606,9.095],[77.6716,9.0904],[77.723,9.0933],[77.7274,9.0662],[77.6907,9.0605],[77.6944,9.0337],[77.6765,9.0213],[77.6806,8.9912],[77.705,8.9904],[77.7114,8.9707],[77.7026,8.9544],[77.6798,8.9685],[77.6736,8.9459],[77.6759,8.9187],[77.7132,8.9114],[77.7283,8.9222],[77.7435,8.913],[77.7436,8.8776],[77.7545,8.8697],[77.7776,8.8722],[77.7826,8.8683],[77.7918,8.8613],[77.794,8.8485],[77.8013,8.827],[77.8126,8.8201],[77.8209,8.8048],[77.8329,8.7857],[77.8291,8.7868],[77.8281,8.7762],[77.8216,8.7729],[77.8036,8.763],[77.7995,8.7562],[77.805,8.7137],[77.7999,8.6922],[77.7927,8.6702],[77.7893,8.6465],[77.7881,8.6357],[77.7992,8.6338],[77.7957,8.6188],[77.7916,8.6106],[77.7859,8.6032],[77.7813,8.6021],[77.7725,8.6046],[77.769,8.6128],[77.7661,8.598],[77.7633,8.5718],[77.7839,8.5652],[77.7771,8.5532],[77.7859,8.5579],[77.795,8.5428],[77.801,8.5313],[77.811,8.4778],[77.8221,8.4602],[77.8136,8.421],[77.8296,8.4108],[77.8399,8.3892],[77.8266,8.3669],[77.8354,8.3619],[77.824,8.3569],[77.828,8.3489],[77.828,8.3439],[77.8403,8.3462],[77.8499,8.3347],[77.8512,8.3403],[77.8649,8.3349],[77.8779,8.3153],[77.9067,8.3198],[77.9545,8.3251],[77.9626,8.3286],[77.9632,8.3288],[77.9635,8.3289],[78.0229,8.359],[78.0668,8.3704],[78.0549,8.3821],[78.0668,8.4226],[78.1304,8.4976],[78.1224,8.5165],[78.1387,8.5888],[78.1312,8.604],[78.1012,8.6121],[78.1012,8.6382],[78.1285,8.6576],[78.1354,8.6888],[78.1546,8.7118],[78.1624,8.7374],[78.1996,8.7532],[78.1985,8.7657],[78.1626,8.7735],[78.1593,8.8038],[78.1646,8.8218],[78.1685,8.881],[78.1807,8.8954],[78.1843,8.9188],[78.211,8.961],[78.2374,8.9846],[78.3104,9.0318],[78.3674,9.0776],[78.3632,9.0853],[78.3629,9.0854],[78.3042,9.1192],[78.2566,9.1294],[78.27,9.1549],[78.2797,9.1916],[78.2678,9.1926],[78.2532,9.1903],[78.2539,9.2204],[78.2577,9.2509],[78.2648,9.2746],[78.2366,9.282],[78.2206,9.2815],[78.1958,9.2912],[78.1941,9.3057],[78.1718,9.319],[78.1669,9.3238],[78.1547,9.3296],[78.1524,9.338],[78.1512,9.3416],[78.1515,9.3566]]]},"properties":{"NAME_1":"Tamil Nadu","NAME_2":"Thoothukudi"}},{"type":"Feature","geometry":{"type":"Polygon","coordinates":[[[78.6507,11.3598],[78.6286,11.3302],[78.5947,11.3244],[78.5637,11.3025],[78.5416,11.3028],[78.5376,11.3453],[78.5105,11.3591],[78.4842,11.3908],[78.4722,11.3913],[78.4564,11.3729],[78.4376,11.3159],[78.4519,11.299],[78.3947,11.1836],[78.3669,11.1751],[78.3677,11.1267],[78.3348,11.1234],[78.3286,11.0995],[78.3114,11.086],[78.3479,11.0509],[78.33,11.0128],[78.3141,11.0185],[78.3093,11.0447],[78.2605,11.0649],[78.2501,11.0556],[78.2338,11.0794],[78.2153,11.0818],[78.222,11.0542],[78.1892,11.0604],[78.1685,11.0557],[78.1504,11.032],[78.1699,11.0281],[78.1808,11.0099],[78.154,10.9997],[78.1532,10.989],[78.1844,10.9478],[78.2636,10.9546],[78.3137,10.9468],[78.3673,10.9528],[78.4115,10.9347],[78.4621,10.896],[78.4736,10.8802],[78.5335,10.8634],[78.5616,10.8381],[78.5714,10.8168],[78.5609,10.7959],[78.5384,10.7995],[78.5299,10.7798],[78.5482,10.7545],[78.5514,10.7244],[78.5104,10.696],[78.4981,10.68],[78.4582,10.6917],[78.4424,10.677],[78.4168,10.6802],[78.4117,10.6641],[78.3876,10.6801],[78.3621,10.7133],[78.3311,10.7087],[78.3251,10.6941],[78.2787,10.6907],[78.2772,10.7172],[78.2675,10.7327],[78.2486,10.6031],[78.2408,10.5941],[78.2453,10.5688],[78.2303,10.546],[78.1824,10.5352],[78.1561,10.4904],[78.1748,10.485],[78.1921,10.4605],[78.2807,10.4373],[78.2988,10.4265],[78.2904,10.3967],[78.2725,10.3893],[78.2652,10.3581],[78.3016,10.3363],[78.3212,10.3138],[78.3175,10.288],[78.3483,10.2809],[78.364,10.2971],[78.3748,10.3037],[78.399,10.3495],[78.4204,10.3504],[78.4231,10.3751],[78.4411,10.395],[78.4909,10.3743],[78.491,10.3626],[78.5101,10.3685],[78.5012,10.3934],[78.5082,10.4236],[78.5455,10.4182],[78.5715,10.4433],[78.5727,10.461],[78.5543,10.475],[78.5524,10.5021],[78.5268,10.4944],[78.5131,10.4733],[78.482,10.472],[78.4807,10.4951],[78.4666,10.5271],[78.4485,10.53],[78.4485,10.5616],[78.4348,10.5929],[78.4652,10.6243],[78.5123,10.615],[78.5033,10.6381],[78.5097,10.6609],[78.5535,10.6665],[78.5513,10.6475],[78.5795,10.6441],[78.6135,10.6917],[78.6433,10.6904],[78.638,10.6433],[78.6668,10.6562],[78.6788,10.6839],[78.6722,10.714],[78.6921,10.7169],[78.7079,10.7],[78.7262,10.6951],[78.7302,10.6739],[78.7203,10.6574],[78.7282,10.6336],[78.7447,10.6388],[78.7733,10.6337],[78.8044,10.6801],[78.8563,10.6745],[78.8549,10.6928],[78.8488,10.7211],[78.8624,10.7743],[78.8478,10.7886],[78.8478,10.813],[78.8392,10.8305],[78.9114,10.8539],[78.9277,10.8741],[78.9912,10.8759],[78.9837,10.9067],[78.9501,10.9351],[78.9684,10.9769],[78.9935,10.9939],[78.993,11.0435],[78.986,11.0558],[78.9756,11.0622],[78.9716,11.0621],[78.9505,11.0811],[78.9366,11.0811],[78.9113,11.0767],[78.899,11.0844],[78.8736,11.0886],[78.8687,11.0879],[78.8568,11.073],[78.8456,11.0769],[78.8294,11.0713],[78.8171,11.0636],[78.8131,11.0652],[78.7933,11.0669],[78.7955,11.0915],[78.7862,11.1019],[78.7805,11.1016],[78.7667,11.1035],[78.7632,11.1001],[78.7622,11.1042],[78.7364,11.104],[78.722,11.0949],[78.7234,11.0742],[78.7049,11.0605],[78.7029,11.0393],[78.6937,11.0511],[78.6859,11.0581],[78.6798,11.079],[78.672,11.1007],[78.6696,11.115],[78.6653,11.1226],[78.6619,11.134],[78.6455,11.1579],[78.6587,11.172],[78.6748,11.1802],[78.6986,11.1994],[78.6951,11.2209],[78.6978,11.2254],[78.7002,11.2393],[78.7051,11.2434],[78.715,11.253],[78.7314,11.2667],[78.7347,11.2682],[78.7238,11.2814],[78.7213,11.3056],[78.7179,11.3086],[78.6943,11.3103],[78.6717,11.307],[78.646,11.3083],[78.6396,11.3186],[78.6225,11.3155],[78.6309,11.3238],[78.6365,11.3301],[78.6431,11.3377],[78.6451,11.3416],[78.6604,11.3541],[78.6736,11.3672],[78.6507,11.3598]]]},"properties":{"NAME_1":"Tamil Nadu","NAME_2":"Tiruchchirappalli"}},{"type":"Feature","geometry":{"type":"Polygon","coordinates":[[[77.9632,8.3288],[77.9626,8.3286],[77.9545,8.3251],[77.9067,8.3198],[77.8779,8.3153],[77.8649,8.3349],[77.8512,8.3403],[77.8499,8.3347],[77.8403,8.3462],[77.828,8.3439],[77.828,8.3489],[77.824,8.3569],[77.8354,8.3619],[77.8266,8.3669],[77.8399,8.3892],[77.8296,8.4108],[77.8136,8.421],[77.8221,8.4602],[77.811,8.4778],[77.801,8.5313],[77.795,8.5428],[77.7859,8.5579],[77.7771,8.5532],[77.7839,8.5652],[77.7633,8.5718],[77.7661,8.598],[77.769,8.6128],[77.7725,8.6046],[77.7813,8.6021],[77.7859,8.6032],[77.7916,8.6106],[77.7957,8.6188],[77.7992,8.6338],[77.7881,8.6357],[77.7893,8.6465],[77.7927,8.6702],[77.7999,8.6922],[77.805,8.7137],[77.7995,8.7562],[77.8036,8.763],[77.8216,8.7729],[77.8281,8.7762],[77.8291,8.7868],[77.8329,8.7857],[77.8209,8.8048],[77.8126,8.8201],[77.8013,8.827],[77.794,8.8485],[77.7918,8.8613],[77.7826,8.8683],[77.7776,8.8722],[77.7545,8.8697],[77.7436,8.8776],[77.7435,8.913],[77.7283,8.9222],[77.7132,8.9114],[77.6759,8.9187],[77.6736,8.9459],[77.6798,8.9685],[77.7026,8.9544],[77.7114,8.9707],[77.705,8.9904],[77.6806,8.9912],[77.6765,9.0213],[77.6944,9.0337],[77.6907,9.0605],[77.7274,9.0662],[77.723,9.0933],[77.6716,9.0904],[77.6606,9.095],[77.6579,9.1256],[77.6836,9.1255],[77.6744,9.1471],[77.6882,9.1586],[77.6895,9.1762],[77.72,9.175],[77.7279,9.1505],[77.7686,9.1537],[77.7928,9.165],[77.8239,9.1565],[77.8427,9.1845],[77.8298,9.2317],[77.8,9.2326],[77.7796,9.2453],[77.7546,9.226],[77.7172,9.27],[77.6947,9.2794],[77.6434,9.2745],[77.6078,9.2819],[77.5762,9.3051],[77.5744,9.334],[77.5574,9.3331],[77.5294,9.362],[77.5139,9.3662],[77.5075,9.3284],[77.4798,9.3246],[77.424,9.3448],[77.4352,9.3605],[77.4173,9.3817],[77.3726,9.3815],[77.3449,9.4012],[77.3241,9.4082],[77.3206,9.3511],[77.2868,9.3081],[77.2668,9.2909],[77.2676,9.2624],[77.2595,9.2244],[77.2668,9.2088],[77.2503,9.1902],[77.2518,9.143],[77.2326,9.1179],[77.1959,9.0884],[77.1915,9.062],[77.1802,9.0448],[77.1538,9.0366],[77.1322,9.0119],[77.1342,9],[77.1584,8.9782],[77.1802,8.947],[77.2063,8.8932],[77.2399,8.8681],[77.247,8.8319],[77.2174,8.797],[77.2147,8.7758],[77.183,8.7611],[77.1765,8.735],[77.1553,8.7376],[77.167,8.7076],[77.1793,8.6996],[77.1985,8.6411],[77.2283,8.6129],[77.2284,8.5978],[77.2515,8.571],[77.2685,8.5599],[77.3202,8.5434],[77.3354,8.5332],[77.344,8.5329],[77.3586,8.5094],[77.3669,8.512],[77.3704,8.5138],[77.4055,8.5043],[77.4228,8.4949],[77.428,8.4843],[77.4295,8.4791],[77.4434,8.4593],[77.4525,8.4472],[77.4451,8.4194],[77.4547,8.3915],[77.4727,8.3715],[77.5193,8.3786],[77.5166,8.3499],[77.5204,8.339],[77.5138,8.327],[77.5127,8.3137],[77.5295,8.2923],[77.5355,8.2684],[77.5438,8.2626],[77.5423,8.2564],[77.5529,8.2402],[77.5403,8.2366],[77.529,8.2142],[77.5236,8.1999],[77.5321,8.1841],[77.5184,8.1671],[77.5306,8.1495],[77.5626,8.1465],[77.5751,8.1343],[77.6129,8.1501],[77.716,8.166],[77.7426,8.1754],[77.784,8.2065],[77.7829,8.2199],[77.8135,8.2462],[77.8874,8.2726],[77.901,8.286],[77.9538,8.314],[77.9632,8.3288]]]},"properties":{"NAME_1":"Tamil Nadu","NAME_2":"Tirunelveli Kattabo"}},{"type":"Feature","geometry":{"type":"Polygon","coordinates":[[[79.5473,12.8367],[79.5267,12.8472],[79.5016,12.841],[79.4772,12.8597],[79.4611,12.8588],[79.4612,12.8378],[79.4465,12.8329],[79.4442,12.7976],[79.4519,12.7728],[79.4636,12.7633],[79.4437,12.7419],[79.4536,12.7017],[79.4488,12.6709],[79.4392,12.6575],[79.3993,12.6428],[79.3708,12.6145],[79.342,12.6319],[79.3441,12.6593],[79.3795,12.6728],[79.3692,12.6952],[79.3106,12.73],[79.2855,12.7338],[79.2735,12.7476],[79.2756,12.7678],[79.2528,12.7765],[79.2423,12.8097],[79.2287,12.7837],[79.1966,12.7718],[79.2022,12.7478],[79.1932,12.7281],[79.1632,12.7317],[79.1284,12.7453],[79.0625,12.7399],[79.0457,12.724],[79.0436,12.7059],[79.0213,12.6813],[78.983,12.6913],[78.9682,12.6541],[78.9346,12.668],[78.9142,12.664],[78.8859,12.6759],[78.8551,12.6197],[78.848,12.6225],[78.8062,12.5185],[78.788,12.487],[78.7649,12.4646],[78.7516,12.4344],[78.758,12.4121],[78.7399,12.3719],[78.7232,12.3651],[78.6993,12.2931],[78.6791,12.2719],[78.6394,12.2463],[78.6399,12.2272],[78.6568,12.218],[78.6571,12.197],[78.6316,12.1924],[78.6217,12.1644],[78.6364,12.15],[78.6234,12.1316],[78.6535,12.1011],[78.6786,12.1015],[78.7274,12.1221],[78.734,12.1135],[78.713,12.0794],[78.6922,12.0148],[78.6851,11.9765],[78.704,11.9679],[78.7194,11.9687],[78.7471,11.9974],[78.7592,11.9947],[78.7932,12.0051],[78.8064,11.9957],[78.8509,12.0028],[78.8661,12.0125],[78.904,12.0018],[78.947,12.0543],[79.005,12.0528],[79.0106,12.0341],[79.0402,12.0246],[79.0525,12.0571],[79.0729,12.0675],[79.0851,12.0524],[79.0752,12.0315],[79.0855,12.0099],[79.1137,12.0071],[79.1355,12.0296],[79.1531,12.0186],[79.1765,12.0359],[79.1866,12.0561],[79.2212,12.0488],[79.2252,12.0629],[79.247,12.0682],[79.2638,12.0928],[79.2654,12.1102],[79.2459,12.117],[79.234,12.1335],[79.2002,12.153],[79.2021,12.17],[79.2212,12.1837],[79.2051,12.2003],[79.2257,12.2215],[79.2334,12.2638],[79.2481,12.2627],[79.273,12.3064],[79.2092,12.3175],[79.2274,12.3381],[79.2352,12.3656],[79.2132,12.3881],[79.2246,12.4277],[79.2628,12.4333],[79.2943,12.4258],[79.3134,12.4366],[79.3884,12.4215],[79.4163,12.3889],[79.4286,12.3937],[79.4361,12.3647],[79.4613,12.3524],[79.4808,12.3559],[79.4881,12.3326],[79.5183,12.355],[79.5377,12.3496],[79.5583,12.3422],[79.5847,12.3358],[79.6019,12.3611],[79.61,12.3481],[79.6242,12.3293],[79.6306,12.3315],[79.6491,12.3514],[79.6495,12.3689],[79.6915,12.3996],[79.7033,12.4221],[79.7217,12.414],[79.7245,12.4399],[79.7428,12.5044],[79.7035,12.5354],[79.712,12.5741],[79.6782,12.5869],[79.6569,12.5788],[79.632,12.5966],[79.6201,12.6177],[79.635,12.6544],[79.6707,12.6542],[79.7316,12.6801],[79.7237,12.6863],[79.733,12.7294],[79.6984,12.7447],[79.6892,12.7624],[79.6653,12.7777],[79.6595,12.7642],[79.6361,12.7604],[79.6261,12.7722],[79.6267,12.8032],[79.5749,12.8207],[79.5473,12.8367]]]},"properties":{"NAME_1":"Tamil Nadu","NAME_2":"Tiruvannamalai"}},{"type":"Feature","geometry":{"type":"Polygon","coordinates":[[[79.7725,13.009],[79.7738,13.0394],[79.7582,13.0461],[79.7358,13.0372],[79.7194,13.0823],[79.7268,13.1236],[79.723,13.1516],[79.6796,13.1518],[79.6797,13.177],[79.6424,13.1957],[79.6326,13.1656],[79.6197,13.1563],[79.6168,13.131],[79.5793,13.1298],[79.5572,13.1214],[79.4699,13.1257],[79.4631,13.1005],[79.4407,13.0799],[79.4118,13.1323],[79.3997,13.1235],[79.3898,13.0938],[79.4092,13.0858],[79.4044,13.0707],[79.3702,13.0665],[79.3347,13.0484],[79.289,13.0776],[79.2735,13.1078],[79.2738,13.1209],[79.2713,13.1381],[79.2264,13.1346],[79.2143,13.0968],[79.1933,13.0897],[79.1694,13.053],[79.1765,13.0383],[79.1706,13.0157],[79.1527,13.0073],[79.1044,13.0242],[79.0691,13.0142],[79.0533,13.038],[79.0004,13.0579],[78.9817,13.0762],[78.9458,13.0635],[78.9144,13.0678],[78.8819,13.0198],[78.8804,13.0696],[78.8323,13.0696],[78.8009,13.0755],[78.7775,13.0532],[78.7395,13.0455],[78.7024,13.0562],[78.6938,13.0044],[78.6511,13.0179],[78.6202,12.9739],[78.6467,12.919],[78.6248,12.9142],[78.5916,12.8385],[78.5977,12.8111],[78.5882,12.8048],[78.5801,12.7672],[78.5581,12.7516],[78.5456,12.7286],[78.5522,12.6971],[78.5244,12.6797],[78.516,12.7035],[78.4943,12.7304],[78.4934,12.6696],[78.4741,12.6592],[78.4577,12.6622],[78.4596,12.6174],[78.3975,12.6136],[78.3962,12.5905],[78.4087,12.5572],[78.403,12.5154],[78.4053,12.4752],[78.4218,12.4508],[78.4389,12.4386],[78.4428,12.4181],[78.4244,12.3854],[78.4476,12.3731],[78.4778,12.3756],[78.4807,12.3928],[78.5037,12.3934],[78.5578,12.3742],[78.5798,12.3457],[78.6006,12.3397],[78.6046,12.326],[78.5884,12.3115],[78.602,12.2825],[78.5943,12.2515],[78.6281,12.2542],[78.6394,12.2463],[78.6791,12.2719],[78.6993,12.2931],[78.7232,12.3651],[78.7399,12.3719],[78.758,12.4121],[78.7516,12.4344],[78.7649,12.4646],[78.788,12.487],[78.8062,12.5185],[78.848,12.6225],[78.8551,12.6197],[78.8859,12.6759],[78.9142,12.664],[78.9346,12.668],[78.9682,12.6541],[78.983,12.6913],[79.0213,12.6813],[79.0436,12.7059],[79.0457,12.724],[79.0625,12.7399],[79.1284,12.7453],[79.1632,12.7317],[79.1932,12.7281],[79.2022,12.7478],[79.1966,12.7718],[79.2287,12.7837],[79.2423,12.8097],[79.2528,12.7765],[79.2756,12.7678],[79.2735,12.7476],[79.2855,12.7338],[79.3106,12.73],[79.3692,12.6952],[79.3795,12.6728],[79.3441,12.6593],[79.342,12.6319],[79.3708,12.6145],[79.3993,12.6428],[79.4392,12.6575],[79.4488,12.6709],[79.4536,12.7017],[79.4437,12.7419],[79.4636,12.7633],[79.4519,12.7728],[79.4442,12.7976],[79.4465,12.8329],[79.4612,12.8378],[79.4611,12.8588],[79.4772,12.8597],[79.5016,12.841],[79.5267,12.8472],[79.5473,12.8367],[79.5466,12.8608],[79.56,12.8866],[79.6087,12.8993],[79.649,12.9166],[79.6478,12.9353],[79.6776,12.9544],[79.7218,12.9719],[79.7476,12.9973],[79.7725,13.009]]]},"properties":{"NAME_1":"Tamil Nadu","NAME_2":"Vellore"}},{"type":"Feature","geometry":{"type":"Polygon","coordinates":[[[79.5377,12.3496],[79.5183,12.355],[79.4881,12.3326],[79.4808,12.3559],[79.4613,12.3524],[79.4361,12.3647],[79.4286,12.3937],[79.4163,12.3889],[79.3884,12.4215],[79.3134,12.4366],[79.2943,12.4258],[79.2628,12.4333],[79.2246,12.4277],[79.2132,12.3881],[79.2352,12.3656],[79.2274,12.3381],[79.2092,12.3175],[79.273,12.3064],[79.2481,12.2627],[79.2334,12.2638],[79.2257,12.2215],[79.2051,12.2003],[79.2212,12.1837],[79.2021,12.17],[79.2002,12.153],[79.234,12.1335],[79.2459,12.117],[79.2654,12.1102],[79.2638,12.0928],[79.247,12.0682],[79.2252,12.0629],[79.2212,12.0488],[79.1866,12.0561],[79.1765,12.0359],[79.1531,12.0186],[79.1355,12.0296],[79.1137,12.0071],[79.0855,12.0099],[79.0752,12.0315],[79.0851,12.0524],[79.0729,12.0675],[79.0525,12.0571],[79.0402,12.0246],[79.0106,12.0341],[79.005,12.0528],[78.947,12.0543],[78.904,12.0018],[78.8661,12.0125],[78.8509,12.0028],[78.8064,11.9957],[78.7932,12.0051],[78.7592,11.9947],[78.7471,11.9974],[78.7194,11.9687],[78.704,11.9679],[78.6918,11.9219],[78.7108,11.9034],[78.6928,11.8785],[78.6747,11.886],[78.6279,11.87],[78.6134,11.8518],[78.6811,11.8336],[78.6765,11.7866],[78.6595,11.7843],[78.6496,11.7638],[78.6272,11.748],[78.6245,11.7061],[78.639,11.6996],[78.637,11.6515],[78.646,11.6322],[78.6663,11.6293],[78.6636,11.6547],[78.676,11.6709],[78.701,11.6685],[78.7514,11.6784],[78.7677,11.6864],[78.7901,11.6726],[78.7894,11.6445],[78.7708,11.6328],[78.776,11.6095],[78.765,11.5912],[78.8026,11.5755],[78.8141,11.5638],[78.8014,11.5332],[78.8212,11.5257],[78.8303,11.507],[78.8442,11.5064],[78.853,11.5017],[78.8581,11.4949],[78.861,11.4924],[78.8903,11.4896],[78.9088,11.5519],[78.9304,11.557],[78.9769,11.5581],[78.9922,11.5633],[79.0034,11.5914],[79.0529,11.5829],[79.0556,11.6164],[79.0721,11.6167],[79.0999,11.6003],[79.1256,11.575],[79.1392,11.584],[79.1699,11.5724],[79.1963,11.6208],[79.2244,11.6266],[79.2383,11.6373],[79.2748,11.6342],[79.2822,11.6207],[79.3219,11.6466],[79.3678,11.665],[79.4298,11.6501],[79.4208,11.6842],[79.4211,11.7073],[79.4455,11.7246],[79.4349,11.7478],[79.4199,11.7532],[79.4283,11.794],[79.4695,11.7931],[79.4674,11.8153],[79.4364,11.8408],[79.4409,11.8562],[79.5121,11.8419],[79.553,11.8241],[79.5722,11.8269],[79.6041,11.8076],[79.6212,11.7857],[79.6682,11.7978],[79.6806,11.8289],[79.6732,11.87],[79.6591,11.8657],[79.6604,11.8773],[79.6759,11.8793],[79.6838,11.8875],[79.6829,11.9047],[79.7025,11.8984],[79.6917,11.8978],[79.7017,11.8765],[79.7169,11.8768],[79.7175,11.8892],[79.7041,11.913],[79.6946,11.9313],[79.6945,11.9259],[79.6928,11.9212],[79.692,11.9245],[79.6782,11.9365],[79.6777,11.9394],[79.6867,11.9473],[79.7016,11.9522],[79.6953,11.961],[79.6991,11.9721],[79.6948,11.9751],[79.6869,11.974],[79.6811,11.9728],[79.6512,11.972],[79.6423,11.9758],[79.6443,11.9927],[79.647,11.9933],[79.6524,11.9983],[79.6715,12.0116],[79.679,12.0193],[79.6905,12.0011],[79.7058,11.9774],[79.7199,11.9765],[79.7249,11.9779],[79.7289,11.986],[79.729,11.986],[79.7382,11.967],[79.7269,11.9625],[79.7157,11.9675],[79.7336,11.9472],[79.7475,11.9152],[79.7727,11.9468],[79.7758,11.946],[79.7979,11.9635],[79.8046,11.9631],[79.811,11.9425],[79.818,11.9404],[79.8376,11.9405],[79.8471,11.9801],[79.8849,12.0649],[79.9313,12.1382],[79.9896,12.2243],[79.995,12.2499],[79.9949,12.2493],[79.9663,12.2257],[79.966,12.2254],[79.9657,12.2251],[79.9646,12.224],[79.9643,12.2237],[79.9641,12.2234],[79.9635,12.2229],[79.9629,12.2226],[79.9621,12.2222],[79.9451,12.2187],[79.9115,12.2321],[79.8896,12.2143],[79.8562,12.23],[79.8285,12.2749],[79.7849,12.3222],[79.7578,12.3186],[79.7465,12.3133],[79.7382,12.3105],[79.7138,12.3161],[79.6876,12.3163],[79.6821,12.3104],[79.6556,12.3062],[79.6372,12.3204],[79.6351,12.3293],[79.6242,12.3293],[79.61,12.3481],[79.6019,12.3611],[79.5847,12.3358],[79.5583,12.3422],[79.5377,12.3496]]]},"properties":{"NAME_1":"Tamil Nadu","NAME_2":"Villupuram"}},{"type":"Feature","geometry":{"type":"Polygon","coordinates":[[[78.1283,9.7721],[78.1102,9.7582],[78.092,9.7736],[78.0734,9.7653],[78.0678,9.7477],[78.046,9.7297],[78.0634,9.6944],[78.0714,9.6642],[78.061,9.6486],[78.0235,9.6653],[77.9979,9.6282],[77.9859,9.6379],[77.9578,9.6194],[77.9469,9.6343],[77.9082,9.6354],[77.8848,9.6139],[77.8742,9.6312],[77.8304,9.6397],[77.8266,9.6249],[77.7901,9.6315],[77.7592,9.63],[77.7483,9.6695],[77.7086,9.6829],[77.6794,9.6821],[77.6527,9.6666],[77.6277,9.6953],[77.5949,9.6879],[77.5702,9.6561],[77.504,9.6285],[77.5001,9.6024],[77.4825,9.567],[77.462,9.5531],[77.4606,9.5397],[77.4409,9.5301],[77.4126,9.5367],[77.3868,9.5167],[77.3962,9.4965],[77.3868,9.4674],[77.3722,9.4453],[77.3516,9.4497],[77.3343,9.4311],[77.3241,9.4082],[77.3449,9.4012],[77.3726,9.3815],[77.4173,9.3817],[77.4352,9.3605],[77.424,9.3448],[77.4798,9.3246],[77.5075,9.3284],[77.5139,9.3662],[77.5294,9.362],[77.5574,9.3331],[77.5744,9.334],[77.5762,9.3051],[77.6078,9.2819],[77.6434,9.2745],[77.6947,9.2794],[77.7172,9.27],[77.7546,9.226],[77.7796,9.2453],[77.8,9.2326],[77.8298,9.2317],[77.8637,9.2323],[77.8629,9.1957],[77.8935,9.1881],[77.9125,9.2112],[77.9268,9.2079],[77.9389,9.2388],[77.9676,9.247],[77.973,9.2574],[77.9928,9.2619],[77.9915,9.2888],[78.0022,9.2942],[78.033,9.2919],[78.0175,9.3202],[78.0341,9.3318],[78.0381,9.3463],[78.0536,9.3475],[78.0843,9.35],[78.1218,9.3577],[78.1515,9.3566],[78.1512,9.3416],[78.1524,9.338],[78.1547,9.3296],[78.1669,9.3238],[78.1718,9.319],[78.1941,9.3057],[78.1958,9.2912],[78.2206,9.2815],[78.2366,9.282],[78.2648,9.2746],[78.2636,9.2634],[78.3128,9.2496],[78.3302,9.2673],[78.3583,9.2798],[78.3574,9.3061],[78.3349,9.322],[78.3185,9.3539],[78.288,9.364],[78.2777,9.3769],[78.2261,9.3653],[78.2255,9.3935],[78.2065,9.3985],[78.2013,9.4326],[78.2569,9.4339],[78.2811,9.4447],[78.3117,9.4671],[78.3142,9.5118],[78.3302,9.5029],[78.3655,9.504],[78.3582,9.5543],[78.4,9.5838],[78.3971,9.6057],[78.3711,9.6189],[78.3747,9.637],[78.3333,9.6526],[78.3245,9.6701],[78.2993,9.6923],[78.2775,9.6984],[78.2711,9.7134],[78.2832,9.7413],[78.257,9.7403],[78.2435,9.7483],[78.219,9.7468],[78.1826,9.755],[78.1472,9.7409],[78.1283,9.7721]]]},"properties":{"NAME_1":"Tamil Nadu","NAME_2":"Virudhunagar"}}]}