{"type":"FeatureCollection","features":[{"type":"Feature","geometry":{"type":"Polygon","coordinates":[[[91.9022,24.1379],[91.8785,24.1478],[91.872,24.1741],[91.8418,24.1977],[91.8426,24.2217],[91.8156,24.209],[91.7435,24.2471],[91.7622,24.1434],[91.7558,24.1428],[91.7573,24.0892],[91.7516,24.0737],[91.7605,24.0275],[91.7546,23.9569],[91.7616,23.9196],[91.7773,23.9121],[91.7832,23.871],[91.7822,23.82],[91.7739,23.7716],[91.787,23.7429],[91.7728,23.7193],[91.7787,23.6915],[91.7888,23.6875],[91.7896,23.6067],[91.8042,23.574],[91.8065,23.5536],[91.831,23.5199],[91.8316,23.5082],[91.8694,23.4785],[91.8671,23.4534],[91.9011,23.4371],[91.9224,23.443],[91.9761,23.496],[91.9613,23.5162],[91.9639,23.5788],[91.9547,23.5959],[91.9567,23.6179],[91.9423,23.6818],[91.9573,23.6991],[91.9621,23.7277],[91.9836,23.7297],[92.002,23.6886],[92.0268,23.6574],[92.0355,23.6617],[92.0707,23.6446],[92.087,23.6539],[92.0907,23.6771],[92.1059,23.6765],[92.1505,23.7325],[92.1739,23.7428],[92.1618,23.7565],[92.1567,23.8366],[92.1587,23.8508],[92.1334,23.9305],[92.0923,23.9446],[92.0937,24.0026],[92.0776,24.0188],[92.071,24.0534],[92.074,24.1066],[92.007,24.0933],[91.979,24.0732],[91.9122,24.1113],[91.9022,24.1379]]]},"properties":{"NAME_1":"Tripura","NAME_2":"Dhalai"}},{"type":"Feature","geometry":{"type":"Polygon","coordinates":[[[92.2343,24.5004],[92.2073,24.5066],[92.1734,24.534],[92.1615,24.5123],[92.1578,24.4604],[92.1728,24.4309],[92.1391,24.4244],[92.1192,24.3838],[92.0965,24.3755],[92.0101,24.382],[91.9986,24.3911],[91.9784,24.3805],[91.9983,24.3393],[91.9745,24.3316],[91.9571,24.3563],[91.9204,24.3358],[91.9419,24.2676],[91.9022,24.1379],[91.9122,24.1113],[91.979,24.0732],[92.007,24.0933],[92.074,24.1066],[92.071,24.0534],[92.0776,24.0188],[92.0937,24.0026],[92.0923,23.9446],[92.1334,23.9305],[92.1587,23.8508],[92.1567,23.8366],[92.1618,23.7565],[92.1739,23.7428],[92.1801,23.7214],[92.2177,23.6952],[92.2129,23.6642],[92.2284,23.6592],[92.2469,23.6918],[92.2405,23.7084],[92.2663,23.7387],[92.2671,23.7619],[92.2623,23.8049],[92.2808,23.8151],[92.2868,23.8168],[92.2834,23.8234],[92.2836,23.8242],[92.2821,23.8309],[92.2771,23.8366],[92.2741,23.8436],[92.2878,23.867],[92.2939,23.8713],[92.2951,23.8701],[92.3006,23.8664],[92.3073,23.8639],[92.3196,23.8652],[92.3182,23.8671],[92.322,23.8698],[92.3204,23.878],[92.3171,23.8792],[92.3163,23.8833],[92.3171,23.8841],[92.3183,23.888],[92.319,23.8892],[92.3192,23.8907],[92.3207,23.8912],[92.3216,23.8914],[92.3236,23.9047],[92.3299,23.9055],[92.3307,23.9214],[92.3212,23.9261],[92.3134,23.9345],[92.3134,23.9433],[92.3126,23.9575],[92.3133,23.961],[92.3126,23.9702],[92.3196,23.9753],[92.3291,23.9897],[92.3172,24.0176],[92.3189,24.0192],[92.3217,24.0188],[92.3167,24.028],[92.3193,24.0313],[92.3172,24.0375],[92.3153,24.0487],[92.3203,24.0512],[92.3217,24.0587],[92.3168,24.0668],[92.3233,24.0696],[92.3236,24.0733],[92.3297,24.1012],[92.3323,24.1053],[92.3293,24.1103],[92.3317,24.1131],[92.3282,24.1246],[92.3282,24.1352],[92.3292,24.1399],[92.3323,24.144],[92.3353,24.1436],[92.3363,24.1444],[92.3344,24.1508],[92.3318,24.1636],[92.3299,24.1747],[92.327,24.1861],[92.3295,24.1912],[92.3251,24.199],[92.3202,24.2043],[92.3161,24.2132],[92.3097,24.2148],[92.3136,24.2211],[92.3034,24.2216],[92.3012,24.2245],[92.2976,24.2272],[92.2995,24.2316],[92.2963,24.2338],[92.2968,24.2381],[92.2949,24.2407],[92.2953,24.248],[92.2966,24.2517],[92.2596,24.2504],[92.2405,24.2506],[92.2129,24.2493],[92.2676,24.3733],[92.2722,24.3776],[92.2699,24.3822],[92.2727,24.3862],[92.2704,24.391],[92.2698,24.3949],[92.2626,24.4048],[92.2593,24.4135],[92.2565,24.4363],[92.2359,24.4538],[92.2351,24.4564],[92.2312,24.4654],[92.2338,24.4847],[92.2394,24.4899],[92.2354,24.4968],[92.2343,24.5004]]]},"properties":{"NAME_1":"Tripura","NAME_2":"North Tripura"}},{"type":"Feature","geometry":{"type":"Polygon","coordinates":[[[91.7787,23.6915],[91.7459,23.6779],[91.7273,23.6966],[91.7416,23.7177],[91.7372,23.7339],[91.7129,23.7626],[91.6886,23.754],[91.6158,23.7617],[91.5715,23.7506],[91.5716,23.7394],[91.5346,23.7059],[91.462,23.655],[91.4295,23.6029],[91.3968,23.5805],[91.3971,23.5196],[91.3829,23.4972],[91.3761,23.4388],[91.3847,23.4313],[91.3835,23.4015],[91.4191,23.3853],[91.4206,23.3716],[91.3894,23.3517],[91.3909,23.3343],[91.3712,23.2982],[91.3485,23.2809],[91.3168,23.2739],[91.3309,23.2158],[91.3303,23.1577],[91.3393,23.151],[91.3532,23.1014],[91.3777,23.0641],[91.4023,23.0518],[91.422,23.0592],[91.408,23.0947],[91.41,23.1068],[91.3915,23.1526],[91.3888,23.1795],[91.3958,23.2234],[91.4218,23.2572],[91.4578,23.2559],[91.4895,23.2022],[91.5064,23.1866],[91.4983,23.1508],[91.5208,23.1197],[91.5155,23.1056],[91.5393,23.0621],[91.5385,23.0347],[91.5542,23.0338],[91.5468,22.9994],[91.5628,22.9765],[91.6243,22.9513],[91.657,22.9867],[91.6856,22.9879],[91.6983,23.0026],[91.7281,22.9969],[91.7561,23.0156],[91.7712,23.0368],[91.778,23.0649],[91.8234,23.0757],[91.8345,23.0919],[91.8121,23.1307],[91.8145,23.1387],[91.7994,23.1967],[91.7884,23.2145],[91.7709,23.2638],[91.7903,23.3091],[91.8082,23.3387],[91.844,23.3804],[91.8505,23.4028],[91.9011,23.4371],[91.8671,23.4534],[91.8694,23.4785],[91.8316,23.5082],[91.831,23.5199],[91.8065,23.5536],[91.8042,23.574],[91.7896,23.6067],[91.7888,23.6875],[91.7787,23.6915]]]},"properties":{"NAME_1":"Tripura","NAME_2":"South Tripura"}},{"type":"Feature","geometry":{"type":"Polygon","coordinates":[[[91.7558,24.1428],[91.7318,24.1424],[91.6602,24.1876],[91.6445,24.1694],[91.6359,24.1393],[91.6423,24.1163],[91.6341,24.1026],[91.5962,24.0802],[91.5452,24.0761],[91.4905,24.0978],[91.4638,24.0976],[91.4103,24.1111],[91.3754,24.1075],[91.3771,24.0813],[91.3965,24.0514],[91.3908,24.0291],[91.3606,23.9865],[91.3064,23.9986],[91.2997,23.9727],[91.2816,23.9802],[91.2661,23.9486],[91.2763,23.9262],[91.2443,23.9239],[91.2322,23.8995],[91.2576,23.8397],[91.2376,23.8115],[91.2341,23.7694],[91.2109,23.7516],[91.1724,23.7521],[91.1559,23.7234],[91.1583,23.6912],[91.201,23.6924],[91.2084,23.6827],[91.2071,23.6514],[91.1762,23.6572],[91.1626,23.6283],[91.169,23.5951],[91.1936,23.5747],[91.2042,23.5242],[91.2271,23.514],[91.2282,23.4998],[91.2538,23.4897],[91.2599,23.4485],[91.2833,23.4104],[91.2921,23.3661],[91.3093,23.3552],[91.2973,23.321],[91.3215,23.3022],[91.3064,23.2906],[91.3168,23.2739],[91.3485,23.2809],[91.3712,23.2982],[91.3909,23.3343],[91.3894,23.3517],[91.4206,23.3716],[91.4191,23.3853],[91.3835,23.4015],[91.3847,23.4313],[91.3761,23.4388],[91.3829,23.4972],[91.3971,23.5196],[91.3968,23.5805],[91.4295,23.6029],[91.462,23.655],[91.5346,23.7059],[91.5716,23.7394],[91.5715,23.7506],[91.6158,23.7617],[91.6886,23.754],[91.7129,23.7626],[91.7372,23.7339],[91.7416,23.7177],[91.7273,23.6966],[91.7459,23.6779],[91.7787,23.6915],[91.7728,23.7193],[91.787,23.7429],[91.7739,23.7716],[91.7822,23.82],[91.7832,23.871],[91.7773,23.9121],[91.7616,23.9196],[91.7546,23.9569],[91.7605,24.0275],[91.7516,24.0737],[91.7573,24.0892],[91.7558,24.1428]]]},"properties":{"NAME_1":"Tripura","NAME_2":"West Tripura"}}]}