{"type":"FeatureCollection","features":[{"type":"Feature","geometry":{"type":"Polygon","coordinates":[[[79.4904,29.9389],[79.4869,29.9516],[79.4802,29.955],[79.4773,29.9729],[79.4568,29.9885],[79.4168,29.9426],[79.3962,29.9472],[79.3616,29.933],[79.3311,29.9731],[79.3131,29.9351],[79.2728,29.9327],[79.274,29.9575],[79.215,29.9835],[79.2161,29.9533],[79.194,29.9438],[79.1668,29.9146],[79.1511,29.9219],[79.1146,29.9104],[79.1071,29.9009],[79.07,29.8906],[79.0571,29.867],[79.0902,29.8512],[79.1103,29.8142],[79.1143,29.78],[79.1018,29.7729],[79.0995,29.7356],[79.1088,29.714],[79.1048,29.6875],[79.092,29.6655],[79.0738,29.6629],[79.0672,29.6442],[79.0796,29.6299],[79.0577,29.6185],[79.0491,29.5931],[79.0241,29.5915],[79.0678,29.5838],[79.1064,29.5522],[79.1907,29.5276],[79.2106,29.5273],[79.2419,29.5586],[79.2959,29.605],[79.3283,29.6148],[79.3663,29.5935],[79.391,29.5674],[79.4276,29.5401],[79.436,29.5259],[79.4887,29.5052],[79.5104,29.5258],[79.5173,29.5516],[79.5648,29.5465],[79.6024,29.5603],[79.6227,29.5476],[79.6507,29.5462],[79.6717,29.5222],[79.6673,29.5026],[79.6783,29.4794],[79.7059,29.4636],[79.7316,29.4368],[79.7744,29.4554],[79.816,29.4329],[79.8393,29.4404],[79.8414,29.46],[79.849,29.4548],[79.8543,29.4622],[79.8586,29.4684],[79.8741,29.4881],[79.8952,29.4951],[79.9071,29.4849],[79.9089,29.4804],[79.932,29.4835],[79.948,29.4813],[79.9665,29.4898],[79.9816,29.4936],[79.9946,29.4928],[80.0039,29.4968],[80.0169,29.5092],[80.0595,29.5256],[80.0529,29.5304],[80.0444,29.5426],[80.0396,29.5459],[80.0169,29.5519],[79.9967,29.5544],[79.9897,29.5661],[79.987,29.5739],[79.9812,29.5923],[79.9707,29.6261],[79.9542,29.6538],[79.9464,29.6627],[79.9492,29.6666],[79.9453,29.6739],[79.9433,29.685],[79.9322,29.691],[79.8997,29.7015],[79.8833,29.7075],[79.8633,29.697],[79.8512,29.6949],[79.825,29.7057],[79.8034,29.702],[79.7819,29.6983],[79.7353,29.6958],[79.7264,29.7083],[79.7279,29.721],[79.7096,29.7426],[79.6974,29.7543],[79.6759,29.7762],[79.6958,29.8011],[79.6926,29.8259],[79.6693,29.8246],[79.647,29.8314],[79.6343,29.8221],[79.609,29.8479],[79.5976,29.849],[79.5575,29.8481],[79.5372,29.8629],[79.5068,29.8727],[79.4951,29.8776],[79.4923,29.8874],[79.4898,29.9066],[79.4921,29.9139],[79.4894,29.9342],[79.4904,29.9389]]]},"properties":{"NAME_1":"Uttaranchal","NAME_2":"Almora"}},{"type":"Feature","geometry":{"type":"Polygon","coordinates":[[[80.0153,30.3181],[79.971,30.3142],[79.9538,30.2966],[79.9402,30.2943],[79.9332,30.3004],[79.9203,30.3018],[79.9093,30.2942],[79.9053,30.2914],[79.8764,30.2782],[79.8643,30.2756],[79.8268,30.2934],[79.7944,30.2901],[79.7848,30.2858],[79.8018,30.2403],[79.8064,30.2284],[79.8053,30.2258],[79.7834,30.1998],[79.7787,30.1943],[79.768,30.184],[79.7697,30.1733],[79.7697,30.1599],[79.7518,30.1437],[79.7506,30.1416],[79.7618,30.125],[79.7674,30.1137],[79.7655,30.1056],[79.7742,30.0828],[79.8042,30.0747],[79.8097,30.0543],[79.8014,30.0468],[79.7991,30.0353],[79.7933,30.023],[79.7592,30.0091],[79.7535,30.013],[79.734,30.0111],[79.7273,30.0104],[79.6821,30.0086],[79.6642,30.0123],[79.6512,30.0101],[79.6358,30.0198],[79.5867,30.0207],[79.572,30.0119],[79.5435,30.0089],[79.5415,30.0069],[79.5303,30.001],[79.5213,30.0046],[79.5096,30.0204],[79.4738,30.0295],[79.4568,29.9885],[79.4773,29.9729],[79.4802,29.955],[79.4869,29.9516],[79.4904,29.9389],[79.4894,29.9342],[79.4921,29.9139],[79.4898,29.9066],[79.4923,29.8874],[79.4951,29.8776],[79.5068,29.8727],[79.5372,29.8629],[79.5575,29.8481],[79.5976,29.849],[79.609,29.8479],[79.6343,29.8221],[79.647,29.8314],[79.6693,29.8246],[79.6926,29.8259],[79.6958,29.8011],[79.6759,29.7762],[79.6974,29.7543],[79.7096,29.7426],[79.7279,29.721],[79.7264,29.7083],[79.7353,29.6958],[79.7819,29.6983],[79.8034,29.702],[79.825,29.7057],[79.8512,29.6949],[79.8633,29.697],[79.8804,29.712],[79.881,29.7218],[79.8571,29.7449],[79.8496,29.7462],[79.8201,29.7559],[79.8087,29.7784],[79.82,29.7875],[79.843,29.7739],[79.8743,29.7807],[79.8809,29.7976],[79.9079,29.797],[79.919,29.7772],[79.9671,29.7649],[79.9819,29.7719],[79.9867,29.7763],[80.0262,29.7978],[80.0188,29.8124],[80.0111,29.8155],[80.0044,29.8371],[79.9795,29.8481],[79.9991,29.8583],[79.9996,29.8603],[79.9959,29.8744],[79.9964,29.8812],[80.0088,29.8978],[80.0543,29.9076],[80.0776,29.8928],[80.1001,29.9094],[80.1325,29.9031],[80.1387,29.9022],[80.147,29.9144],[80.1359,29.9355],[80.1304,29.9462],[80.0842,29.9721],[80.0752,29.9827],[80.0651,30.0061],[80.0583,30.0245],[80.0582,30.0299],[80.0723,30.0663],[80.0715,30.1188],[80.0921,30.1504],[80.0928,30.1675],[80.1042,30.2197],[80.1051,30.2299],[80.1003,30.2331],[80.0698,30.2378],[80.0669,30.242],[80.0611,30.2636],[80.0554,30.2696],[80.0554,30.2845],[80.0304,30.2994],[80.0153,30.3181]]]},"properties":{"NAME_1":"Uttaranchal","NAME_2":"Bageshwar"}},{"type":"Feature","geometry":{"type":"Polygon","coordinates":[[[80.0866,30.7919],[80.0695,30.8193],[80.0441,30.844],[80.0249,30.8438],[79.9947,30.8674],[79.9416,30.892],[79.915,30.8922],[79.8975,30.9217],[79.88,30.9253],[79.8549,30.9789],[79.8303,30.984],[79.8094,30.9773],[79.7603,30.9931],[79.7456,31.0062],[79.7248,30.9909],[79.6964,30.9817],[79.6539,30.9858],[79.6494,30.9706],[79.6242,30.9653],[79.5848,30.944],[79.5311,30.9741],[79.5377,30.9913],[79.5054,31.0231],[79.4971,31.0414],[79.4131,31.0376],[79.4084,31.073],[79.3924,31.0798],[79.3743,31.0727],[79.3459,31.04],[79.3157,31.0337],[79.2964,31.0148],[79.3134,31.0066],[79.3139,30.9783],[79.2832,30.9761],[79.2555,30.9654],[79.2699,30.9407],[79.2574,30.9172],[79.2619,30.8894],[79.2469,30.8752],[79.2157,30.8136],[79.25,30.776],[79.276,30.7574],[79.2663,30.7323],[79.2713,30.7313],[79.2841,30.7262],[79.2869,30.7023],[79.2925,30.6904],[79.2929,30.6828],[79.3033,30.6775],[79.3179,30.6668],[79.3411,30.6538],[79.3416,30.6387],[79.3421,30.6357],[79.3241,30.6033],[79.3202,30.6],[79.3076,30.6006],[79.289,30.5774],[79.26,30.5711],[79.2328,30.5651],[79.2302,30.5572],[79.2197,30.5364],[79.2123,30.5164],[79.2101,30.5014],[79.1864,30.4886],[79.1634,30.4646],[79.1528,30.4489],[79.1581,30.4408],[79.1593,30.4165],[79.1524,30.3932],[79.1503,30.3889],[79.1123,30.3844],[79.1089,30.3886],[79.1005,30.3898],[79.0915,30.3774],[79.075,30.3495],[79.0709,30.346],[79.0609,30.3439],[79.0443,30.3467],[79.0281,30.3418],[79.0254,30.3346],[79.0165,30.3324],[79.0214,30.3143],[79.077,30.3027],[79.035,30.2659],[79.0227,30.2369],[79.0308,30.224],[79.0604,30.2274],[79.1284,30.1715],[79.1229,30.1275],[79.1414,30.1077],[79.1685,30.1015],[79.1897,30.0716],[79.1753,30.0464],[79.1958,30.0381],[79.2112,30.0077],[79.215,29.9835],[79.274,29.9575],[79.2728,29.9327],[79.3131,29.9351],[79.3311,29.9731],[79.3616,29.933],[79.3962,29.9472],[79.4168,29.9426],[79.4568,29.9885],[79.4738,30.0295],[79.5096,30.0204],[79.5213,30.0046],[79.5303,30.001],[79.5415,30.0069],[79.5435,30.0089],[79.572,30.0119],[79.5867,30.0207],[79.6358,30.0198],[79.6512,30.0101],[79.6642,30.0123],[79.6821,30.0086],[79.7273,30.0104],[79.734,30.0111],[79.7535,30.013],[79.7592,30.0091],[79.7933,30.023],[79.7991,30.0353],[79.8014,30.0468],[79.8097,30.0543],[79.8042,30.0747],[79.7742,30.0828],[79.7655,30.1056],[79.7674,30.1137],[79.7618,30.125],[79.7506,30.1416],[79.7518,30.1437],[79.7697,30.1599],[79.7697,30.1733],[79.768,30.184],[79.7787,30.1943],[79.7834,30.1998],[79.8053,30.2258],[79.8064,30.2284],[79.8018,30.2403],[79.7848,30.2858],[79.7944,30.2901],[79.8268,30.2934],[79.8643,30.2756],[79.8764,30.2782],[79.9053,30.2914],[79.9093,30.2942],[79.9203,30.3018],[79.9332,30.3004],[79.9402,30.2943],[79.9538,30.2966],[79.971,30.3142],[79.9793,30.3201],[79.9851,30.3698],[79.9995,30.3752],[80.0237,30.4092],[80.0225,30.4461],[79.9998,30.4708],[80.0067,30.4812],[79.9822,30.5437],[80.0277,30.607],[80.0154,30.6198],[80.0199,30.6404],[80.002,30.6673],[79.9732,30.6913],[79.9658,30.7109],[79.9849,30.7253],[80.0224,30.7383],[80.0889,30.728],[80.0744,30.7686],[80.0866,30.7919]]]},"properties":{"NAME_1":"Uttaranchal","NAME_2":"Chamoli"}},{"type":"Feature","geometry":{"type":"Polygon","coordinates":[[[80.1216,29.4929],[80.1137,29.5107],[80.0902,29.5262],[80.0595,29.5256],[80.0169,29.5092],[80.0039,29.4968],[79.9946,29.4928],[79.9816,29.4936],[79.9665,29.4898],[79.948,29.4813],[79.932,29.4835],[79.9089,29.4804],[79.9071,29.4849],[79.8952,29.4951],[79.8741,29.4881],[79.8586,29.4684],[79.8543,29.4622],[79.849,29.4548],[79.8414,29.46],[79.8393,29.4404],[79.8444,29.4389],[79.8236,29.4035],[79.8476,29.3748],[79.8792,29.3742],[79.888,29.3635],[79.889,29.3594],[79.8874,29.3542],[79.8745,29.3554],[79.8649,29.3535],[79.8586,29.3506],[79.8565,29.3413],[79.8556,29.3382],[79.8515,29.3239],[79.8493,29.3211],[79.8408,29.321],[79.8111,29.3451],[79.7863,29.3409],[79.794,29.3225],[79.8,29.3184],[79.8061,29.3112],[79.8034,29.2814],[79.8082,29.2764],[79.8123,29.2734],[79.8154,29.2728],[79.8473,29.2792],[79.8539,29.2729],[79.8627,29.2661],[79.8696,29.2602],[79.879,29.257],[79.8897,29.2553],[79.9025,29.2339],[79.9114,29.2262],[79.9128,29.2148],[79.9016,29.2055],[79.8898,29.1845],[79.8676,29.1755],[79.8677,29.1622],[79.904,29.1311],[79.9058,29.1317],[79.9372,29.1319],[79.9659,29.1228],[79.9582,29.1129],[79.949,29.0958],[79.9475,29.0707],[79.9541,29.062],[79.9596,29.058],[79.9878,29.0748],[79.9893,29.0917],[79.9994,29.0935],[80.0201,29.0778],[80.0371,29.0859],[80.0563,29.0794],[80.0669,29.0898],[80.0852,29.122],[80.1356,29.1329],[80.1599,29.1129],[80.186,29.1373],[80.2114,29.1218],[80.235,29.1184],[80.2744,29.1448],[80.26,29.1657],[80.2596,29.1874],[80.2766,29.207],[80.2953,29.1976],[80.306,29.2853],[80.3181,29.3156],[80.2986,29.3237],[80.2729,29.3637],[80.2769,29.3922],[80.2433,29.4116],[80.2475,29.4384],[80.2335,29.4467],[80.2335,29.4469],[80.1872,29.4591],[80.1739,29.4619],[80.1449,29.4773],[80.1332,29.4812],[80.1216,29.4929]]]},"properties":{"NAME_1":"Uttaranchal","NAME_2":"Champawat"}},{"type":"Feature","geometry":{"type":"Polygon","coordinates":[[[78.0018,30.6177],[77.9997,30.6516],[78.0253,30.6479],[78.0576,30.6774],[78.0622,30.7073],[78.0751,30.7236],[78.0518,30.7639],[78.0164,30.7912],[78.006,30.8185],[77.9848,30.8322],[77.9743,30.8538],[77.9662,30.902],[78.008,30.9169],[77.9856,30.9588],[77.9565,30.9799],[77.9144,30.9742],[77.8946,30.9587],[77.827,30.9385],[77.8041,30.9405],[77.791,30.9261],[77.8008,30.9127],[77.7864,30.896],[77.7835,30.8721],[77.7652,30.8652],[77.7445,30.8812],[77.7315,30.8508],[77.7441,30.8362],[77.7194,30.8083],[77.7045,30.779],[77.6883,30.7687],[77.7411,30.7107],[77.7334,30.6858],[77.7659,30.6653],[77.775,30.6411],[77.7566,30.6203],[77.7321,30.6071],[77.7535,30.5702],[77.7783,30.5574],[77.8059,30.5607],[77.8122,30.538],[77.7992,30.5114],[77.7676,30.5044],[77.7214,30.4778],[77.7112,30.4773],[77.6616,30.4488],[77.6402,30.4524],[77.6305,30.4362],[77.6038,30.4374],[77.5629,30.4171],[77.5631,30.4045],[77.6357,30.4101],[77.6632,30.3847],[77.6739,30.3846],[77.7108,30.3388],[77.7513,30.3246],[77.8124,30.2908],[77.8655,30.2705],[77.9003,30.2644],[77.9315,30.247],[77.9581,30.2252],[77.9943,30.1774],[78.0235,30.1153],[78.059,30.0803],[78.0609,30.0485],[78.0844,30.0357],[78.0824,30.0225],[78.1215,30.0059],[78.14,29.9661],[78.1811,29.9501],[78.2217,29.9985],[78.2163,30.0226],[78.2345,30.0295],[78.2387,30.0488],[78.2682,30.0694],[78.2802,30.1054],[78.299,30.1182],[78.2428,30.1479],[78.2465,30.1685],[78.229,30.1772],[78.2338,30.2092],[78.2769,30.2347],[78.2859,30.249],[78.2654,30.2756],[78.2707,30.2987],[78.2566,30.3091],[78.2031,30.3167],[78.1747,30.3088],[78.1366,30.3295],[78.129,30.3711],[78.15,30.3903],[78.2189,30.4181],[78.2158,30.4424],[78.1761,30.4574],[78.1523,30.4567],[78.0889,30.4857],[78.0657,30.4804],[78.0337,30.4878],[77.9737,30.4709],[77.958,30.4906],[77.927,30.5113],[77.9359,30.5232],[77.9749,30.5188],[77.9697,30.555],[77.9903,30.5685],[78.0035,30.5952],[78.0018,30.6177]]]},"properties":{"NAME_1":"Uttaranchal","NAME_2":"Dehra Dun"}},{"type":"Feature","geometry":{"type":"Polygon","coordinates":[[[78.1811,29.9501],[78.14,29.9661],[78.1215,30.0059],[78.0824,30.0225],[78.0844,30.0357],[78.0609,30.0485],[78.059,30.0803],[78.0235,30.1153],[77.9943,30.1774],[77.9581,30.2252],[77.9315,30.247],[77.9044,30.2152],[77.896,30.1863],[77.872,30.163],[77.8553,30.1336],[77.82,30.0936],[77.7864,30.1],[77.7582,30.0465],[77.7739,30.0321],[77.7533,30.0174],[77.7408,29.9941],[77.7401,29.9589],[77.7177,29.935],[77.733,29.9135],[77.7201,29.9028],[77.7033,29.8677],[77.7301,29.8531],[77.7421,29.8095],[77.7647,29.7855],[77.7577,29.7159],[77.7974,29.6978],[77.7892,29.6859],[77.8111,29.6725],[77.8343,29.6719],[77.8739,29.702],[77.8999,29.6978],[77.9162,29.7117],[77.9408,29.7146],[77.9454,29.6872],[77.9632,29.6702],[77.977,29.6421],[77.9768,29.614],[77.9482,29.5903],[77.9846,29.5846],[77.9789,29.5541],[77.988,29.5459],[78.0035,29.5561],[78.0326,29.5517],[78.0439,29.5931],[78.0785,29.5995],[78.0906,29.6248],[78.134,29.6585],[78.1391,29.6761],[78.1659,29.6795],[78.1935,29.7101],[78.2213,29.7176],[78.2314,29.7041],[78.3029,29.7576],[78.3317,29.7962],[78.3139,29.8261],[78.3086,29.8581],[78.2597,29.8962],[78.2618,29.923],[78.2393,29.9246],[78.1811,29.9501]]]},"properties":{"NAME_1":"Uttaranchal","NAME_2":"Haridwar"}},{"type":"Feature","geometry":{"type":"Polygon","coordinates":[[[79.8393,29.4404],[79.816,29.4329],[79.7744,29.4554],[79.7316,29.4368],[79.7059,29.4636],[79.6783,29.4794],[79.6673,29.5026],[79.6717,29.5222],[79.6507,29.5462],[79.6227,29.5476],[79.6024,29.5603],[79.5648,29.5465],[79.5173,29.5516],[79.5104,29.5258],[79.4887,29.5052],[79.436,29.5259],[79.4276,29.5401],[79.391,29.5674],[79.3663,29.5935],[79.3283,29.6148],[79.2959,29.605],[79.2419,29.5586],[79.2106,29.5273],[79.1907,29.5276],[79.1064,29.5522],[79.0678,29.5838],[79.0241,29.5915],[78.9963,29.5895],[78.9875,29.5549],[78.9539,29.5451],[78.9418,29.5301],[78.9397,29.5058],[78.9266,29.4777],[78.896,29.4562],[78.8965,29.4236],[78.8872,29.409],[78.8358,29.3723],[78.9134,29.3573],[78.9509,29.376],[78.995,29.3446],[79.1132,29.3043],[79.1185,29.286],[79.1373,29.2731],[79.2128,29.2518],[79.2684,29.2437],[79.2383,29.2158],[79.2351,29.1894],[79.3027,29.1384],[79.3376,29.1065],[79.3719,29.0847],[79.4074,29.054],[79.5059,29.0533],[79.6162,29.0548],[79.6406,29.0704],[79.6771,29.0544],[79.699,29.0275],[79.7378,29.0209],[79.7881,29.0195],[79.7824,29.0009],[79.8184,29.0024],[79.8332,29.0191],[79.8505,28.9881],[79.8611,29.0065],[79.8964,29.0232],[79.9024,29.031],[79.9247,29.0444],[79.9554,29.0523],[79.9541,29.062],[79.9475,29.0707],[79.949,29.0958],[79.9582,29.1129],[79.9659,29.1228],[79.9372,29.1319],[79.9058,29.1317],[79.904,29.1311],[79.8677,29.1622],[79.8676,29.1755],[79.8898,29.1845],[79.9016,29.2055],[79.9128,29.2148],[79.9114,29.2262],[79.9025,29.2339],[79.8897,29.2553],[79.879,29.257],[79.8696,29.2602],[79.8627,29.2661],[79.8539,29.2729],[79.8473,29.2792],[79.8154,29.2728],[79.8123,29.2734],[79.8034,29.2814],[79.8061,29.3112],[79.8,29.3184],[79.794,29.3225],[79.7863,29.3409],[79.8111,29.3451],[79.8408,29.321],[79.8493,29.3211],[79.8515,29.3239],[79.8556,29.3382],[79.8565,29.3413],[79.8586,29.3506],[79.8649,29.3535],[79.8745,29.3554],[79.8874,29.3542],[79.888,29.3635],[79.8792,29.3742],[79.8476,29.3748],[79.8236,29.4035],[79.8444,29.4389],[79.8393,29.4404]]]},"properties":{"NAME_1":"Uttaranchal","NAME_2":"Naini Tal"}},{"type":"Feature","geometry":{"type":"Polygon","coordinates":[[[79.215,29.9835],[79.2112,30.0077],[79.1958,30.0381],[79.1753,30.0464],[79.1897,30.0716],[79.1685,30.1015],[79.1414,30.1077],[79.1229,30.1275],[79.1284,30.1715],[79.0604,30.2274],[79.0308,30.224],[79.0227,30.2369],[79.035,30.2659],[79.077,30.3027],[79.0214,30.3143],[79.0046,30.3077],[78.9881,30.3062],[78.9804,30.303],[78.968,30.2945],[78.9406,30.2788],[78.9024,30.267],[78.8931,30.2524],[78.871,30.2683],[78.8527,30.2532],[78.7899,30.2284],[78.7747,30.2369],[78.7432,30.2211],[78.7072,30.2472],[78.6767,30.2477],[78.6628,30.2209],[78.6356,30.2158],[78.6314,30.2005],[78.6096,30.1887],[78.6025,30.159],[78.5809,30.1454],[78.5704,30.1093],[78.5807,30.0715],[78.5544,30.0681],[78.52,30.0807],[78.495,30.0628],[78.4264,30.0846],[78.4249,30.1141],[78.4003,30.1411],[78.3588,30.1248],[78.33,30.1395],[78.299,30.1182],[78.2802,30.1054],[78.2682,30.0694],[78.2387,30.0488],[78.2345,30.0295],[78.2163,30.0226],[78.2217,29.9985],[78.1811,29.9501],[78.2393,29.9246],[78.2618,29.923],[78.2597,29.8962],[78.3086,29.8581],[78.3139,29.8261],[78.3317,29.7962],[78.386,29.7739],[78.4126,29.7724],[78.4243,29.7617],[78.4876,29.7414],[78.5074,29.6908],[78.5115,29.6507],[78.5305,29.6239],[78.5765,29.5806],[78.6215,29.5529],[78.6396,29.5478],[78.6934,29.5089],[78.7266,29.5087],[78.7658,29.4838],[78.8658,29.4596],[78.896,29.4562],[78.9266,29.4777],[78.9397,29.5058],[78.9418,29.5301],[78.9539,29.5451],[78.9875,29.5549],[78.9963,29.5895],[79.0241,29.5915],[79.0491,29.5931],[79.0577,29.6185],[79.0796,29.6299],[79.0672,29.6442],[79.0738,29.6629],[79.092,29.6655],[79.1048,29.6875],[79.1088,29.714],[79.0995,29.7356],[79.1018,29.7729],[79.1143,29.78],[79.1103,29.8142],[79.0902,29.8512],[79.0571,29.867],[79.07,29.8906],[79.1071,29.9009],[79.1146,29.9104],[79.1511,29.9219],[79.1668,29.9146],[79.194,29.9438],[79.2161,29.9533],[79.215,29.9835]]]},"properties":{"NAME_1":"Uttaranchal","NAME_2":"Pauri Garhwal"}},{"type":"Feature","geometry":{"type":"Polygon","coordinates":[[[80.2475,29.4384],[80.2477,29.4467],[80.3042,29.4531],[80.2897,29.472],[80.2978,29.488],[80.3421,29.5099],[80.359,29.5337],[80.3506,29.5554],[80.3805,29.5613],[80.4095,29.5949],[80.4074,29.6128],[80.4228,29.6302],[80.4182,29.6512],[80.386,29.675],[80.3659,29.7402],[80.3875,29.7505],[80.4094,29.7916],[80.4656,29.8023],[80.4941,29.7953],[80.509,29.823],[80.5234,29.827],[80.5552,29.853],[80.5743,29.8944],[80.576,29.9234],[80.6053,29.9587],[80.638,29.9636],[80.6779,29.9581],[80.7213,30.0004],[80.7398,29.9995],[80.7599,30.0276],[80.7629,30.0495],[80.7814,30.0569],[80.808,30.09],[80.8471,30.1023],[80.8467,30.1161],[80.8805,30.1325],[80.8646,30.1689],[80.9119,30.2232],[80.9292,30.2359],[80.9779,30.238],[81.011,30.2628],[80.9941,30.2705],[80.9167,30.288],[80.8458,30.3072],[80.8113,30.32],[80.7724,30.3481],[80.7594,30.3753],[80.7313,30.4022],[80.6998,30.4183],[80.6607,30.4458],[80.649,30.4453],[80.5936,30.4822],[80.5664,30.4886],[80.5556,30.4672],[80.5306,30.4611],[80.5043,30.4704],[80.4853,30.4905],[80.4235,30.5057],[80.4006,30.5312],[80.3683,30.5269],[80.3156,30.554],[80.3056,30.5675],[80.278,30.5745],[80.2402,30.5654],[80.211,30.5823],[80.2113,30.6155],[80.1992,30.6275],[80.209,30.6451],[80.1805,30.6699],[80.1828,30.6796],[80.2198,30.6973],[80.2373,30.7407],[80.2228,30.7652],[80.1905,30.7638],[80.1849,30.7866],[80.1594,30.8121],[80.1031,30.7797],[80.0866,30.7919],[80.0744,30.7686],[80.0889,30.728],[80.0224,30.7383],[79.9849,30.7253],[79.9658,30.7109],[79.9732,30.6913],[80.002,30.6673],[80.0199,30.6404],[80.0154,30.6198],[80.0277,30.607],[79.9822,30.5437],[80.0067,30.4812],[79.9998,30.4708],[80.0225,30.4461],[80.0237,30.4092],[79.9995,30.3752],[79.9851,30.3698],[79.9793,30.3201],[80.0153,30.3181],[80.0304,30.2994],[80.0554,30.2845],[80.0554,30.2696],[80.0611,30.2636],[80.0669,30.242],[80.0698,30.2378],[80.1003,30.2331],[80.1051,30.2299],[80.1042,30.2197],[80.0928,30.1675],[80.0921,30.1504],[80.0715,30.1188],[80.0723,30.0663],[80.0582,30.0299],[80.0583,30.0245],[80.0651,30.0061],[80.0752,29.9827],[80.0842,29.9721],[80.1304,29.9462],[80.1359,29.9355],[80.147,29.9144],[80.1387,29.9022],[80.1325,29.9031],[80.1001,29.9094],[80.0776,29.8928],[80.0543,29.9076],[80.0088,29.8978],[79.9964,29.8812],[79.9959,29.8744],[79.9996,29.8603],[79.9991,29.8583],[79.9795,29.8481],[80.0044,29.8371],[80.0111,29.8155],[80.0188,29.8124],[80.0262,29.7978],[79.9867,29.7763],[79.9819,29.7719],[79.9671,29.7649],[79.919,29.7772],[79.9079,29.797],[79.8809,29.7976],[79.8743,29.7807],[79.843,29.7739],[79.82,29.7875],[79.8087,29.7784],[79.8201,29.7559],[79.8496,29.7462],[79.8571,29.7449],[79.881,29.7218],[79.8804,29.712],[79.8833,29.7075],[79.8997,29.7015],[79.9322,29.691],[79.9433,29.685],[79.9453,29.6739],[79.9492,29.6666],[79.9464,29.6627],[79.9542,29.6538],[79.9707,29.6261],[79.9812,29.5923],[79.987,29.5739],[79.9897,29.5661],[79.9967,29.5544],[80.0169,29.5519],[80.0396,29.5459],[80.0444,29.5426],[80.0529,29.5304],[80.0595,29.5256],[80.0902,29.5262],[80.1137,29.5107],[80.1216,29.4929],[80.1332,29.4812],[80.1449,29.4773],[80.1739,29.4619],[80.1872,29.4591],[80.2335,29.4469],[80.2335,29.4467],[80.2475,29.4384]]]},"properties":{"NAME_1":"Uttaranchal","NAME_2":"Pithoragarh"}},{"type":"Feature","geometry":{"type":"Polygon","coordinates":[[[79.2713,30.7313],[79.2447,30.7294],[79.2026,30.7452],[79.1855,30.7407],[79.1744,30.7546],[79.1465,30.762],[79.1336,30.7578],[79.1201,30.7574],[79.1153,30.7668],[79.1044,30.7793],[79.0865,30.7812],[79.0651,30.7912],[79.0525,30.8056],[79.0185,30.8121],[79.0122,30.804],[79.0123,30.7744],[79.0069,30.7687],[79.0037,30.7586],[78.9884,30.755],[78.941,30.74],[78.9319,30.7285],[78.9118,30.7199],[78.9001,30.6944],[78.9011,30.6911],[78.8994,30.6385],[78.9291,30.613],[78.9432,30.5912],[78.9659,30.5858],[78.973,30.5564],[78.9858,30.5533],[78.9953,30.5417],[78.9985,30.5056],[79.0012,30.4938],[79.0001,30.489],[79.0033,30.4715],[79.0022,30.4646],[79.0066,30.4611],[79.0233,30.4531],[79.0428,30.4387],[79.0215,30.4229],[79.0144,30.4295],[78.9957,30.4078],[78.9983,30.4007],[78.9861,30.3817],[78.9668,30.3746],[78.9619,30.357],[78.9569,30.3503],[78.9587,30.3428],[78.9611,30.324],[78.9681,30.2987],[78.9804,30.303],[78.9881,30.3062],[79.0046,30.3077],[79.0214,30.3143],[79.0165,30.3324],[79.0254,30.3346],[79.0281,30.3418],[79.0443,30.3467],[79.0609,30.3439],[79.0709,30.346],[79.075,30.3495],[79.0915,30.3774],[79.1005,30.3898],[79.1089,30.3886],[79.1123,30.3844],[79.1503,30.3889],[79.1524,30.3932],[79.1593,30.4165],[79.1581,30.4408],[79.1528,30.4489],[79.1634,30.4646],[79.1864,30.4886],[79.2101,30.5014],[79.2123,30.5164],[79.2197,30.5364],[79.2302,30.5572],[79.2328,30.5651],[79.26,30.5711],[79.289,30.5774],[79.3076,30.6006],[79.3202,30.6],[79.3241,30.6033],[79.3421,30.6357],[79.3416,30.6387],[79.3411,30.6538],[79.3179,30.6668],[79.3033,30.6775],[79.2929,30.6828],[79.2925,30.6904],[79.2869,30.7023],[79.2841,30.7262],[79.2713,30.7313]]]},"properties":{"NAME_1":"Uttaranchal","NAME_2":"Rudra Prayag"}},{"type":"Feature","geometry":{"type":"Polygon","coordinates":[[[79.0185,30.8121],[79.0034,30.8256],[79.0011,30.8543],[78.9853,30.8678],[78.9319,30.8623],[78.9068,30.8842],[78.8645,30.8828],[78.8375,30.8546],[78.8465,30.8236],[78.8362,30.7857],[78.8407,30.7608],[78.7942,30.7273],[78.7275,30.7229],[78.7114,30.7373],[78.6675,30.7184],[78.6492,30.6969],[78.6229,30.6901],[78.5882,30.6965],[78.582,30.6333],[78.5361,30.5781],[78.5338,30.5386],[78.5077,30.5336],[78.4833,30.5442],[78.4864,30.586],[78.4996,30.5999],[78.4703,30.6322],[78.4377,30.6205],[78.4271,30.5948],[78.4419,30.5459],[78.4156,30.5192],[78.3993,30.4879],[78.3644,30.5239],[78.3447,30.5313],[78.3278,30.5596],[78.2887,30.5908],[78.2685,30.6152],[78.2303,30.6098],[78.2232,30.5929],[78.1946,30.583],[78.1538,30.596],[78.1562,30.6132],[78.1416,30.6398],[78.1098,30.6429],[78.0737,30.6353],[78.0602,30.612],[78.0347,30.6026],[78.0018,30.6177],[78.0035,30.5952],[77.9903,30.5685],[77.9697,30.555],[77.9749,30.5188],[77.9359,30.5232],[77.927,30.5113],[77.958,30.4906],[77.9737,30.4709],[78.0337,30.4878],[78.0657,30.4804],[78.0889,30.4857],[78.1523,30.4567],[78.1761,30.4574],[78.2158,30.4424],[78.2189,30.4181],[78.15,30.3903],[78.129,30.3711],[78.1366,30.3295],[78.1747,30.3088],[78.2031,30.3167],[78.2566,30.3091],[78.2707,30.2987],[78.2654,30.2756],[78.2859,30.249],[78.2769,30.2347],[78.2338,30.2092],[78.229,30.1772],[78.2465,30.1685],[78.2428,30.1479],[78.299,30.1182],[78.33,30.1395],[78.3588,30.1248],[78.4003,30.1411],[78.4249,30.1141],[78.4264,30.0846],[78.495,30.0628],[78.52,30.0807],[78.5544,30.0681],[78.5807,30.0715],[78.5704,30.1093],[78.5809,30.1454],[78.6025,30.159],[78.6096,30.1887],[78.6314,30.2005],[78.6356,30.2158],[78.6628,30.2209],[78.6767,30.2477],[78.7072,30.2472],[78.7432,30.2211],[78.7747,30.2369],[78.7899,30.2284],[78.8527,30.2532],[78.871,30.2683],[78.8931,30.2524],[78.9024,30.267],[78.9406,30.2788],[78.968,30.2945],[78.9681,30.2987],[78.9611,30.324],[78.9587,30.3428],[78.9569,30.3503],[78.9619,30.357],[78.9668,30.3746],[78.9861,30.3817],[78.9983,30.4007],[78.9957,30.4078],[79.0144,30.4295],[79.0215,30.4229],[79.0428,30.4387],[79.0233,30.4531],[79.0066,30.4611],[79.0022,30.4646],[79.0033,30.4715],[79.0001,30.489],[79.0012,30.4938],[78.9985,30.5056],[78.9953,30.5417],[78.9858,30.5533],[78.973,30.5564],[78.9659,30.5858],[78.9432,30.5912],[78.9291,30.613],[78.8994,30.6385],[78.9011,30.6911],[78.9001,30.6944],[78.9118,30.7199],[78.9319,30.7285],[78.941,30.74],[78.9884,30.755],[79.0037,30.7586],[79.0069,30.7687],[79.0123,30.7744],[79.0122,30.804],[79.0185,30.8121]]]},"properties":{"NAME_1":"Uttaranchal","NAME_2":"Tehri Garhwal"}},{"type":"Feature","geometry":{"type":"Polygon","coordinates":[[[78.8358,29.3723],[78.8142,29.37],[78.7844,29.3429],[78.7574,29.3498],[78.7257,29.33],[78.7276,29.3128],[78.7586,29.2867],[78.8138,29.2523],[78.8313,29.2607],[78.8641,29.2495],[78.8992,29.2026],[78.9048,29.1632],[78.9444,29.1496],[78.9608,29.1616],[78.979,29.1548],[79.0006,29.1166],[79.017,29.1179],[79.0128,29.1491],[79.0461,29.1547],[79.0729,29.152],[79.1007,29.1317],[79.1178,29.1339],[79.1422,29.1197],[79.1347,29.0819],[79.1437,29.0601],[79.1654,29.0513],[79.1545,29.0274],[79.1686,29.0159],[79.204,29.0291],[79.2377,29.0068],[79.2789,28.9648],[79.3496,28.9521],[79.3597,28.9705],[79.3793,28.9363],[79.4014,28.9323],[79.3957,28.8854],[79.4112,28.8559],[79.4597,28.8592],[79.4766,28.8672],[79.5072,28.8633],[79.5331,28.8903],[79.554,28.8785],[79.5509,28.8459],[79.5766,28.8503],[79.5923,28.8666],[79.6308,28.8589],[79.6662,28.8483],[79.7096,28.8792],[79.762,28.8897],[79.7906,28.8774],[79.7949,28.8699],[79.8057,28.8691],[79.8086,28.8628],[79.809,28.8589],[79.7999,28.8543],[79.7943,28.843],[79.7992,28.8362],[79.8012,28.8296],[79.7978,28.8208],[79.7948,28.8147],[79.7894,28.8197],[79.7834,28.8054],[79.803,28.8056],[79.805,28.8087],[79.8113,28.8114],[79.8159,28.8123],[79.8147,28.8191],[79.8245,28.8448],[79.8556,28.8391],[79.8753,28.8302],[79.8755,28.8213],[79.8542,28.8208],[79.8462,28.8213],[79.8465,28.805],[79.8673,28.7964],[79.8801,28.7968],[79.8948,28.8015],[79.9006,28.7994],[79.8889,28.7858],[79.8921,28.7813],[79.8993,28.7739],[79.9101,28.7633],[79.9181,28.7522],[79.9224,28.7327],[79.9529,28.7175],[79.9883,28.717],[80.0136,28.7374],[80.0405,28.7831],[80.0257,28.7999],[80.0584,28.8353],[80.0724,28.8297],[80.0663,28.8373],[80.0601,28.9163],[80.0977,28.9752],[80.1196,28.9817],[80.1285,29.0059],[80.1301,29.061],[80.146,29.103],[80.1599,29.1129],[80.1356,29.1329],[80.0852,29.122],[80.0669,29.0898],[80.0563,29.0794],[80.0371,29.0859],[80.0201,29.0778],[79.9994,29.0935],[79.9893,29.0917],[79.9878,29.0748],[79.9596,29.058],[79.9554,29.0523],[79.9247,29.0444],[79.9024,29.031],[79.8964,29.0232],[79.8611,29.0065],[79.8505,28.9881],[79.8332,29.0191],[79.8184,29.0024],[79.7824,29.0009],[79.7881,29.0195],[79.7378,29.0209],[79.699,29.0275],[79.6771,29.0544],[79.6406,29.0704],[79.6162,29.0548],[79.5059,29.0533],[79.4074,29.054],[79.3719,29.0847],[79.3376,29.1065],[79.3027,29.1384],[79.2351,29.1894],[79.2383,29.2158],[79.2684,29.2437],[79.2128,29.2518],[79.1373,29.2731],[79.1185,29.286],[79.1132,29.3043],[78.995,29.3446],[78.9509,29.376],[78.9134,29.3573],[78.8358,29.3723]]]},"properties":{"NAME_1":"Uttaranchal","NAME_2":"Udham Singh Nagar"}},{"type":"Feature","geometry":{"type":"Polygon","coordinates":[[[79.3924,31.0798],[79.3819,31.1184],[79.3251,31.1298],[79.2996,31.1492],[79.2821,31.1809],[79.2884,31.1956],[79.2628,31.2453],[79.2339,31.254],[79.2481,31.2966],[79.221,31.3203],[79.2216,31.3373],[79.1776,31.3722],[79.1635,31.3989],[79.1289,31.4387],[79.0762,31.4583],[79.0568,31.4723],[79.037,31.4574],[79.0342,31.428],[79.0068,31.4006],[78.9934,31.3675],[78.9806,31.357],[78.9302,31.3379],[78.9166,31.2666],[78.9069,31.2592],[78.9099,31.2339],[78.9351,31.2224],[78.9462,31.1936],[78.9719,31.1824],[78.9781,31.1457],[78.9967,31.1176],[78.9657,31.1154],[78.9421,31.105],[78.9038,31.1155],[78.88,31.1038],[78.8623,31.1124],[78.8187,31.1472],[78.8005,31.1783],[78.795,31.205],[78.7495,31.1944],[78.6956,31.1963],[78.6761,31.2032],[78.6507,31.1979],[78.636,31.2196],[78.6006,31.2359],[78.5666,31.2337],[78.5371,31.2067],[78.4701,31.2038],[78.4666,31.2209],[78.4195,31.2599],[78.3931,31.2623],[78.3693,31.2879],[78.2984,31.2882],[78.2934,31.266],[78.269,31.2714],[78.2326,31.235],[78.2068,31.2372],[78.1849,31.2233],[78.1478,31.2316],[78.0924,31.1928],[78.0538,31.1929],[78.03,31.1853],[78.0077,31.1571],[77.9926,31.167],[77.9694,31.1652],[77.9548,31.1788],[77.9147,31.1566],[77.9022,31.1588],[77.8787,31.1247],[77.8515,31.111],[77.8428,31.0813],[77.805,31.0541],[77.8247,31.0052],[77.8075,30.9938],[77.7964,30.9698],[77.7539,30.9768],[77.7333,30.9495],[77.7456,30.9223],[77.791,30.9261],[77.8041,30.9405],[77.827,30.9385],[77.8946,30.9587],[77.9144,30.9742],[77.9565,30.9799],[77.9856,30.9588],[78.008,30.9169],[77.9662,30.902],[77.9743,30.8538],[77.9848,30.8322],[78.006,30.8185],[78.0164,30.7912],[78.0518,30.7639],[78.0751,30.7236],[78.0622,30.7073],[78.0576,30.6774],[78.0253,30.6479],[77.9997,30.6516],[78.0018,30.6177],[78.0347,30.6026],[78.0602,30.612],[78.0737,30.6353],[78.1098,30.6429],[78.1416,30.6398],[78.1562,30.6132],[78.1538,30.596],[78.1946,30.583],[78.2232,30.5929],[78.2303,30.6098],[78.2685,30.6152],[78.2887,30.5908],[78.3278,30.5596],[78.3447,30.5313],[78.3644,30.5239],[78.3993,30.4879],[78.4156,30.5192],[78.4419,30.5459],[78.4271,30.5948],[78.4377,30.6205],[78.4703,30.6322],[78.4996,30.5999],[78.4864,30.586],[78.4833,30.5442],[78.5077,30.5336],[78.5338,30.5386],[78.5361,30.5781],[78.582,30.6333],[78.5882,30.6965],[78.6229,30.6901],[78.6492,30.6969],[78.6675,30.7184],[78.7114,30.7373],[78.7275,30.7229],[78.7942,30.7273],[78.8407,30.7608],[78.8362,30.7857],[78.8465,30.8236],[78.8375,30.8546],[78.8645,30.8828],[78.9068,30.8842],[78.9319,30.8623],[78.9853,30.8678],[79.0011,30.8543],[79.0034,30.8256],[79.0185,30.8121],[79.0525,30.8056],[79.0651,30.7912],[79.0865,30.7812],[79.1044,30.7793],[79.1153,30.7668],[79.1201,30.7574],[79.1336,30.7578],[79.1465,30.762],[79.1744,30.7546],[79.1855,30.7407],[79.2026,30.7452],[79.2447,30.7294],[79.2663,30.7323],[79.276,30.7574],[79.25,30.776],[79.2157,30.8136],[79.2469,30.8752],[79.2619,30.8894],[79.2574,30.9172],[79.2699,30.9407],[79.2555,30.9654],[79.2832,30.9761],[79.3139,30.9783],[79.3134,31.0066],[79.2964,31.0148],[79.3157,31.0337],[79.3459,31.04],[79.3743,31.0727],[79.3924,31.0798]]]},"properties":{"NAME_1":"Uttaranchal","NAME_2":"Uttarkashi"}}]}