{"type":"FeatureCollection","features":[{"type":"Feature","geometry":{"type":"Polygon","coordinates":[[[87.7097,23.0076],[87.7183,23.0248],[87.7398,23.0281],[87.7415,23.0533],[87.7599,23.0774],[87.7446,23.1049],[87.6844,23.1283],[87.6748,23.154],[87.6622,23.1585],[87.6459,23.1952],[87.6518,23.2356],[87.6327,23.2363],[87.5983,23.2555],[87.5656,23.2881],[87.5562,23.3069],[87.4962,23.3457],[87.4423,23.4029],[87.4059,23.4254],[87.3839,23.4317],[87.33,23.4681],[87.3114,23.4737],[87.2502,23.5136],[87.2092,23.5534],[87.1886,23.5616],[87.1566,23.5631],[87.1196,23.5736],[87.0578,23.6117],[87.028,23.6196],[87.0123,23.6322],[86.964,23.6258],[86.9494,23.6315],[86.9112,23.6273],[86.8941,23.638],[86.8885,23.6273],[86.8784,23.6036],[86.8778,23.5908],[86.8776,23.5785],[86.8703,23.5687],[86.8577,23.5704],[86.8685,23.5546],[86.8716,23.5464],[86.873,23.5365],[86.8822,23.528],[86.8923,23.4938],[86.8638,23.4868],[86.8577,23.4768],[86.8556,23.4634],[86.8515,23.4608],[86.8407,23.4642],[86.8149,23.4643],[86.8137,23.4396],[86.8533,23.4328],[86.8395,23.4101],[86.8418,23.399],[86.8381,23.3879],[86.824,23.3823],[86.824,23.3718],[86.8177,23.3587],[86.8123,23.3611],[86.8009,23.3583],[86.7975,23.3413],[86.7888,23.3395],[86.7839,23.3402],[86.7752,23.3361],[86.7734,23.3178],[86.7731,23.2957],[86.7686,23.2935],[86.7692,23.269],[86.7701,23.2616],[86.7693,23.2514],[86.7662,23.2398],[86.7694,23.2283],[86.7759,23.2156],[86.7706,23.199],[86.7532,23.1985],[86.746,23.191],[86.7478,23.1793],[86.7334,23.166],[86.7193,23.1484],[86.7108,23.1188],[86.7061,23.117],[86.7138,23.1087],[86.7397,23.0917],[86.736,23.0723],[86.7223,23.0478],[86.7282,23.0438],[86.7183,23.0344],[86.728,23.0227],[86.7226,22.9987],[86.7159,22.9888],[86.7145,22.9806],[86.7114,22.9707],[86.7089,22.9624],[86.7058,22.9538],[86.6978,22.948],[86.6915,22.9335],[86.6871,22.9267],[86.693,22.9141],[86.6986,22.9069],[86.7022,22.893],[86.6994,22.8897],[86.6993,22.8691],[86.6678,22.8524],[86.6518,22.8345],[86.6357,22.8253],[86.6101,22.8139],[86.6069,22.7958],[86.6547,22.7844],[86.6668,22.767],[86.6912,22.7636],[86.721,22.7426],[86.7692,22.723],[86.7842,22.7077],[86.8416,22.6814],[86.8597,22.6615],[86.8884,22.6489],[86.9222,22.6231],[86.9517,22.6344],[86.9459,22.6663],[86.983,22.6664],[86.9998,22.6466],[87.0158,22.6642],[87.011,22.6908],[87.033,22.7159],[87.0827,22.7348],[87.0721,22.78],[87.0491,22.8206],[87.0578,22.8459],[87.082,22.8409],[87.1284,22.8421],[87.163,22.8779],[87.2114,22.8943],[87.2413,22.8941],[87.2817,22.9079],[87.316,22.9403],[87.3552,22.9494],[87.4214,22.9211],[87.4752,22.9096],[87.5203,22.9271],[87.5635,22.9156],[87.6136,22.8883],[87.6265,22.9158],[87.6425,22.9191],[87.651,22.9628],[87.6413,22.9845],[87.6921,22.9916],[87.7097,23.0076]]]},"properties":{"NAME_1":"West Bengal","NAME_2":"Bankura"}},{"type":"Feature","geometry":{"type":"Polygon","coordinates":[[[86.9242,23.8659],[86.9069,23.8795],[86.8846,23.8734],[86.8802,23.8422],[86.8847,23.8305],[86.8877,23.8222],[86.8823,23.8145],[86.8731,23.8345],[86.8545,23.8325],[86.8444,23.8219],[86.8259,23.8132],[86.8093,23.8141],[86.7974,23.8319],[86.7928,23.8314],[86.7977,23.7977],[86.8167,23.7761],[86.8161,23.7448],[86.8045,23.7399],[86.7957,23.6935],[86.8286,23.682],[86.8488,23.6709],[86.8527,23.6612],[86.8656,23.6546],[86.8932,23.6409],[86.8941,23.638],[86.9112,23.6273],[86.9494,23.6315],[86.964,23.6258],[87.0123,23.6322],[87.028,23.6196],[87.0578,23.6117],[87.1196,23.5736],[87.1566,23.5631],[87.1886,23.5616],[87.2092,23.5534],[87.2502,23.5136],[87.3114,23.4737],[87.33,23.4681],[87.3839,23.4317],[87.4059,23.4254],[87.4423,23.4029],[87.4962,23.3457],[87.5562,23.3069],[87.5656,23.2881],[87.5983,23.2555],[87.6327,23.2363],[87.6518,23.2356],[87.6459,23.1952],[87.6622,23.1585],[87.6748,23.154],[87.6844,23.1283],[87.7446,23.1049],[87.7599,23.0774],[87.7415,23.0533],[87.7398,23.0281],[87.7183,23.0248],[87.7097,23.0076],[87.7478,22.9569],[87.7762,22.9537],[87.7898,22.9381],[87.8251,22.9493],[87.8379,22.9337],[87.8754,22.9399],[87.889,22.9348],[87.9611,22.949],[87.9676,22.9616],[88.0089,22.9597],[88.0484,22.9847],[88.0361,23.007],[88.0477,23.036],[88.0683,23.0452],[88.0978,23.0444],[88.1465,23.0744],[88.1668,23.1476],[88.1864,23.1594],[88.2523,23.1484],[88.2698,23.1276],[88.3153,23.1256],[88.3445,23.1293],[88.3626,23.1415],[88.392,23.194],[88.4161,23.2095],[88.3834,23.2169],[88.3542,23.235],[88.3614,23.2514],[88.3494,23.2782],[88.3338,23.2894],[88.3269,23.3098],[88.335,23.3372],[88.3291,23.3636],[88.3557,23.3932],[88.3397,23.4213],[88.3618,23.4754],[88.3876,23.4944],[88.3579,23.5407],[88.3207,23.5472],[88.3074,23.5382],[88.2749,23.5347],[88.2754,23.5568],[88.2922,23.5571],[88.321,23.5723],[88.3126,23.5862],[88.2851,23.5834],[88.2615,23.6136],[88.2291,23.6122],[88.2141,23.6028],[88.1951,23.6179],[88.1527,23.6252],[88.1341,23.6498],[88.142,23.683],[88.1639,23.7084],[88.1817,23.7115],[88.2237,23.7028],[88.2261,23.7188],[88.1916,23.7343],[88.1935,23.7627],[88.1625,23.7508],[88.1406,23.7277],[88.1231,23.747],[88.0899,23.749],[88.0785,23.7188],[88.0577,23.7184],[88.0379,23.7431],[88.0328,23.7609],[88.0549,23.7768],[88.0269,23.792],[88.0208,23.8226],[87.9986,23.8388],[87.969,23.8284],[87.9617,23.8013],[87.9327,23.7271],[87.908,23.7128],[87.9181,23.6772],[87.9114,23.6576],[87.9519,23.6219],[87.9467,23.5955],[87.9305,23.5844],[87.904,23.5378],[87.8881,23.5562],[87.8591,23.5445],[87.8334,23.5639],[87.8033,23.5574],[87.7935,23.5684],[87.7661,23.5755],[87.756,23.5867],[87.7311,23.5847],[87.7144,23.6154],[87.6851,23.604],[87.6642,23.6154],[87.6513,23.6007],[87.63,23.6076],[87.5883,23.5932],[87.5346,23.6059],[87.513,23.6155],[87.5007,23.5981],[87.4409,23.6128],[87.4088,23.6552],[87.4122,23.6822],[87.3872,23.6965],[87.3699,23.6966],[87.3563,23.7143],[87.2888,23.7208],[87.2607,23.7476],[87.2263,23.7381],[87.1886,23.7475],[87.1587,23.7445],[87.1149,23.7692],[87.0845,23.8053],[87.0766,23.8091],[87.0642,23.8135],[87.0344,23.8368],[86.963,23.8648],[86.9512,23.8459],[86.9364,23.8449],[86.9242,23.8659]]]},"properties":{"NAME_1":"West Bengal","NAME_2":"Barddhaman"}},{"type":"Feature","geometry":{"type":"Polygon","coordinates":[[[87.8022,24.578],[87.7797,24.5821],[87.7679,24.576],[87.7777,24.5714],[87.7916,24.5657],[87.8026,24.5543],[87.8036,24.5401],[87.7975,24.5387],[87.7971,24.53],[87.799,24.5209],[87.8012,24.5146],[87.7999,24.5042],[87.794,24.5003],[87.801,24.4948],[87.8034,24.5016],[87.8067,24.5106],[87.8076,24.5094],[87.8118,24.499],[87.8187,24.4921],[87.8202,24.4935],[87.8219,24.4964],[87.8224,24.4923],[87.821,24.4884],[87.8169,24.4861],[87.8091,24.4766],[87.8137,24.4727],[87.8166,24.4655],[87.8174,24.459],[87.8152,24.4536],[87.8069,24.4526],[87.8009,24.4474],[87.7999,24.4437],[87.796,24.4394],[87.7898,24.4347],[87.7923,24.4269],[87.79,24.4217],[87.7862,24.4186],[87.7986,24.4112],[87.8052,24.4181],[87.8085,24.4121],[87.8075,24.4044],[87.8015,24.4019],[87.7926,24.3964],[87.7926,24.3931],[87.7973,24.3923],[87.7981,24.3908],[87.7975,24.3822],[87.7938,24.3808],[87.7849,24.3676],[87.7792,24.3571],[87.7645,24.3386],[87.7612,24.3333],[87.7642,24.3252],[87.7601,24.3195],[87.7595,24.3169],[87.7585,24.3078],[87.7482,24.3015],[87.7431,24.2977],[87.7405,24.2927],[87.7364,24.2889],[87.7302,24.2876],[87.7198,24.288],[87.7103,24.2921],[87.7083,24.2804],[87.7046,24.2745],[87.706,24.2678],[87.7045,24.2638],[87.6974,24.2597],[87.693,24.2574],[87.685,24.2528],[87.6779,24.2465],[87.6707,24.2443],[87.6619,24.245],[87.659,24.2384],[87.6543,24.2366],[87.6499,24.2437],[87.6493,24.2466],[87.6432,24.2246],[87.6384,24.2161],[87.6451,24.208],[87.659,24.2074],[87.671,24.2057],[87.6783,24.1911],[87.6835,24.1891],[87.6926,24.1862],[87.6964,24.1713],[87.6936,24.1592],[87.6896,24.1498],[87.6505,24.1545],[87.6363,24.1574],[87.6275,24.1631],[87.6217,24.1639],[87.6104,24.1649],[87.5904,24.1601],[87.5841,24.1615],[87.5694,24.1557],[87.5765,24.1528],[87.6012,24.1352],[87.6076,24.1289],[87.5954,24.1249],[87.5926,24.1242],[87.5795,24.1195],[87.5748,24.109],[87.5692,24.1068],[87.5743,24.0902],[87.5732,24.0863],[87.5667,24.0864],[87.5634,24.0845],[87.5526,24.0845],[87.5442,24.0866],[87.5345,24.0914],[87.5307,24.0992],[87.5269,24.1038],[87.5213,24.1042],[87.5169,24.111],[87.5072,24.1113],[87.4931,24.1119],[87.4954,24.1055],[87.4937,24.0972],[87.4928,24.0955],[87.4896,24.09],[87.4889,24.0882],[87.4932,24.0846],[87.5058,24.0821],[87.5036,24.0777],[87.5026,24.0753],[87.4998,24.0725],[87.4889,24.0697],[87.4925,24.0647],[87.4942,24.0627],[87.4954,24.05],[87.5043,24.0462],[87.5085,24.0425],[87.5106,24.0398],[87.5039,24.0301],[87.5013,24.0261],[87.4965,24.0232],[87.4948,24.0244],[87.4864,24.016],[87.4735,24.0114],[87.4692,24.0116],[87.4639,24.0126],[87.4621,24.0131],[87.4549,24.015],[87.4523,24.0151],[87.4463,24.0143],[87.4387,24.0125],[87.4368,24.0078],[87.4384,24.009],[87.4442,24.0091],[87.4468,24.0084],[87.4414,24.0032],[87.4502,24],[87.4584,23.9935],[87.4536,23.9834],[87.4391,23.9781],[87.434,23.9817],[87.4293,23.9819],[87.4221,23.9908],[87.4145,23.9908],[87.3939,23.9992],[87.3566,24.0092],[87.351,23.9992],[87.3279,23.996],[87.3199,23.9992],[87.3179,24.0015],[87.3158,24.0071],[87.3183,24.0069],[87.3323,24.0175],[87.3355,24.0239],[87.3263,24.0301],[87.3037,24.0294],[87.2896,24.0303],[87.2743,24.0318],[87.2692,24.033],[87.2578,24.0355],[87.2436,24.0421],[87.2327,24.0246],[87.2392,24.0148],[87.2406,24.0057],[87.2436,24.001],[87.2458,23.998],[87.2469,23.997],[87.2477,23.9965],[87.2482,23.9963],[87.2491,23.996],[87.2501,23.9958],[87.2521,23.9958],[87.2531,23.996],[87.2545,23.9966],[87.2557,23.9975],[87.2562,23.9983],[87.2564,23.9991],[87.268,23.9846],[87.266,23.9818],[87.2595,23.9699],[87.2615,23.9662],[87.2693,23.9653],[87.2905,23.9475],[87.2878,23.9259],[87.2945,23.8986],[87.2926,23.8901],[87.2783,23.8819],[87.2617,23.8782],[87.2567,23.9076],[87.2482,23.907],[87.2461,23.8949],[87.2453,23.8806],[87.249,23.8658],[87.2515,23.8477],[87.2552,23.8393],[87.2388,23.8249],[87.2291,23.823],[87.2198,23.8272],[87.2224,23.8348],[87.2317,23.8446],[87.2362,23.8531],[87.2225,23.8576],[87.2168,23.8509],[87.2128,23.8503],[87.2073,23.853],[87.1994,23.8475],[87.1916,23.8404],[87.1887,23.8463],[87.1874,23.8572],[87.1843,23.8529],[87.1766,23.8525],[87.1691,23.8578],[87.1529,23.8656],[87.1358,23.8681],[87.1279,23.8624],[87.1303,23.8509],[87.154,23.8257],[87.1591,23.8283],[87.1664,23.8196],[87.1487,23.7944],[87.1103,23.7991],[87.1126,23.8055],[87.1059,23.7995],[87.0913,23.8096],[87.0845,23.8053],[87.1149,23.7692],[87.1587,23.7445],[87.1886,23.7475],[87.2263,23.7381],[87.2607,23.7476],[87.2888,23.7208],[87.3563,23.7143],[87.3699,23.6966],[87.3872,23.6965],[87.4122,23.6822],[87.4088,23.6552],[87.4409,23.6128],[87.5007,23.5981],[87.513,23.6155],[87.5346,23.6059],[87.5883,23.5932],[87.63,23.6076],[87.6513,23.6007],[87.6642,23.6154],[87.6851,23.604],[87.7144,23.6154],[87.7311,23.5847],[87.756,23.5867],[87.7661,23.5755],[87.7935,23.5684],[87.8033,23.5574],[87.8334,23.5639],[87.8591,23.5445],[87.8881,23.5562],[87.904,23.5378],[87.9305,23.5844],[87.9467,23.5955],[87.9519,23.6219],[87.9114,23.6576],[87.9181,23.6772],[87.908,23.7128],[87.9327,23.7271],[87.9617,23.8013],[87.9304,23.8219],[87.9222,23.8381],[87.8907,23.834],[87.8505,23.8845],[87.8432,23.9103],[87.8649,23.9153],[87.8663,23.9531],[87.8532,23.9663],[87.866,23.9815],[87.8711,24.0147],[87.8616,24.0284],[87.8921,24.0563],[87.8934,24.0781],[87.9055,24.0971],[87.8928,24.1128],[87.9031,24.1299],[87.896,24.1441],[87.9325,24.1758],[87.9388,24.1928],[87.963,24.1866],[87.984,24.1987],[87.985,24.2051],[87.9837,24.2096],[87.9879,24.211],[87.9892,24.206],[87.9941,24.209],[87.9952,24.2412],[88.0191,24.2416],[88.0105,24.3126],[87.9577,24.3381],[87.9522,24.3572],[87.9662,24.3764],[87.9736,24.4138],[87.9697,24.4688],[87.9455,24.4953],[87.9459,24.515],[87.9195,24.5404],[87.8876,24.5402],[87.8873,24.5627],[87.8766,24.5611],[87.8686,24.5613],[87.8644,24.5587],[87.8605,24.5553],[87.8538,24.556],[87.8492,24.5569],[87.845,24.5528],[87.8348,24.5563],[87.8233,24.5666],[87.8169,24.5701],[87.8022,24.578]]]},"properties":{"NAME_1":"West Bengal","NAME_2":"Birbhum"}},{"type":"Feature","geometry":{"type":"Polygon","coordinates":[[[88.4455,25.1961],[88.4646,25.1962],[88.4777,25.2133],[88.5535,25.196],[88.5759,25.1786],[88.6139,25.2054],[88.6412,25.2077],[88.6704,25.2007],[88.6849,25.2106],[88.7092,25.2096],[88.7471,25.1854],[88.8038,25.1723],[88.8478,25.2101],[88.8759,25.182],[88.8976,25.1845],[88.923,25.1671],[88.9378,25.2001],[88.9349,25.2182],[88.9589,25.2196],[88.9512,25.2413],[88.9581,25.2609],[88.9828,25.2779],[88.9893,25.2957],[88.9562,25.3078],[88.9191,25.3086],[88.9051,25.336],[88.8857,25.3242],[88.8718,25.3481],[88.8437,25.3624],[88.845,25.392],[88.8268,25.399],[88.837,25.4251],[88.8287,25.4409],[88.8421,25.4534],[88.8319,25.4854],[88.8146,25.4871],[88.8111,25.5173],[88.798,25.5217],[88.767,25.4913],[88.7411,25.5012],[88.7103,25.4961],[88.7002,25.4703],[88.665,25.4707],[88.6246,25.4953],[88.5514,25.5161],[88.5409,25.5309],[88.5214,25.5346],[88.4959,25.5595],[88.4981,25.5816],[88.4726,25.5811],[88.4557,25.5956],[88.4441,25.5965],[88.3886,25.5695],[88.3572,25.5438],[88.3174,25.5125],[88.2946,25.4783],[88.2803,25.4512],[88.2803,25.4299],[88.2632,25.39],[88.2461,25.3558],[88.1776,25.2891],[88.1919,25.2747],[88.2145,25.3067],[88.266,25.2966],[88.272,25.3139],[88.3083,25.2965],[88.3427,25.3],[88.3807,25.287],[88.4255,25.3027],[88.4466,25.3047],[88.4359,25.2779],[88.4578,25.2505],[88.435,25.2072],[88.4455,25.1961]]]},"properties":{"NAME_1":"West Bengal","NAME_2":"Dakshin Dinajpur"}},{"type":"Feature","geometry":{"type":"Polygon","coordinates":[[[88.1366,27.1169],[88.1233,27.1238],[88.0927,27.1363],[88.083,27.1489],[88.0833,27.165],[88.0675,27.1903],[88.075,27.2008],[88.0582,27.2139],[88.0329,27.221],[88.017,27.2189],[88.0099,27.143],[87.9938,27.1305],[87.9942,27.1052],[88.0144,27.0971],[88.0186,27.0767],[88.0403,27.0363],[88.0856,27.0286],[88.0911,27.0079],[88.1208,26.9871],[88.123,26.9501],[88.1486,26.9204],[88.1389,26.8984],[88.1745,26.8689],[88.1702,26.8371],[88.1905,26.7714],[88.1847,26.7192],[88.17,26.6989],[88.1656,26.6457],[88.1446,26.6255],[88.1418,26.6065],[88.1215,26.5678],[88.108,26.5606],[88.1054,26.5394],[88.1062,26.536],[88.1061,26.5356],[88.1322,26.5126],[88.1509,26.5169],[88.1574,26.5187],[88.1796,26.5345],[88.1824,26.5429],[88.1967,26.5436],[88.1992,26.5387],[88.2124,26.5417],[88.2208,26.5463],[88.2334,26.5324],[88.1863,26.5001],[88.179,26.4906],[88.1938,26.472],[88.226,26.472],[88.2153,26.4657],[88.2366,26.4493],[88.2452,26.459],[88.257,26.471],[88.2647,26.4859],[88.2853,26.4791],[88.3046,26.4894],[88.3101,26.4968],[88.3372,26.4971],[88.3526,26.512],[88.3702,26.5732],[88.3898,26.6127],[88.4096,26.6326],[88.4071,26.6383],[88.4012,26.6486],[88.4002,26.6528],[88.391,26.6755],[88.3969,26.6827],[88.4111,26.6987],[88.4297,26.6939],[88.4458,26.7002],[88.4406,26.7117],[88.4296,26.7154],[88.4225,26.7246],[88.4224,26.7387],[88.4255,26.7465],[88.4269,26.7562],[88.4313,26.7535],[88.4393,26.7822],[88.4407,26.7893],[88.4305,26.8168],[88.4353,26.8261],[88.474,26.8463],[88.4919,26.8535],[88.4773,26.8756],[88.5073,26.8621],[88.5706,26.8886],[88.6041,26.8792],[88.6163,26.9017],[88.6315,26.9038],[88.6333,26.9268],[88.6587,26.9607],[88.669,26.946],[88.6623,26.9263],[88.7609,26.9245],[88.7568,26.9641],[88.78,26.9738],[88.7916,26.9898],[88.8116,26.9902],[88.8551,26.9647],[88.8722,26.9646],[88.8705,27.0108],[88.8787,27.0384],[88.8699,27.1087],[88.8261,27.1177],[88.8,27.1368],[88.751,27.1429],[88.7517,27.1482],[88.7372,27.1395],[88.7325,27.1374],[88.7178,27.144],[88.715,27.1502],[88.702,27.1741],[88.6844,27.1802],[88.6596,27.1622],[88.6425,27.1672],[88.619,27.1879],[88.5981,27.1914],[88.594,27.1912],[88.559,27.1888],[88.529,27.1778],[88.5208,27.1782],[88.5205,27.175],[88.532,27.1543],[88.5217,27.1503],[88.5187,27.1478],[88.5075,27.136],[88.4813,27.1229],[88.4648,27.1048],[88.4545,27.0896],[88.4463,27.0854],[88.411,27.0907],[88.3639,27.0984],[88.3408,27.1107],[88.3238,27.1049],[88.3205,27.1166],[88.3045,27.1286],[88.2999,27.128],[88.2781,27.1308],[88.2709,27.1301],[88.2401,27.1204],[88.2138,27.1351],[88.1956,27.1362],[88.1837,27.1352],[88.179,27.1347],[88.1584,27.1144],[88.1523,27.1117],[88.1366,27.1169]]]},"properties":{"NAME_1":"West Bengal","NAME_2":"Darjiling"}},{"type":"Feature","geometry":{"type":"MultiPolygon","coordinates":[[[[88.1414,22.0264],[88.0939,22.0114],[88.0703,21.9908],[88.0564,21.9605],[88.0458,21.9156],[88.0567,21.9131],[88.0875,21.9328],[88.1222,21.9883],[88.1414,22.0264]]],[[[87.8568,22.5093],[87.8397,22.5081],[87.8379,22.5056],[87.83,22.5025],[87.8172,22.4975],[87.8135,22.4954],[87.801,22.4876],[87.7827,22.4848],[87.7702,22.4766],[87.766,22.4762],[87.7449,22.475],[87.7367,22.4848],[87.7074,22.4888],[87.6927,22.5063],[87.69,22.5053],[87.6723,22.4772],[87.6716,22.4655],[87.6541,22.4575],[87.6477,22.4381],[87.6512,22.4176],[87.6559,22.4052],[87.6504,22.376],[87.644,22.3373],[87.647,22.3241],[87.6524,22.3283],[87.6622,22.3293],[87.6655,22.3238],[87.6806,22.3232],[87.7043,22.3271],[87.7149,22.3213],[87.7021,22.2792],[87.7035,22.2552],[87.6975,22.2311],[87.6971,22.2247],[87.7051,22.2129],[87.7114,22.2038],[87.7203,22.2034],[87.7266,22.19],[87.7191,22.1818],[87.7111,22.1768],[87.7064,22.1786],[87.7046,22.1612],[87.6996,22.1244],[87.6681,22.1036],[87.6186,22.0984],[87.593,22.0891],[87.5784,22.0929],[87.5347,22.0799],[87.4928,22.0861],[87.4757,22.0748],[87.4775,22.0453],[87.4631,22.0244],[87.4594,22.0028],[87.4753,21.9996],[87.4838,21.9522],[87.4995,21.9525],[87.4766,21.8966],[87.4463,21.8845],[87.4551,21.8413],[87.44,21.832],[87.4393,21.7644],[87.4437,21.7609],[87.4433,21.7421],[87.4511,21.7354],[87.4444,21.7325],[87.4652,21.7264],[87.4657,21.7236],[87.4626,21.7171],[87.4693,21.6985],[87.4675,21.6957],[87.4683,21.6773],[87.4604,21.6571],[87.4609,21.6445],[87.4821,21.6259],[87.4817,21.6138],[87.482,21.6087],[87.5603,21.633],[87.6778,21.6539],[87.7397,21.6783],[87.7533,21.6975],[87.7897,21.695],[87.8095,21.706],[87.8308,21.7342],[87.8947,21.7844],[87.9275,21.7997],[87.9397,21.82],[87.9803,21.8578],[88.0036,21.9039],[88.0358,21.9814],[88.0528,22.0133],[88.0178,22.0403],[88.0111,22.0703],[88.0281,22.0683],[88.0269,22.0478],[88.0622,22.0131],[88.0833,22.0214],[88.1669,22.0736],[88.1936,22.1108],[88.1356,22.1847],[88.1061,22.1917],[88.0656,22.1897],[88.0347,22.2094],[88.0225,22.1997],[87.9904,22.2095],[87.9715,22.2366],[87.9369,22.2669],[87.9331,22.3139],[87.9444,22.3253],[87.9428,22.3644],[87.9297,22.4036],[87.9159,22.4174],[87.9042,22.4146],[87.8766,22.4398],[87.8741,22.4546],[87.8947,22.4753],[87.8767,22.494],[87.8822,22.5056],[87.8568,22.5093]]]]},"properties":{"NAME_1":"West Bengal","NAME_2":"East Midnapore"}},{"type":"Feature","geometry":{"type":"Polygon","coordinates":[[[87.9935,22.7619],[87.9849,22.7763],[87.965,22.7683],[87.9496,22.7677],[87.9478,22.7641],[87.9467,22.7538],[87.9485,22.737],[87.9372,22.6968],[87.9253,22.6866],[87.9278,22.6586],[87.9386,22.6346],[87.9367,22.6264],[87.9202,22.6329],[87.9136,22.627],[87.9021,22.6269],[87.8987,22.6234],[87.8842,22.6062],[87.88,22.6002],[87.8575,22.6045],[87.8512,22.594],[87.8547,22.5854],[87.8454,22.571],[87.8418,22.5575],[87.8498,22.5443],[87.8719,22.5277],[87.8793,22.5261],[87.8826,22.5244],[87.8822,22.5056],[87.8767,22.494],[87.8947,22.4753],[87.8741,22.4546],[87.8766,22.4398],[87.9042,22.4146],[87.9159,22.4174],[87.9275,22.4203],[87.9492,22.3994],[87.9583,22.3487],[87.96,22.2802],[87.984,22.2465],[88.0261,22.2225],[88.0492,22.22],[88.0753,22.2528],[88.0786,22.2842],[88.0952,22.3023],[88.0952,22.3717],[88.1387,22.4043],[88.1158,22.4601],[88.1243,22.4706],[88.1628,22.4761],[88.2087,22.5112],[88.241,22.5239],[88.238,22.5335],[88.2436,22.5571],[88.2572,22.5554],[88.2836,22.5481],[88.3082,22.5446],[88.3289,22.5521],[88.3523,22.5967],[88.3598,22.606],[88.3655,22.6124],[88.3641,22.6207],[88.3597,22.6297],[88.3521,22.6469],[88.3408,22.6612],[88.2723,22.6606],[88.2388,22.6726],[88.1926,22.6641],[88.1703,22.6677],[88.1573,22.6817],[88.1244,22.6807],[88.1185,22.695],[88.0636,22.6815],[88.0657,22.6969],[88.0634,22.705],[88.0472,22.679],[88.0431,22.6782],[88.0385,22.6808],[88.0275,22.6822],[88.0241,22.6855],[88.0159,22.6829],[87.9933,22.6997],[87.9952,22.7131],[87.996,22.7364],[87.9983,22.7374],[87.9993,22.7381],[88,22.739],[88.0007,22.7403],[88.0009,22.7413],[88.0008,22.7427],[88,22.7441],[87.9984,22.7457],[87.9974,22.7464],[87.996,22.7469],[87.9935,22.7619]]]},"properties":{"NAME_1":"West Bengal","NAME_2":"Haora"}},{"type":"Feature","geometry":{"type":"Polygon","coordinates":[[[88.4081,22.9423],[88.4035,22.9826],[88.4154,23.0128],[88.4406,23.0245],[88.4558,23.0415],[88.4605,23.0683],[88.4904,23.076],[88.5045,23.0986],[88.499,23.1213],[88.4555,23.1285],[88.4494,23.1448],[88.4723,23.2071],[88.4562,23.2251],[88.4161,23.2095],[88.392,23.194],[88.3626,23.1415],[88.3445,23.1293],[88.3153,23.1256],[88.2698,23.1276],[88.2523,23.1484],[88.1864,23.1594],[88.1668,23.1476],[88.1465,23.0744],[88.0978,23.0444],[88.0683,23.0452],[88.0477,23.036],[88.0361,23.007],[88.0484,22.9847],[88.0089,22.9597],[87.9676,22.9616],[87.9611,22.949],[87.889,22.9348],[87.8754,22.9399],[87.8379,22.9337],[87.8251,22.9493],[87.7898,22.9381],[87.7762,22.9537],[87.7478,22.9569],[87.7097,23.0076],[87.6921,22.9916],[87.6413,22.9845],[87.651,22.9628],[87.6425,22.9191],[87.6265,22.9158],[87.6136,22.8883],[87.5635,22.9156],[87.5203,22.9271],[87.5055,22.9006],[87.529,22.8794],[87.525,22.8618],[87.558,22.8617],[87.5878,22.8402],[87.6145,22.8477],[87.6319,22.8092],[87.6808,22.7993],[87.6793,22.7767],[87.7185,22.7857],[87.7415,22.7698],[87.7406,22.7355],[87.7595,22.7186],[87.7597,22.6942],[87.7914,22.652],[87.8124,22.6134],[87.8512,22.594],[87.8575,22.6045],[87.88,22.6002],[87.8842,22.6062],[87.8987,22.6234],[87.9021,22.6269],[87.9136,22.627],[87.9202,22.6329],[87.9367,22.6264],[87.9386,22.6346],[87.9278,22.6586],[87.9253,22.6866],[87.9372,22.6968],[87.9485,22.737],[87.9467,22.7538],[87.9478,22.7641],[87.9496,22.7677],[87.965,22.7683],[87.9849,22.7763],[87.9935,22.7619],[87.996,22.7469],[87.9974,22.7464],[87.9984,22.7457],[88,22.7441],[88.0008,22.7427],[88.0009,22.7413],[88.0007,22.7403],[88,22.739],[87.9993,22.7381],[87.9983,22.7374],[87.996,22.7364],[87.9952,22.7131],[87.9933,22.6997],[88.0159,22.6829],[88.0241,22.6855],[88.0275,22.6822],[88.0385,22.6808],[88.0431,22.6782],[88.0472,22.679],[88.0634,22.705],[88.0657,22.6969],[88.0636,22.6815],[88.1185,22.695],[88.1244,22.6807],[88.1573,22.6817],[88.1703,22.6677],[88.1926,22.6641],[88.2388,22.6726],[88.2723,22.6606],[88.3408,22.6612],[88.3521,22.6469],[88.3643,22.6801],[88.3604,22.7442],[88.331,22.7721],[88.3527,22.7914],[88.3572,22.8182],[88.3747,22.8256],[88.3714,22.8507],[88.4073,22.8808],[88.4018,22.9114],[88.4081,22.9423]]]},"properties":{"NAME_1":"West Bengal","NAME_2":"Hugli"}},{"type":"Feature","geometry":{"type":"Polygon","coordinates":[[[89.8695,26.6738],[89.8614,26.7003],[89.8072,26.715],[89.7769,26.6993],[89.7551,26.7206],[89.7264,26.7223],[89.7033,26.7371],[89.6695,26.7392],[89.6586,26.7185],[89.6143,26.7256],[89.6419,26.747],[89.6535,26.7719],[89.6268,26.7762],[89.6112,26.7894],[89.5668,26.8017],[89.5284,26.819],[89.4963,26.803],[89.4593,26.8063],[89.448,26.8348],[89.3895,26.8419],[89.3844,26.8618],[89.3597,26.8634],[89.3283,26.8401],[89.3199,26.8532],[89.2521,26.8164],[89.2356,26.8207],[89.1898,26.8085],[89.1729,26.8217],[89.129,26.8092],[89.102,26.8363],[89.1041,26.8598],[89.0878,26.8751],[89.0858,26.8973],[89.0495,26.9025],[89.0464,26.9197],[89.0274,26.938],[88.9846,26.9208],[88.9624,26.9241],[88.9414,26.9386],[88.9555,26.9542],[88.9465,26.9774],[88.9113,26.9944],[88.8722,26.9646],[88.8551,26.9647],[88.8116,26.9902],[88.7916,26.9898],[88.78,26.9738],[88.7568,26.9641],[88.7609,26.9245],[88.6623,26.9263],[88.669,26.946],[88.6587,26.9607],[88.6333,26.9268],[88.6315,26.9038],[88.6163,26.9017],[88.6041,26.8792],[88.5706,26.8886],[88.5073,26.8621],[88.4773,26.8756],[88.4919,26.8535],[88.474,26.8463],[88.4353,26.8261],[88.4305,26.8168],[88.4407,26.7893],[88.4393,26.7822],[88.4313,26.7535],[88.4269,26.7562],[88.4255,26.7465],[88.4224,26.7387],[88.4225,26.7246],[88.4296,26.7154],[88.4406,26.7117],[88.4458,26.7002],[88.4297,26.6939],[88.4111,26.6987],[88.3969,26.6827],[88.391,26.6755],[88.4002,26.6528],[88.4012,26.6486],[88.4071,26.6383],[88.4096,26.6326],[88.4174,26.6309],[88.4321,26.5511],[88.4502,26.5359],[88.4622,26.5472],[88.4861,26.5413],[88.4919,26.5168],[88.5248,26.5061],[88.5267,26.4817],[88.5494,26.4833],[88.5571,26.4569],[88.597,26.4494],[88.5952,26.4718],[88.6207,26.4711],[88.6237,26.4375],[88.6497,26.4272],[88.6853,26.3832],[88.6966,26.3443],[88.7285,26.3456],[88.7443,26.3539],[88.7724,26.3953],[88.7977,26.3732],[88.8479,26.3824],[88.8748,26.4013],[88.8859,26.4249],[88.9113,26.4521],[88.9442,26.477],[88.9411,26.4983],[88.9591,26.5229],[88.9822,26.5341],[89.0242,26.5168],[89.0516,26.5341],[89.0721,26.5375],[89.092,26.5207],[89.1458,26.5193],[89.1813,26.4999],[89.1936,26.5089],[89.2289,26.5032],[89.2401,26.4916],[89.3047,26.483],[89.3249,26.4934],[89.3559,26.4951],[89.389,26.4649],[89.4338,26.47],[89.4539,26.49],[89.5034,26.4717],[89.5277,26.4769],[89.5416,26.4594],[89.5499,26.4256],[89.5813,26.4286],[89.6165,26.3954],[89.621,26.4165],[89.643,26.418],[89.6621,26.4349],[89.6951,26.4209],[89.762,26.4641],[89.8289,26.4583],[89.861,26.464],[89.8547,26.4437],[89.8326,26.447],[89.8249,26.4311],[89.8333,26.4123],[89.8448,26.4102],[89.8498,26.4142],[89.8694,26.4573],[89.8706,26.4599],[89.8624,26.4661],[89.855,26.4943],[89.8618,26.5305],[89.8614,26.5432],[89.8643,26.5608],[89.8615,26.5746],[89.8725,26.5976],[89.8618,26.6152],[89.857,26.6234],[89.8613,26.6356],[89.8758,26.6463],[89.8683,26.6608],[89.8699,26.6627],[89.8695,26.6738]]]},"properties":{"NAME_1":"West Bengal","NAME_2":"Jalpaiguri"}},{"type":"Feature","geometry":{"type":"Polygon","coordinates":[[[89.8333,26.4123],[89.8249,26.4311],[89.8326,26.447],[89.8547,26.4437],[89.861,26.464],[89.8289,26.4583],[89.762,26.4641],[89.6951,26.4209],[89.6621,26.4349],[89.643,26.418],[89.621,26.4165],[89.6165,26.3954],[89.5813,26.4286],[89.5499,26.4256],[89.5416,26.4594],[89.5277,26.4769],[89.5034,26.4717],[89.4539,26.49],[89.4338,26.47],[89.389,26.4649],[89.3559,26.4951],[89.3249,26.4934],[89.3047,26.483],[89.2401,26.4916],[89.2289,26.5032],[89.1936,26.5089],[89.1813,26.4999],[89.1458,26.5193],[89.092,26.5207],[89.0721,26.5375],[89.0516,26.5341],[89.0242,26.5168],[88.9822,26.5341],[88.9591,26.5229],[88.9411,26.4983],[88.9442,26.477],[88.9113,26.4521],[88.8859,26.4249],[88.8748,26.4013],[88.8479,26.3824],[88.7977,26.3732],[88.7724,26.3953],[88.7443,26.3539],[88.7616,26.3338],[88.7616,26.3006],[88.8041,26.3118],[88.8216,26.3007],[88.8192,26.2597],[88.8528,26.2363],[88.8835,26.2367],[88.868,26.2579],[88.8682,26.2775],[88.8811,26.2903],[88.9349,26.2883],[88.962,26.2448],[89,26.2486],[89.0575,26.245],[89.0686,26.2588],[89.0666,26.2929],[89.0284,26.2903],[89.0033,26.3018],[88.9922,26.3202],[89.0067,26.3328],[88.9548,26.3604],[88.9292,26.3637],[88.9177,26.3747],[88.9252,26.4044],[88.9514,26.4292],[88.9646,26.4608],[88.99,26.4503],[89.0005,26.42],[89.0289,26.4163],[89.0458,26.3979],[89.0729,26.4001],[89.0997,26.3848],[89.1042,26.333],[89.1405,26.2997],[89.1106,26.2894],[89.1283,26.2537],[89.1469,26.2354],[89.1406,26.1801],[89.16,26.1423],[89.1978,26.1219],[89.2302,26.1226],[89.2541,26.1022],[89.2616,26.0639],[89.288,26.058],[89.3284,26.0371],[89.3631,26.0076],[89.3971,26.0201],[89.4137,26.0394],[89.435,26.0421],[89.433,26.0155],[89.4673,25.998],[89.5083,26.0003],[89.5213,26.0083],[89.5447,25.994],[89.5436,25.9705],[89.5579,25.9646],[89.5813,25.9784],[89.5852,26.0313],[89.6502,26.0687],[89.6316,26.1154],[89.6054,26.1266],[89.5987,26.1391],[89.6245,26.178],[89.6414,26.1788],[89.6376,26.2277],[89.6609,26.2177],[89.6959,26.1751],[89.7188,26.166],[89.7251,26.1716],[89.7329,26.173],[89.7342,26.175],[89.7198,26.1779],[89.7065,26.1731],[89.7025,26.1771],[89.6948,26.1891],[89.7107,26.1886],[89.7161,26.1913],[89.7142,26.206],[89.7257,26.2061],[89.7244,26.2173],[89.7155,26.2148],[89.6975,26.2159],[89.6996,26.2189],[89.7056,26.2171],[89.7117,26.2277],[89.7182,26.2316],[89.7288,26.2382],[89.7157,26.2464],[89.7164,26.2553],[89.7114,26.258],[89.7007,26.2608],[89.7048,26.2699],[89.7108,26.2646],[89.7173,26.2592],[89.7323,26.2603],[89.7337,26.2665],[89.7292,26.2829],[89.7157,26.302],[89.7228,26.3076],[89.7209,26.2963],[89.7318,26.2929],[89.7461,26.2908],[89.7571,26.2885],[89.7591,26.2926],[89.7517,26.3222],[89.762,26.3171],[89.7809,26.3309],[89.7791,26.3474],[89.782,26.3533],[89.8099,26.3665],[89.8204,26.3706],[89.8172,26.3661],[89.8115,26.358],[89.8156,26.3515],[89.8212,26.3511],[89.8244,26.3769],[89.8279,26.3811],[89.8409,26.3778],[89.8445,26.3944],[89.828,26.3935],[89.8273,26.3965],[89.8333,26.4123]]]},"properties":{"NAME_1":"West Bengal","NAME_2":"Kochbihar"}},{"type":"Feature","geometry":{"type":"Polygon","coordinates":[[[88.4073,22.5565],[88.3943,22.5833],[88.3931,22.5977],[88.3886,22.6264],[88.3806,22.6278],[88.3641,22.6207],[88.3655,22.6124],[88.3598,22.606],[88.3523,22.5967],[88.3289,22.5521],[88.3082,22.5446],[88.2836,22.5481],[88.2816,22.5431],[88.2881,22.5141],[88.3206,22.5047],[88.3243,22.5055],[88.3362,22.4978],[88.3677,22.5005],[88.376,22.5214],[88.3871,22.5339],[88.3873,22.539],[88.398,22.5538],[88.4073,22.5565]]]},"properties":{"NAME_1":"West Bengal","NAME_2":"Kolkata"}},{"type":"Feature","geometry":{"type":"Polygon","coordinates":[[[88.1776,25.2891],[88.168,25.2923],[88.1457,25.288],[88.146,25.2727],[88.1509,25.27],[88.137,25.2535],[88.1253,25.2425],[88.1257,25.2628],[88.114,25.2705],[88.1096,25.2816],[88.1263,25.2908],[88.1265,25.2949],[88.1086,25.3225],[88.1142,25.3351],[88.1214,25.3539],[88.1224,25.3628],[88.1013,25.3828],[88.1142,25.4043],[88.0977,25.4154],[88.0962,25.4239],[88.1117,25.4331],[88.0982,25.429],[88.0969,25.4408],[88.079,25.4585],[88.0743,25.4629],[88.0704,25.4805],[88.0042,25.494],[87.9556,25.538],[87.9241,25.5356],[87.9005,25.5072],[87.8699,25.503],[87.8635,25.4654],[87.8338,25.4646],[87.8258,25.4453],[87.8086,25.4342],[87.7865,25.4487],[87.7631,25.3956],[87.7657,25.378],[87.7888,25.3722],[87.7816,25.3384],[87.8289,25.3034],[87.8504,25.2974],[87.8565,25.2778],[87.8493,25.2534],[87.8228,25.2343],[87.8297,25.2041],[87.7876,25.2205],[87.771,25.1523],[87.7727,25.0991],[87.7929,25.0757],[87.8643,25.0399],[87.9034,24.9984],[87.9065,24.9858],[87.9617,24.9359],[87.9733,24.8965],[87.9665,24.8813],[87.9112,24.8559],[87.897,24.8544],[87.9055,24.8377],[87.9185,24.8193],[87.9319,24.8061],[87.9396,24.7973],[87.9612,24.7687],[87.9654,24.7558],[87.9648,24.7401],[87.9637,24.722],[87.9634,24.71],[87.9562,24.6876],[87.979,24.6669],[87.9853,24.6649],[87.9944,24.6566],[87.9949,24.6563],[88.0084,24.6678],[88.0599,24.715],[88.0738,24.7412],[88.0673,24.7498],[88.0898,24.7825],[88.1059,24.7794],[88.112,24.8126],[88.1674,24.8635],[88.1571,24.8985],[88.1406,24.9173],[88.18,24.9539],[88.2305,24.958],[88.2636,24.9183],[88.2669,24.8934],[88.3153,24.8808],[88.3436,24.8821],[88.3258,24.9146],[88.3417,24.939],[88.3608,24.9494],[88.3815,24.9388],[88.4015,24.9457],[88.3975,24.9691],[88.4244,25.0069],[88.4379,25.0091],[88.4529,25.0409],[88.4371,25.0468],[88.4529,25.0793],[88.4428,25.1263],[88.4592,25.1351],[88.4584,25.1648],[88.4448,25.1768],[88.4455,25.1961],[88.435,25.2072],[88.4578,25.2505],[88.4359,25.2779],[88.4466,25.3047],[88.4255,25.3027],[88.3807,25.287],[88.3427,25.3],[88.3083,25.2965],[88.272,25.3139],[88.266,25.2966],[88.2145,25.3067],[88.1919,25.2747],[88.1776,25.2891]]]},"properties":{"NAME_1":"West Bengal","NAME_2":"Maldah"}},{"type":"Feature","geometry":{"type":"Polygon","coordinates":[[[87.9319,24.8061],[87.9185,24.8193],[87.897,24.8544],[87.889,24.8529],[87.8914,24.8482],[87.8947,24.8478],[87.8972,24.8417],[87.8939,24.8292],[87.8984,24.8245],[87.8866,24.8197],[87.8677,24.823],[87.8721,24.8119],[87.8728,24.8053],[87.8775,24.798],[87.8748,24.7898],[87.8681,24.7871],[87.8665,24.7824],[87.8665,24.7761],[87.8654,24.7743],[87.8545,24.7643],[87.8502,24.7613],[87.8389,24.7654],[87.8338,24.7659],[87.8369,24.7773],[87.839,24.7801],[87.83,24.783],[87.8279,24.7719],[87.8221,24.7667],[87.8139,24.7534],[87.8253,24.7522],[87.8523,24.7349],[87.861,24.7313],[87.8749,24.7351],[87.8778,24.7391],[87.8855,24.7293],[87.8908,24.7226],[87.9031,24.7119],[87.9009,24.7105],[87.899,24.6997],[87.8978,24.695],[87.8894,24.6818],[87.8904,24.6703],[87.9032,24.667],[87.9116,24.6623],[87.9101,24.6549],[87.908,24.6421],[87.9043,24.6304],[87.902,24.6294],[87.8969,24.6304],[87.8889,24.6314],[87.8871,24.6245],[87.9018,24.6226],[87.9021,24.6165],[87.9016,24.6126],[87.8963,24.6119],[87.8791,24.6148],[87.8727,24.6107],[87.8753,24.6099],[87.878,24.6094],[87.8887,24.6082],[87.8987,24.6081],[87.9081,24.6082],[87.9077,24.6044],[87.9087,24.5912],[87.9054,24.5838],[87.9033,24.5824],[87.8961,24.5806],[87.8873,24.5627],[87.8876,24.5402],[87.9195,24.5404],[87.9459,24.515],[87.9455,24.4953],[87.9697,24.4688],[87.9736,24.4138],[87.9662,24.3764],[87.9522,24.3572],[87.9577,24.3381],[88.0105,24.3126],[88.0191,24.2416],[87.9952,24.2412],[87.9941,24.209],[87.9892,24.206],[87.9879,24.211],[87.9837,24.2096],[87.985,24.2051],[87.984,24.1987],[87.963,24.1866],[87.9388,24.1928],[87.9325,24.1758],[87.896,24.1441],[87.9031,24.1299],[87.8928,24.1128],[87.9055,24.0971],[87.8934,24.0781],[87.8921,24.0563],[87.8616,24.0284],[87.8711,24.0147],[87.866,23.9815],[87.8532,23.9663],[87.8663,23.9531],[87.8649,23.9153],[87.8432,23.9103],[87.8505,23.8845],[87.8907,23.834],[87.9222,23.8381],[87.9304,23.8219],[87.9617,23.8013],[87.969,23.8284],[87.9986,23.8388],[88.0208,23.8226],[88.0269,23.792],[88.0549,23.7768],[88.0328,23.7609],[88.0379,23.7431],[88.0577,23.7184],[88.0785,23.7188],[88.0899,23.749],[88.1231,23.747],[88.1406,23.7277],[88.1625,23.7508],[88.1935,23.7627],[88.2182,23.7545],[88.2398,23.7635],[88.2334,23.7915],[88.2677,23.8078],[88.3358,23.8047],[88.3564,23.8211],[88.3789,23.8084],[88.4067,23.8159],[88.4147,23.7978],[88.4401,23.8486],[88.4732,23.8174],[88.4736,23.8552],[88.4625,23.8842],[88.4999,23.9059],[88.4579,23.9185],[88.4665,23.9358],[88.4912,23.9361],[88.5183,23.9459],[88.521,23.9641],[88.5095,23.9815],[88.5422,23.9991],[88.5462,24.0344],[88.5808,24.0265],[88.5965,23.9939],[88.6217,23.9782],[88.6472,24.0057],[88.6303,24.0229],[88.6514,24.0701],[88.6797,24.0763],[88.7039,24.0938],[88.7102,24.1189],[88.6995,24.166],[88.7199,24.1977],[88.732,24.1974],[88.7371,24.2678],[88.7228,24.2969],[88.7025,24.3107],[88.6735,24.3152],[88.6285,24.3066],[88.6256,24.3149],[88.589,24.3153],[88.5681,24.3266],[88.5559,24.2964],[88.5305,24.3421],[88.5072,24.3447],[88.4378,24.3808],[88.3919,24.3721],[88.3482,24.3765],[88.3277,24.3868],[88.2647,24.445],[88.2055,24.4579],[88.1758,24.4903],[88.1479,24.5056],[88.1071,24.5454],[88.0462,24.6374],[88.0084,24.6678],[87.9949,24.6563],[87.9944,24.6566],[87.9853,24.6649],[87.979,24.6669],[87.9562,24.6876],[87.9634,24.71],[87.9637,24.722],[87.9648,24.7401],[87.9654,24.7558],[87.9612,24.7687],[87.9396,24.7973],[87.9319,24.8061]]]},"properties":{"NAME_1":"West Bengal","NAME_2":"Murshidabad"}},{"type":"Feature","geometry":{"type":"Polygon","coordinates":[[[88.7496,23.2368],[88.7204,23.2527],[88.7237,23.2696],[88.6968,23.2929],[88.7469,23.318],[88.7365,23.3486],[88.7628,23.3676],[88.7535,23.3874],[88.7644,23.4421],[88.79,23.4407],[88.7884,23.4649],[88.8001,23.4805],[88.7794,23.4977],[88.7429,23.4808],[88.7185,23.5074],[88.6954,23.5175],[88.6843,23.539],[88.6616,23.5497],[88.6437,23.6085],[88.5874,23.6],[88.5932,23.6264],[88.5617,23.6457],[88.5739,23.67],[88.5642,23.7148],[88.5747,23.7363],[88.5808,23.7887],[88.6017,23.8169],[88.576,23.8598],[88.6224,23.8736],[88.6331,23.8614],[88.6647,23.8722],[88.6669,23.884],[88.7038,23.8988],[88.7045,23.914],[88.7333,23.9143],[88.7419,23.9341],[88.7344,23.9587],[88.7411,23.9846],[88.7713,23.9875],[88.7587,24.0082],[88.7378,24.0138],[88.7366,24.0556],[88.7224,24.0658],[88.7256,24.0959],[88.7039,24.0938],[88.6797,24.0763],[88.6514,24.0701],[88.6303,24.0229],[88.6472,24.0057],[88.6217,23.9782],[88.5965,23.9939],[88.5808,24.0265],[88.5462,24.0344],[88.5422,23.9991],[88.5095,23.9815],[88.521,23.9641],[88.5183,23.9459],[88.4912,23.9361],[88.4665,23.9358],[88.4579,23.9185],[88.4999,23.9059],[88.4625,23.8842],[88.4736,23.8552],[88.4732,23.8174],[88.4401,23.8486],[88.4147,23.7978],[88.4067,23.8159],[88.3789,23.8084],[88.3564,23.8211],[88.3358,23.8047],[88.2677,23.8078],[88.2334,23.7915],[88.2398,23.7635],[88.2182,23.7545],[88.1935,23.7627],[88.1916,23.7343],[88.2261,23.7188],[88.2237,23.7028],[88.1817,23.7115],[88.1639,23.7084],[88.142,23.683],[88.1341,23.6498],[88.1527,23.6252],[88.1951,23.6179],[88.2141,23.6028],[88.2291,23.6122],[88.2615,23.6136],[88.2851,23.5834],[88.3126,23.5862],[88.321,23.5723],[88.2922,23.5571],[88.2754,23.5568],[88.2749,23.5347],[88.3074,23.5382],[88.3207,23.5472],[88.3579,23.5407],[88.3876,23.4944],[88.3618,23.4754],[88.3397,23.4213],[88.3557,23.3932],[88.3291,23.3636],[88.335,23.3372],[88.3269,23.3098],[88.3338,23.2894],[88.3494,23.2782],[88.3614,23.2514],[88.3542,23.235],[88.3834,23.2169],[88.4161,23.2095],[88.4562,23.2251],[88.4723,23.2071],[88.4494,23.1448],[88.4555,23.1285],[88.499,23.1213],[88.5045,23.0986],[88.4904,23.076],[88.4605,23.0683],[88.4558,23.0415],[88.4406,23.0245],[88.4154,23.0128],[88.4035,22.9826],[88.4081,22.9423],[88.4225,22.9529],[88.4602,22.9471],[88.4745,22.9314],[88.507,22.94],[88.5673,22.9109],[88.6107,22.9016],[88.6213,22.8778],[88.6561,22.871],[88.6689,22.8859],[88.6573,22.9036],[88.6555,22.9341],[88.6609,22.9802],[88.6762,22.9956],[88.6852,23.0228],[88.6825,23.0695],[88.6749,23.0914],[88.694,23.1087],[88.7035,23.1334],[88.6942,23.1516],[88.7099,23.1621],[88.717,23.1837],[88.7089,23.2329],[88.7496,23.2368]]]},"properties":{"NAME_1":"West Bengal","NAME_2":"Nadia"}},{"type":"Feature","geometry":{"type":"MultiPolygon","coordinates":[[[[88.8347,21.6072],[88.8283,21.5769],[88.8358,21.56],[88.8539,21.55],[88.9,21.5522],[88.8925,21.5794],[88.8761,21.5922],[88.8347,21.6072]]],[[[88.7289,21.6371],[88.7128,21.6247],[88.708,21.5901],[88.7144,21.5783],[88.7405,21.5731],[88.7473,21.5888],[88.7571,21.5996],[88.7362,21.6103],[88.7289,21.6371]]],[[[88.7719,21.6531],[88.7356,21.6446],[88.738,21.6104],[88.7531,21.6046],[88.7576,21.601],[88.7569,21.5961],[88.7504,21.5921],[88.7489,21.5794],[88.7878,21.5806],[88.7981,21.5917],[88.7739,21.6197],[88.7719,21.6531]]],[[[88.9658,21.6415],[88.9542,21.6765],[88.9397,21.6469],[88.9564,21.6174],[88.9878,21.6131],[88.9951,21.6264],[88.9884,21.6448],[88.9658,21.6415]]],[[[88.9845,21.7057],[88.9717,21.6976],[88.951,21.701],[88.965,21.644],[88.9884,21.646],[88.9938,21.6413],[89.0003,21.6021],[89.0288,21.6048],[89.022,21.6546],[88.9943,21.649],[88.9894,21.7017],[88.9845,21.7057]]],[[[88.8067,21.7067],[88.763,21.6908],[88.7603,21.6833],[88.7319,21.6831],[88.7492,21.6733],[88.7589,21.6633],[88.7775,21.6642],[88.7967,21.6556],[88.8067,21.6639],[88.8067,21.7067]]],[[[88.6971,21.7129],[88.6871,21.6836],[88.7251,21.6382],[88.7414,21.6537],[88.703,21.687],[88.6971,21.7129]]],[[[89.0592,21.7218],[89.0372,21.7206],[89.0185,21.7082],[89.0264,21.6879],[89.0261,21.6439],[89.0494,21.6202],[89.068,21.6204],[89.0929,21.6369],[89.0919,21.6667],[89.0727,21.6897],[89.0592,21.7218]]],[[[88.978,21.7269],[88.99,21.7056],[88.9958,21.6725],[89.0178,21.6612],[89.0197,21.6994],[88.9936,21.7219],[88.978,21.7269]]],[[[88.8831,21.7453],[88.8725,21.7206],[88.8731,21.6944],[88.8858,21.6611],[88.9219,21.6329],[88.9419,21.6897],[88.9181,21.7125],[88.9139,21.7258],[88.8831,21.7453]]],[[[88.9271,21.7619],[88.9311,21.7358],[88.9225,21.7211],[88.9502,21.7023],[88.9722,21.6986],[88.9706,21.7175],[88.9772,21.7342],[88.9703,21.739],[88.9653,21.75],[88.9478,21.7578],[88.9271,21.7619]]],[[[89.0051,21.765],[89.0016,21.75],[89.0154,21.7339],[89.0209,21.7173],[89.0558,21.7299],[89.0254,21.757],[89.0051,21.765]]],[[[88.8317,21.7661],[88.8134,21.7506],[88.7911,21.7492],[88.7819,21.7325],[88.7844,21.7103],[88.8036,21.7166],[88.8192,21.7033],[88.8231,21.6711],[88.809,21.6399],[88.8397,21.6204],[88.8599,21.6431],[88.8408,21.6886],[88.84,21.7156],[88.8612,21.7617],[88.8317,21.7661]]],[[[88.9997,21.7855],[88.9668,21.7722],[88.9616,21.7549],[88.9667,21.7497],[88.9704,21.7404],[88.9842,21.7481],[88.9887,21.7398],[88.9767,21.7286],[88.9944,21.7231],[89.0048,21.7161],[89.0119,21.7348],[88.9994,21.7508],[88.9997,21.7855]]],[[[88.7162,21.8074],[88.7119,21.7875],[88.695,21.7439],[88.7111,21.6902],[88.7478,21.6583],[88.7546,21.6661],[88.7308,21.682],[88.7327,21.6894],[88.7451,21.6839],[88.7578,21.6837],[88.7625,21.6939],[88.7569,21.7061],[88.7761,21.7236],[88.7528,21.7316],[88.7591,21.7586],[88.727,21.781],[88.7162,21.8074]]],[[[88.9996,21.8117],[88.9903,21.7898],[89.0097,21.7838],[89.0166,21.8116],[88.9996,21.8117]]],[[[88.8281,21.804],[88.8203,21.8221],[88.7857,21.769],[88.7908,21.75],[88.8119,21.7512],[88.8303,21.7672],[88.8216,21.7808],[88.8281,21.804]]],[[[88.7875,21.745],[88.7847,21.7725],[88.7936,21.8097],[88.7849,21.8242],[88.7649,21.7844],[88.7503,21.7689],[88.7642,21.7582],[88.7567,21.7334],[88.7767,21.7308],[88.7875,21.745]]],[[[88.9158,21.8258],[88.9028,21.8206],[88.8947,21.8128],[88.8856,21.8103],[88.9008,21.777],[88.9056,21.7517],[88.9233,21.7881],[88.9178,21.7917],[88.9278,21.8],[88.9269,21.8042],[88.9372,21.8175],[88.935,21.8225],[88.92,21.8231],[88.9158,21.8258]]],[[[88.9414,21.8472],[88.935,21.845],[88.9328,21.8369],[88.9247,21.8353],[88.9272,21.8233],[88.9369,21.8225],[88.9389,21.8169],[88.9347,21.8142],[88.9292,21.8],[88.9197,21.7919],[88.9244,21.7875],[88.9197,21.775],[88.9542,21.8081],[88.9536,21.8256],[88.947,21.8395],[88.9414,21.8472]]],[[[88.8561,21.8653],[88.8392,21.8486],[88.8414,21.8153],[88.835,21.7817],[88.8619,21.7779],[88.8911,21.7625],[88.8969,21.7817],[88.8797,21.8078],[88.8803,21.8289],[88.875,21.8458],[88.8772,21.8517],[88.8606,21.8544],[88.8556,21.8572],[88.8561,21.8653]]],[[[88.7892,21.8786],[88.7839,21.8739],[88.7769,21.8653],[88.7658,21.8306],[88.7856,21.8256],[88.7944,21.8125],[88.8211,21.825],[88.8289,21.8633],[88.8036,21.8669],[88.7989,21.8708],[88.7894,21.8633],[88.7861,21.8683],[88.7922,21.8731],[88.7892,21.8786]]],[[[88.9791,21.8935],[88.9797,21.8694],[88.9512,21.8417],[88.9562,21.8271],[88.9798,21.8184],[88.9763,21.8043],[88.9511,21.8002],[88.9434,21.7849],[88.9734,21.776],[88.9922,21.8117],[89.0202,21.8178],[89.0281,21.8289],[89.031,21.8628],[88.9791,21.8935]]],[[[88.8169,21.9011],[88.8078,21.8681],[88.8308,21.8655],[88.8408,21.8869],[88.8169,21.9011]]],[[[88.7181,21.9072],[88.6983,21.86],[88.6961,21.8422],[88.7094,21.8103],[88.7194,21.8069],[88.7258,21.7944],[88.7508,21.8006],[88.7639,21.7875],[88.7764,21.8236],[88.7656,21.8261],[88.7639,21.8336],[88.775,21.865],[88.7575,21.8789],[88.7475,21.8967],[88.7267,21.8992],[88.7181,21.9072]]],[[[88.8366,21.9179],[88.8492,21.8961],[88.8611,21.8558],[88.8742,21.855],[88.8786,21.8519],[88.8775,21.8458],[88.8825,21.8297],[88.8806,21.8203],[88.89,21.8122],[88.9033,21.8222],[88.9144,21.8275],[88.9228,21.8356],[88.9328,21.8389],[88.9333,21.8458],[88.9383,21.8489],[88.9386,21.8539],[88.9464,21.8417],[88.9481,21.8414],[88.9644,21.8631],[88.9716,21.8992],[88.9146,21.9281],[88.8866,21.9145],[88.8569,21.9107],[88.8366,21.9179]]],[[[88.7236,21.9319],[88.7169,21.9186],[88.7292,21.8997],[88.7408,21.9006],[88.7506,21.8956],[88.7581,21.8803],[88.7719,21.8781],[88.7769,21.8695],[88.7864,21.8786],[88.7883,21.8794],[88.7925,21.8781],[88.7933,21.8728],[88.7872,21.8669],[88.7928,21.8672],[88.7967,21.8767],[88.8142,21.9028],[88.7994,21.9197],[88.7925,21.9172],[88.775,21.9244],[88.7544,21.9267],[88.7322,21.9197],[88.7236,21.9319]]],[[[88.7454,21.9797],[88.7251,21.9785],[88.7224,21.9426],[88.7328,21.9253],[88.7617,21.9308],[88.7888,21.9203],[88.7994,21.9259],[88.7495,21.959],[88.7454,21.9797]]],[[[88.8128,22.0194],[88.8014,22.0297],[88.7769,22.015],[88.7615,22.0145],[88.7497,21.9819],[88.7517,21.9589],[88.7756,21.9433],[88.8248,21.9398],[88.8566,21.9191],[88.8975,21.9228],[88.9073,21.9295],[88.9076,21.9694],[88.8997,22.0131],[88.8753,22.0122],[88.8128,22.0194]]],[[[88.7638,22.0517],[88.7617,22.0214],[88.7781,22.0197],[88.7753,22.05],[88.7638,22.0517]]],[[[88.9028,22.0453],[88.8539,22.0433],[88.877,22.0148],[88.9017,22.0189],[88.9028,22.0453]]],[[[89.0162,22.0509],[88.9861,22.0491],[88.9681,22.0155],[88.9743,21.9946],[89.0181,21.9755],[88.9995,21.9498],[89.0303,21.9264],[89.0633,21.9345],[89.078,21.9864],[89.068,22.0136],[89.0404,22.0492],[89.0162,22.0509]]],[[[88.8119,22.0608],[88.792,22.0548],[88.7805,22.0375],[88.7954,22.0311],[88.8058,22.0333],[88.8128,22.0254],[88.8319,22.027],[88.831,22.0508],[88.8119,22.0608]]],[[[88.8706,22.0789],[88.8544,22.079],[88.8379,22.0718],[88.8286,22.0702],[88.8194,22.0625],[88.8504,22.0427],[88.8606,22.0461],[88.8811,22.0456],[88.8704,22.0628],[88.8706,22.0789]]],[[[88.9041,22.0842],[88.8707,22.087],[88.8717,22.0634],[88.8909,22.0604],[88.9041,22.0842]]],[[[88.8035,22.0853],[88.7957,22.1091],[88.779,22.103],[88.7479,22.0593],[88.7808,22.0486],[88.8058,22.0658],[88.8035,22.0853]]],[[[88.8179,22.123],[88.7991,22.1119],[88.8055,22.0851],[88.8276,22.0876],[88.8378,22.0732],[88.8512,22.0794],[88.8659,22.0815],[88.8498,22.1031],[88.8472,22.1173],[88.8179,22.123]]],[[[88.8651,22.167],[88.8465,22.1213],[88.8537,22.1015],[88.8723,22.0878],[88.917,22.0912],[88.9227,22.109],[88.8861,22.1648],[88.8651,22.167]]],[[[88.95,22.1892],[88.9197,22.1611],[88.8975,22.1711],[88.9094,22.1336],[88.9295,22.1115],[88.9307,22.0981],[88.9017,22.0639],[88.9161,22.0106],[88.9127,21.9944],[88.9315,21.9421],[88.9444,21.9298],[88.9923,21.9069],[89.0151,21.9031],[89.0213,21.9217],[88.9946,21.942],[88.9939,21.9703],[88.9725,21.9878],[88.9652,22.0174],[88.9771,22.0384],[88.9581,22.0602],[88.9367,22.0725],[88.9697,22.0835],[88.9833,22.1189],[88.985,22.1481],[88.95,22.1892]]],[[[89.0019,22.1992],[88.9727,22.1934],[88.9764,22.1696],[88.9939,22.1486],[88.9969,22.1317],[88.9804,22.0793],[88.9628,22.0611],[89.0017,22.0603],[89.0189,22.0514],[89.0389,22.0555],[89.0311,22.0939],[89.0491,22.1329],[89.0224,22.1484],[89.0144,22.1644],[89.013,22.1958],[89.0019,22.1992]]],[[[88.8447,22.1892],[88.8326,22.1645],[88.8065,22.178],[88.771,22.1426],[88.7492,22.135],[88.7355,22.1053],[88.7025,22.078],[88.7047,22.065],[88.7392,22.057],[88.7496,22.0811],[88.7691,22.0919],[88.7719,22.1064],[88.7984,22.125],[88.8498,22.1427],[88.852,22.1736],[88.8447,22.1892]]],[[[88.9324,22.225],[88.9205,22.2307],[88.9092,22.1941],[88.9315,22.177],[88.9445,22.1928],[88.961,22.1941],[88.9542,22.2216],[88.9324,22.225]]],[[[88.8126,22.2834],[88.7932,22.2616],[88.7916,22.2584],[88.7857,22.2574],[88.7735,22.2507],[88.7522,22.2304],[88.7472,22.1986],[88.766,22.1949],[88.7889,22.1784],[88.8152,22.1812],[88.8268,22.1957],[88.8062,22.2077],[88.801,22.228],[88.8254,22.2409],[88.8262,22.2646],[88.8126,22.2834]]],[[[88.8499,22.3629],[88.8183,22.3589],[88.8075,22.3333],[88.8122,22.3139],[88.8051,22.2961],[88.8273,22.2655],[88.8265,22.2389],[88.8055,22.2214],[88.8067,22.209],[88.8366,22.2074],[88.8667,22.1955],[88.8723,22.1714],[88.9025,22.1766],[88.9166,22.225],[88.9207,22.2326],[88.9265,22.2287],[88.9542,22.2257],[88.9513,22.2427],[88.9298,22.2637],[88.9375,22.2974],[88.9117,22.3117],[88.8916,22.3431],[88.8499,22.3629]]],[[[88.9848,22.3824],[88.9678,22.388],[88.9643,22.367],[88.9547,22.3611],[88.9472,22.2556],[88.9617,22.2422],[88.9682,22.215],[88.9863,22.2056],[89.0186,22.2067],[89.0272,22.1873],[89.0235,22.1654],[89.0506,22.1467],[89.0691,22.1899],[89.0404,22.2221],[89.0335,22.2545],[88.9964,22.2826],[89,22.3233],[88.9834,22.3259],[88.9882,22.3649],[88.9848,22.3824]]],[[[88.8619,22.3989],[88.8608,22.3708],[88.8932,22.3458],[88.8978,22.3642],[88.8838,22.372],[88.8619,22.3989]]],[[[88.7814,22.5006],[88.8008,22.4611],[88.8098,22.4812],[88.8002,22.4862],[88.7917,22.4989],[88.7814,22.5006]]],[[[88.8977,22.5489],[88.8852,22.55],[88.8672,22.5305],[88.8613,22.499],[88.8615,22.4132],[88.8823,22.4032],[88.8844,22.3761],[88.9211,22.3992],[88.9045,22.4117],[88.908,22.4342],[88.9007,22.4446],[88.8975,22.4592],[88.8923,22.4659],[88.8963,22.4718],[88.8931,22.4867],[88.9041,22.496],[88.9057,22.5205],[88.8977,22.5489]]],[[[88.9202,22.5653],[88.8961,22.5608],[88.9042,22.5263],[88.9139,22.5147],[88.9056,22.4934],[88.8962,22.4835],[88.8988,22.4768],[88.8947,22.4661],[88.9032,22.4552],[88.9039,22.4462],[88.9189,22.4297],[88.9258,22.4062],[88.9256,22.3875],[88.9159,22.3919],[88.8964,22.3798],[88.907,22.3363],[88.9325,22.3112],[88.9433,22.3107],[88.9486,22.3548],[88.9644,22.3739],[88.9686,22.4128],[88.9975,22.4286],[88.9892,22.4394],[88.995,22.4678],[88.9783,22.4825],[88.9652,22.5341],[88.9559,22.5514],[88.9202,22.5653]]],[[[88.8205,22.3631],[88.8492,22.3645],[88.8561,22.408],[88.8483,22.4306],[88.8194,22.4303],[88.8025,22.4434],[88.7902,22.4814],[88.7797,22.4926],[88.7801,22.5028],[88.7711,22.5108],[88.7546,22.5152],[88.7453,22.5149],[88.7328,22.5103],[88.7185,22.5193],[88.7119,22.5263],[88.6915,22.5224],[88.7008,22.5306],[88.7085,22.5291],[88.7181,22.5214],[88.7256,22.5189],[88.7335,22.5111],[88.7419,22.5152],[88.7531,22.5169],[88.7717,22.5134],[88.7841,22.5028],[88.7955,22.4972],[88.8109,22.4821],[88.8142,22.4564],[88.8346,22.4372],[88.8517,22.4329],[88.8593,22.4987],[88.8564,22.5117],[88.8689,22.5458],[88.8964,22.5633],[88.9378,22.5708],[88.937,22.5942],[88.9571,22.6098],[88.9311,22.6217],[88.9301,22.641],[88.9473,22.6599],[88.9592,22.6912],[88.9208,22.7339],[88.9207,22.7653],[88.9392,22.7867],[88.9584,22.7942],[88.9676,22.8425],[88.946,22.8774],[88.9326,22.868],[88.9093,22.8774],[88.897,22.9267],[88.8972,22.9492],[88.8615,22.9552],[88.8687,22.9688],[88.872,23.0184],[88.8785,23.0291],[88.8665,23.0689],[88.8701,23.0961],[88.8975,23.1061],[88.9314,23.1386],[88.9379,23.1692],[88.9616,23.1899],[88.9824,23.1904],[88.9796,23.2221],[88.9518,23.2025],[88.9304,23.212],[88.9135,23.23],[88.8528,23.2246],[88.8309,23.2447],[88.809,23.2498],[88.8141,23.2166],[88.7854,23.2176],[88.7697,23.2386],[88.7496,23.2368],[88.7089,23.2329],[88.717,23.1837],[88.7099,23.1621],[88.6942,23.1516],[88.7035,23.1334],[88.694,23.1087],[88.6749,23.0914],[88.6825,23.0695],[88.6852,23.0228],[88.6762,22.9956],[88.6609,22.9802],[88.6555,22.9341],[88.6573,22.9036],[88.6689,22.8859],[88.6561,22.871],[88.6213,22.8778],[88.6107,22.9016],[88.5673,22.9109],[88.507,22.94],[88.4745,22.9314],[88.4602,22.9471],[88.4225,22.9529],[88.4081,22.9423],[88.4018,22.9114],[88.4073,22.8808],[88.3714,22.8507],[88.3747,22.8256],[88.3572,22.8182],[88.3527,22.7914],[88.331,22.7721],[88.3604,22.7442],[88.3643,22.6801],[88.3521,22.6469],[88.3597,22.6297],[88.3806,22.6278],[88.3886,22.6264],[88.3931,22.5977],[88.3943,22.5833],[88.4073,22.5565],[88.413,22.5765],[88.4233,22.5705],[88.4378,22.5669],[88.4725,22.5718],[88.4855,22.5544],[88.5074,22.5524],[88.5127,22.5458],[88.5245,22.5478],[88.5391,22.5725],[88.5481,22.6],[88.552,22.6041],[88.5542,22.6164],[88.5678,22.6188],[88.5795,22.6113],[88.5905,22.6118],[88.5935,22.5924],[88.6259,22.571],[88.6254,22.5552],[88.6519,22.5197],[88.6649,22.4873],[88.7026,22.4547],[88.7037,22.4287],[88.7298,22.42],[88.7407,22.4003],[88.7622,22.3927],[88.7861,22.3665],[88.804,22.3729],[88.8205,22.3631]]]]},"properties":{"NAME_1":"West Bengal","NAME_2":"North 24 Parganas"}},{"type":"Feature","geometry":{"type":"Polygon","coordinates":[[[86.8885,23.6273],[86.8932,23.6409],[86.8656,23.6546],[86.8527,23.6612],[86.8488,23.6709],[86.8286,23.682],[86.7957,23.6935],[86.792,23.6874],[86.7381,23.6776],[86.7365,23.6888],[86.7317,23.6938],[86.711,23.6972],[86.6687,23.6861],[86.6333,23.6757],[86.6158,23.6716],[86.588,23.6691],[86.5906,23.6622],[86.552,23.6401],[86.5287,23.629],[86.4813,23.635],[86.4664,23.6296],[86.4449,23.6315],[86.4379,23.6242],[86.4396,23.6091],[86.4273,23.6103],[86.4182,23.6034],[86.4104,23.598],[86.4002,23.5895],[86.3818,23.5755],[86.3648,23.5571],[86.3642,23.5513],[86.3605,23.5461],[86.3605,23.5385],[86.3597,23.5307],[86.3638,23.5281],[86.3677,23.5226],[86.367,23.5189],[86.3571,23.5103],[86.3586,23.4896],[86.3644,23.4821],[86.349,23.4725],[86.3518,23.4636],[86.3379,23.4611],[86.3383,23.457],[86.3314,23.4472],[86.3286,23.455],[86.3121,23.4486],[86.3001,23.4437],[86.3058,23.4362],[86.3123,23.4373],[86.3142,23.4283],[86.3,23.4201],[86.2812,23.4354],[86.2785,23.4411],[86.2672,23.44],[86.2663,23.438],[86.2524,23.4375],[86.2479,23.4308],[86.2508,23.4222],[86.2432,23.4196],[86.2391,23.4257],[86.2395,23.4317],[86.2247,23.4357],[86.2274,23.4496],[86.2352,23.456],[86.2232,23.4648],[86.221,23.456],[86.1996,23.464],[86.181,23.4669],[86.1791,23.4751],[86.1723,23.4785],[86.153,23.477],[86.1427,23.4773],[86.1452,23.494],[86.1551,23.5042],[86.1429,23.5273],[86.1533,23.5516],[86.1463,23.5587],[86.1448,23.5678],[86.1317,23.5662],[86.1194,23.5739],[86.0936,23.57],[86.0714,23.5785],[86.0513,23.5789],[86.0374,23.5835],[86.0353,23.5751],[86.0251,23.5723],[86.0176,23.5636],[86.011,23.5612],[86.0108,23.5516],[86.0211,23.5455],[86.0185,23.5424],[86.0328,23.5048],[86.0515,23.499],[86.0414,23.4902],[86.0256,23.4881],[86.0155,23.4852],[86.0014,23.4788],[85.9904,23.4764],[85.9678,23.4654],[85.9529,23.4596],[85.9379,23.4551],[85.9064,23.4718],[85.8776,23.4759],[85.8595,23.451],[85.8609,23.4282],[85.8629,23.41],[85.8722,23.4085],[85.8817,23.4037],[85.8783,23.4021],[85.8848,23.3873],[85.8821,23.3837],[85.8943,23.3797],[85.8853,23.3738],[85.8667,23.3615],[85.8709,23.3525],[85.878,23.3237],[85.8608,23.315],[85.8524,23.2945],[85.8337,23.2807],[85.8264,23.2631],[85.8307,23.2106],[85.8337,23.2019],[85.8316,23.1951],[85.835,23.1921],[85.8439,23.1941],[85.8598,23.1924],[85.8772,23.173],[85.8766,23.1613],[85.8892,23.1518],[85.915,23.1295],[85.9438,23.1295],[85.9819,23.1459],[86.0369,23.1436],[86.0484,23.1292],[86.0442,23.1119],[86.0918,23.0908],[86.1157,23.0936],[86.138,23.0805],[86.1346,23.0629],[86.1602,23.0391],[86.1756,23.013],[86.2009,23.0151],[86.2064,22.9941],[86.2345,22.9934],[86.2613,22.9955],[86.2794,23.0107],[86.3322,22.9889],[86.36,22.9967],[86.3804,22.9907],[86.393,22.9742],[86.4163,22.9948],[86.4631,22.9852],[86.4974,22.9899],[86.5122,22.9663],[86.4868,22.9355],[86.4701,22.9466],[86.4324,22.9158],[86.463,22.8966],[86.4328,22.8605],[86.4339,22.8286],[86.4216,22.8088],[86.4162,22.7765],[86.454,22.7596],[86.479,22.7224],[86.51,22.7161],[86.5393,22.7206],[86.5551,22.7079],[86.5617,22.7229],[86.5785,22.7453],[86.5976,22.7864],[86.5952,22.7912],[86.6069,22.7958],[86.6101,22.8139],[86.6357,22.8253],[86.6518,22.8345],[86.6678,22.8524],[86.6993,22.8691],[86.6994,22.8897],[86.7022,22.893],[86.6986,22.9069],[86.693,22.9141],[86.6871,22.9267],[86.6915,22.9335],[86.6978,22.948],[86.7058,22.9538],[86.7089,22.9624],[86.7114,22.9707],[86.7145,22.9806],[86.7159,22.9888],[86.7226,22.9987],[86.728,23.0227],[86.7183,23.0344],[86.7282,23.0438],[86.7223,23.0478],[86.736,23.0723],[86.7397,23.0917],[86.7138,23.1087],[86.7061,23.117],[86.7108,23.1188],[86.7193,23.1484],[86.7334,23.166],[86.7478,23.1793],[86.746,23.191],[86.7532,23.1985],[86.7706,23.199],[86.7759,23.2156],[86.7694,23.2283],[86.7662,23.2398],[86.7693,23.2514],[86.7701,23.2616],[86.7692,23.269],[86.7686,23.2935],[86.7731,23.2957],[86.7734,23.3178],[86.7752,23.3361],[86.7839,23.3402],[86.7888,23.3395],[86.7975,23.3413],[86.8009,23.3583],[86.8123,23.3611],[86.8177,23.3587],[86.824,23.3718],[86.824,23.3823],[86.8381,23.3879],[86.8418,23.399],[86.8395,23.4101],[86.8533,23.4328],[86.8137,23.4396],[86.8149,23.4643],[86.8407,23.4642],[86.8515,23.4608],[86.8556,23.4634],[86.8577,23.4768],[86.8638,23.4868],[86.8923,23.4938],[86.8822,23.528],[86.873,23.5365],[86.8716,23.5464],[86.8685,23.5546],[86.8577,23.5704],[86.8703,23.5687],[86.8776,23.5785],[86.8778,23.5908],[86.8784,23.6036],[86.8885,23.6273]]]},"properties":{"NAME_1":"West Bengal","NAME_2":"Puruliya"}},{"type":"Feature","geometry":{"type":"MultiPolygon","coordinates":[[[[88.4977,21.5998],[88.4861,21.5883],[88.4814,21.5554],[88.5061,21.5411],[88.5308,21.5422],[88.5297,21.5831],[88.4977,21.5998]]],[[[88.5372,21.6386],[88.5103,21.6014],[88.5366,21.5884],[88.55,21.5636],[88.5755,21.5742],[88.5865,21.5884],[88.5839,21.6108],[88.5575,21.6317],[88.5372,21.6386]]],[[[88.5769,21.6917],[88.5708,21.666],[88.5548,21.6474],[88.5575,21.635],[88.5925,21.6181],[88.5992,21.6411],[88.5858,21.6581],[88.5769,21.6917]]],[[[88.5919,21.6942],[88.5808,21.6841],[88.5885,21.6573],[88.6063,21.68],[88.5919,21.6942]]],[[[88.3111,21.7064],[88.3166,21.6654],[88.3058,21.6291],[88.3081,21.6111],[88.3372,21.6211],[88.3539,21.6494],[88.3511,21.6781],[88.3286,21.7053],[88.3111,21.7064]]],[[[88.454,21.7093],[88.4369,21.7063],[88.4196,21.6898],[88.4206,21.6514],[88.4511,21.6206],[88.4706,21.6743],[88.454,21.7093]]],[[[88.2045,21.7212],[88.1815,21.6892],[88.1947,21.6327],[88.205,21.6097],[88.2317,21.6411],[88.2248,21.6708],[88.2155,21.6698],[88.1981,21.6769],[88.1983,21.6944],[88.2166,21.7005],[88.2045,21.7212]]],[[[88.5457,21.7361],[88.5173,21.712],[88.5308,21.6775],[88.5281,21.6564],[88.541,21.6397],[88.5678,21.6653],[88.5661,21.6928],[88.5862,21.6989],[88.5708,21.7325],[88.5457,21.7361]]],[[[88.4123,21.7313],[88.399,21.6988],[88.3797,21.6808],[88.3872,21.6465],[88.3873,21.6133],[88.4319,21.6283],[88.4111,21.66],[88.4133,21.6911],[88.4286,21.7026],[88.4123,21.7313]]],[[[88.2209,21.7621],[88.212,21.72],[88.2211,21.7024],[88.2008,21.6914],[88.1992,21.6826],[88.2087,21.6743],[88.2263,21.6751],[88.233,21.669],[88.2347,21.6354],[88.2172,21.6197],[88.2453,21.5919],[88.2483,21.5639],[88.2706,21.5578],[88.2917,21.5631],[88.3061,21.5803],[88.2894,21.5964],[88.2933,21.6367],[88.3117,21.6719],[88.2722,21.7283],[88.2715,21.7547],[88.2209,21.7621]]],[[[88.3654,21.7642],[88.3521,21.764],[88.3426,21.7539],[88.3489,21.7269],[88.3376,21.7098],[88.3579,21.6868],[88.3981,21.7133],[88.3653,21.7222],[88.3598,21.7342],[88.3598,21.7451],[88.3654,21.7642]]],[[[88.3849,21.7644],[88.3728,21.7636],[88.3613,21.7472],[88.361,21.7347],[88.3811,21.7372],[88.3849,21.7644]]],[[[88.5822,21.7778],[88.569,21.7692],[88.592,21.7193],[88.6158,21.7273],[88.6161,21.7408],[88.5872,21.7522],[88.5836,21.7614],[88.5822,21.7778]]],[[[88.6097,21.7903],[88.5926,21.7852],[88.5892,21.7798],[88.5863,21.7566],[88.6214,21.7397],[88.6233,21.7733],[88.6097,21.7903]]],[[[88.4586,21.7887],[88.4482,21.7982],[88.4231,21.7662],[88.4234,21.7418],[88.4331,21.7045],[88.4415,21.7098],[88.4551,21.7109],[88.4672,21.7372],[88.475,21.7914],[88.4586,21.7887]]],[[[88.5446,21.8103],[88.5286,21.8022],[88.5047,21.7725],[88.5044,21.7508],[88.5248,21.7185],[88.5417,21.7377],[88.5725,21.7356],[88.5625,21.7603],[88.5694,21.7939],[88.5446,21.8103]]],[[[88.4218,21.8111],[88.4168,21.8084],[88.4125,21.8036],[88.4013,21.7948],[88.3952,21.789],[88.3828,21.7796],[88.4009,21.7439],[88.4228,21.7198],[88.4228,21.7709],[88.4399,21.7892],[88.4406,21.8005],[88.4326,21.7986],[88.427,21.8037],[88.4259,21.8094],[88.4218,21.8111]]],[[[88.4849,21.8347],[88.4556,21.8186],[88.4601,21.8006],[88.4858,21.7986],[88.5003,21.8125],[88.4849,21.8347]]],[[[88.5922,21.85],[88.576,21.817],[88.585,21.802],[88.6072,21.8147],[88.6161,21.8308],[88.5922,21.85]]],[[[88.3311,21.8607],[88.3151,21.8576],[88.3117,21.8539],[88.3154,21.8447],[88.3077,21.8303],[88.2659,21.8137],[88.2603,21.8072],[88.2642,21.7939],[88.2821,21.7913],[88.3036,21.7608],[88.3058,21.7176],[88.332,21.7106],[88.345,21.7217],[88.3398,21.751],[88.3435,21.7603],[88.3572,21.7669],[88.3779,21.7686],[88.38,21.7873],[88.3614,21.796],[88.352,21.8204],[88.3521,21.8549],[88.3311,21.8607]]],[[[88.1369,21.875],[88.122,21.8657],[88.0723,21.7783],[88.0614,21.7344],[88.0442,21.7177],[88.0369,21.6739],[88.0417,21.6492],[88.0903,21.6292],[88.1347,21.6294],[88.155,21.6528],[88.1536,21.6925],[88.1709,21.7451],[88.1637,21.8001],[88.17,21.8172],[88.1572,21.8303],[88.1369,21.875]]],[[[88.6217,21.8978],[88.5947,21.8561],[88.6064,21.8464],[88.6203,21.8242],[88.6222,21.7932],[88.6386,21.7847],[88.6528,21.8687],[88.6455,21.8713],[88.6317,21.8717],[88.6346,21.8767],[88.6272,21.8867],[88.627,21.8939],[88.6217,21.8978]]],[[[88.5623,21.8975],[88.5483,21.9038],[88.5503,21.881],[88.5405,21.8704],[88.5306,21.8492],[88.545,21.8264],[88.5631,21.8309],[88.5762,21.8843],[88.5623,21.8975]]],[[[88.4465,21.9049],[88.4358,21.9017],[88.4198,21.9031],[88.4171,21.8873],[88.4003,21.8731],[88.3925,21.8326],[88.4032,21.7976],[88.4183,21.8116],[88.424,21.8124],[88.4269,21.8103],[88.4296,21.8014],[88.4334,21.8001],[88.4427,21.8022],[88.4543,21.8218],[88.4907,21.8503],[88.4838,21.8853],[88.4606,21.8936],[88.4465,21.9049]]],[[[88.64,21.9217],[88.6234,21.9014],[88.6286,21.8939],[88.6295,21.8844],[88.6409,21.8736],[88.6531,21.8808],[88.6669,21.9133],[88.64,21.9217]]],[[[88.1348,21.9267],[88.1168,21.9136],[88.1294,21.8989],[88.1446,21.9153],[88.1348,21.9267]]],[[[88.66,22.0192],[88.6349,21.996],[88.6324,21.9526],[88.6572,21.9541],[88.6782,21.9429],[88.7158,22.0006],[88.6743,22.0192],[88.66,22.0192]]],[[[88.7467,22.1956],[88.7319,22.194],[88.6984,22.2086],[88.6529,22.1634],[88.6342,22.1062],[88.6522,22.0814],[88.6634,22.0244],[88.7023,22.0073],[88.7204,22.0056],[88.7402,22.0203],[88.7294,22.0383],[88.6884,22.0598],[88.689,22.0899],[88.7233,22.1133],[88.736,22.1327],[88.7664,22.1461],[88.7886,22.1681],[88.7725,22.1784],[88.7663,22.1892],[88.7467,22.1956]]],[[[88.5795,22.6113],[88.5678,22.6188],[88.5542,22.6164],[88.552,22.6041],[88.5481,22.6],[88.5391,22.5725],[88.5245,22.5478],[88.5127,22.5458],[88.5074,22.5524],[88.4855,22.5544],[88.4725,22.5718],[88.4378,22.5669],[88.4233,22.5705],[88.413,22.5765],[88.4073,22.5565],[88.398,22.5538],[88.3873,22.539],[88.3871,22.5339],[88.376,22.5214],[88.3677,22.5005],[88.3362,22.4978],[88.3243,22.5055],[88.3206,22.5047],[88.2881,22.5141],[88.2816,22.5431],[88.2572,22.5554],[88.2436,22.5571],[88.238,22.5335],[88.241,22.5239],[88.2087,22.5112],[88.1628,22.4761],[88.1243,22.4706],[88.1158,22.4601],[88.1387,22.4043],[88.0952,22.3717],[88.0952,22.3023],[88.0997,22.2817],[88.0886,22.2628],[88.0728,22.21],[88.1167,22.2092],[88.1636,22.1983],[88.1881,22.1867],[88.2106,22.1494],[88.2108,22.1317],[88.2242,22.0897],[88.2139,22.0347],[88.1956,22.0036],[88.1538,21.9596],[88.1745,21.9336],[88.1764,21.9197],[88.1636,21.8786],[88.1788,21.8479],[88.2009,21.8195],[88.2181,21.7772],[88.2172,21.7644],[88.2824,21.755],[88.2584,21.8008],[88.2598,21.8095],[88.2687,21.8176],[88.306,21.8307],[88.3112,21.8554],[88.3163,21.8595],[88.3257,21.8622],[88.3549,21.8557],[88.3559,21.8197],[88.3637,21.7983],[88.3924,21.8033],[88.3858,21.8394],[88.3938,21.8523],[88.3972,21.8858],[88.4162,21.9013],[88.4242,21.9077],[88.4321,21.9027],[88.4417,21.9114],[88.4619,21.918],[88.4581,21.8978],[88.4736,21.8953],[88.4832,21.91],[88.5092,21.9054],[88.4986,21.8737],[88.5281,21.8531],[88.548,21.8822],[88.545,21.906],[88.5614,21.899],[88.5705,21.9048],[88.5783,21.8894],[88.6022,21.9067],[88.6147,21.9375],[88.5983,21.9683],[88.6144,22.0197],[88.6355,22.0426],[88.6267,22.0574],[88.6194,22.1053],[88.6383,22.1553],[88.6638,22.1845],[88.6726,22.2051],[88.6993,22.2101],[88.7336,22.1956],[88.7462,22.2029],[88.7461,22.2047],[88.7487,22.2187],[88.7486,22.2214],[88.7475,22.2325],[88.7718,22.251],[88.7855,22.2586],[88.7908,22.2597],[88.793,22.2697],[88.7927,22.2762],[88.8047,22.2838],[88.8031,22.2955],[88.8104,22.3168],[88.8053,22.3244],[88.8026,22.329],[88.8205,22.3631],[88.804,22.3729],[88.7861,22.3665],[88.7622,22.3927],[88.7407,22.4003],[88.7298,22.42],[88.7037,22.4287],[88.7026,22.4547],[88.6649,22.4873],[88.6519,22.5197],[88.6254,22.5552],[88.6259,22.571],[88.5935,22.5924],[88.5905,22.6118],[88.5795,22.6113]]]]},"properties":{"NAME_1":"West Bengal","NAME_2":"South 24 Parganas"}},{"type":"Feature","geometry":{"type":"Polygon","coordinates":[[[88.3372,26.4971],[88.3101,26.4968],[88.3046,26.4894],[88.2853,26.4791],[88.2647,26.4859],[88.257,26.471],[88.2452,26.459],[88.2366,26.4493],[88.2522,26.4338],[88.2554,26.4159],[88.2304,26.394],[88.2317,26.3849],[88.2451,26.376],[88.2549,26.3745],[88.2616,26.38],[88.2699,26.3789],[88.2819,26.3601],[88.2899,26.3569],[88.2891,26.3511],[88.2794,26.3463],[88.2724,26.3305],[88.2698,26.3327],[88.2653,26.3365],[88.2611,26.3379],[88.2563,26.3301],[88.2318,26.3104],[88.2268,26.2966],[88.221,26.2882],[88.2143,26.2817],[88.2041,26.2796],[88.1769,26.2617],[88.1631,26.2575],[88.1588,26.2569],[88.1374,26.2438],[88.1261,26.2269],[88.12,26.2279],[88.116,26.223],[88.1057,26.2164],[88.1025,26.2122],[88.0936,26.2065],[88.0897,26.2032],[88.0872,26.1944],[88.073,26.1854],[88.0698,26.1757],[88.0586,26.1738],[88.0374,26.1777],[88.0336,26.1703],[88.0117,26.1548],[88.0151,26.1429],[88.0068,26.1433],[87.996,26.1418],[87.9821,26.1592],[87.9633,26.1489],[87.9688,26.1394],[87.9678,26.1318],[87.9674,26.1254],[87.9694,26.1093],[87.9544,26.1028],[87.9695,26.0916],[87.9722,26.0849],[87.9681,26.0814],[87.9598,26.084],[87.9379,26.0845],[87.9311,26.069],[87.9219,26.0769],[87.9175,26.088],[87.8957,26.0799],[87.8926,26.0804],[87.8883,26.0719],[87.8761,26.0662],[87.8752,26.0556],[87.8492,26.045],[87.8417,26.0323],[87.8333,26.0011],[87.8262,25.9837],[87.831,25.9622],[87.8239,25.9465],[87.8283,25.9411],[87.8268,25.9319],[87.8179,25.933],[87.8057,25.9284],[87.8075,25.9183],[87.8038,25.9121],[87.8107,25.914],[87.8168,25.9049],[87.8171,25.8833],[87.8183,25.8815],[87.8228,25.8715],[87.8345,25.8687],[87.8504,25.8671],[87.8559,25.8647],[87.8677,25.8645],[87.8722,25.8597],[87.8995,25.8598],[87.8973,25.8396],[87.8974,25.8345],[87.891,25.8265],[87.8938,25.8292],[87.8939,25.8251],[87.8987,25.8201],[87.9105,25.8148],[87.9095,25.8107],[87.9031,25.8141],[87.902,25.811],[87.8991,25.8055],[87.8992,25.8002],[87.898,25.7993],[87.9013,25.7692],[87.905,25.772],[87.9286,25.7679],[87.9292,25.7721],[87.9375,25.7583],[87.951,25.7386],[87.9605,25.7321],[87.961,25.7247],[87.9818,25.7217],[87.9972,25.7119],[88.0068,25.7065],[88.0175,25.7025],[88.0143,25.6944],[88.0224,25.6915],[88.0302,25.6988],[88.0433,25.6947],[88.0491,25.6815],[88.0431,25.6739],[88.0485,25.6439],[88.0445,25.6429],[88.0429,25.639],[88.0358,25.641],[88.0356,25.6368],[88.0438,25.6282],[88.0372,25.6156],[88.0313,25.5983],[88.0386,25.595],[88.021,25.5869],[88.03,25.5743],[88.0253,25.5691],[88.0334,25.5615],[88.0296,25.5595],[88.027,25.5533],[88.0298,25.5504],[88.0461,25.5343],[88.056,25.5299],[88.0639,25.5062],[88.0664,25.505],[88.0681,25.4968],[88.0743,25.4629],[88.079,25.4585],[88.0969,25.4408],[88.0982,25.429],[88.1117,25.4331],[88.0962,25.4239],[88.0977,25.4154],[88.1142,25.4043],[88.1013,25.3828],[88.1224,25.3628],[88.1214,25.3539],[88.1142,25.3351],[88.1086,25.3225],[88.1265,25.2949],[88.1263,25.2908],[88.1096,25.2816],[88.114,25.2705],[88.1257,25.2628],[88.1253,25.2425],[88.137,25.2535],[88.1509,25.27],[88.146,25.2727],[88.1457,25.288],[88.168,25.2923],[88.1776,25.2891],[88.2461,25.3558],[88.2632,25.39],[88.2803,25.4299],[88.2803,25.4512],[88.2946,25.4783],[88.3174,25.5125],[88.3572,25.5438],[88.3886,25.5695],[88.4441,25.5965],[88.4575,25.6254],[88.4567,25.6605],[88.4071,25.6693],[88.4045,25.6831],[88.375,25.6949],[88.3786,25.7116],[88.3398,25.7343],[88.2897,25.7733],[88.2718,25.7799],[88.2699,25.8081],[88.2544,25.8111],[88.2338,25.7948],[88.2025,25.7885],[88.1863,25.7988],[88.1579,25.7759],[88.1057,25.824],[88.114,25.8479],[88.1071,25.8799],[88.0868,25.9125],[88.0937,25.9296],[88.1119,25.9331],[88.1313,25.9877],[88.1576,26.0192],[88.1862,26.0231],[88.1731,26.0436],[88.188,26.0629],[88.1612,26.0925],[88.1756,26.1089],[88.1804,26.1457],[88.2335,26.171],[88.2507,26.1891],[88.2762,26.1866],[88.2855,26.1971],[88.3203,26.2012],[88.3525,26.22],[88.3591,26.2435],[88.3502,26.2532],[88.3518,26.2816],[88.3659,26.2991],[88.4029,26.3168],[88.4149,26.3367],[88.4381,26.337],[88.444,26.3564],[88.5087,26.3592],[88.5252,26.3729],[88.4943,26.4164],[88.4981,26.4344],[88.4842,26.4605],[88.4137,26.472],[88.375,26.4872],[88.3623,26.4547],[88.3344,26.4787],[88.3372,26.4971]]]},"properties":{"NAME_1":"West Bengal","NAME_2":"Uttar Dinajpur"}},{"type":"Feature","geometry":{"type":"Polygon","coordinates":[[[87.5203,22.9271],[87.4752,22.9096],[87.4214,22.9211],[87.3552,22.9494],[87.316,22.9403],[87.2817,22.9079],[87.2413,22.8941],[87.2114,22.8943],[87.163,22.8779],[87.1284,22.8421],[87.082,22.8409],[87.0578,22.8459],[87.0491,22.8206],[87.0721,22.78],[87.0827,22.7348],[87.033,22.7159],[87.011,22.6908],[87.0158,22.6642],[86.9998,22.6466],[86.983,22.6664],[86.9459,22.6663],[86.9517,22.6344],[86.9222,22.6231],[86.8884,22.6489],[86.8597,22.6615],[86.8416,22.6814],[86.7842,22.7077],[86.7692,22.723],[86.721,22.7426],[86.6912,22.7636],[86.6668,22.767],[86.6547,22.7844],[86.6069,22.7958],[86.5952,22.7912],[86.5976,22.7864],[86.5785,22.7453],[86.5617,22.7229],[86.5551,22.7079],[86.5808,22.689],[86.6029,22.6798],[86.6102,22.6774],[86.6224,22.6663],[86.6367,22.6551],[86.6324,22.61],[86.634,22.604],[86.639,22.5938],[86.6511,22.5843],[86.6573,22.5727],[86.6614,22.5744],[86.6739,22.5735],[86.706,22.5804],[86.756,22.5743],[86.7634,22.5646],[86.767,22.556],[86.7645,22.5506],[86.7714,22.5458],[86.7828,22.5357],[86.7828,22.5244],[86.7914,22.5167],[86.7893,22.5097],[86.791,22.4936],[86.797,22.4888],[86.7956,22.4797],[86.7825,22.4774],[86.7533,22.4801],[86.749,22.4603],[86.7574,22.4464],[86.7571,22.4424],[86.7639,22.4229],[86.789,22.4183],[86.8309,22.4064],[86.8439,22.3961],[86.8405,22.3842],[86.8409,22.369],[86.8289,22.3415],[86.8285,22.3295],[86.8407,22.3138],[86.8681,22.3046],[86.8726,22.2988],[86.8808,22.2964],[86.8868,22.2867],[86.8856,22.2634],[86.8857,22.2521],[86.8646,22.2535],[86.8502,22.2593],[86.8337,22.2596],[86.8228,22.2613],[86.8163,22.2493],[86.8126,22.2593],[86.8119,22.2639],[86.8092,22.2538],[86.809,22.2465],[86.8024,22.2418],[86.7965,22.2451],[86.7964,22.2499],[86.7903,22.2628],[86.7976,22.2339],[86.8099,22.238],[86.8001,22.2136],[86.776,22.2138],[86.7825,22.2254],[86.7912,22.2203],[86.78,22.2317],[86.7759,22.2315],[86.7721,22.2277],[86.7746,22.2234],[86.7551,22.208],[86.7478,22.208],[86.7228,22.2152],[86.7128,22.1783],[86.7154,22.1435],[86.7522,22.144],[86.7903,22.1539],[86.8005,22.1459],[86.8062,22.1142],[86.8479,22.0984],[86.9088,22.0864],[86.9572,22.0834],[86.9952,22.0458],[87.0176,22.0413],[87.0223,22.0121],[87.0343,21.9892],[87.0055,21.9407],[86.9979,21.9075],[87.02,21.8857],[87.0302,21.8653],[87.0946,21.8603],[87.0963,21.8821],[87.0961,21.8862],[87.0894,21.8924],[87.0885,21.8951],[87.091,21.8992],[87.1047,21.9178],[87.1103,21.918],[87.1142,21.9222],[87.1309,21.918],[87.1517,21.928],[87.1583,21.9305],[87.1598,21.9491],[87.1674,21.9734],[87.175,21.9662],[87.2029,21.9564],[87.2212,21.9532],[87.2244,21.954],[87.2348,21.9544],[87.2322,21.9404],[87.2354,21.9337],[87.2524,21.9178],[87.2348,21.8956],[87.249,21.8665],[87.2448,21.8564],[87.2553,21.8439],[87.2617,21.8333],[87.2678,21.8197],[87.2624,21.8139],[87.2731,21.8058],[87.2733,21.8036],[87.2806,21.7992],[87.2948,21.8039],[87.2966,21.7953],[87.3061,21.7939],[87.318,21.7906],[87.3169,21.7885],[87.3229,21.786],[87.3262,21.7856],[87.3327,21.7872],[87.3367,21.7792],[87.3405,21.784],[87.355,21.7793],[87.3705,21.768],[87.3833,21.7709],[87.3924,21.769],[87.4248,21.7657],[87.4393,21.7644],[87.44,21.832],[87.4551,21.8413],[87.4463,21.8845],[87.4766,21.8966],[87.4995,21.9525],[87.4838,21.9522],[87.4753,21.9996],[87.4594,22.0028],[87.4631,22.0244],[87.4775,22.0453],[87.4757,22.0748],[87.4928,22.0861],[87.5347,22.0799],[87.5784,22.0929],[87.593,22.0891],[87.6186,22.0984],[87.6681,22.1036],[87.6996,22.1244],[87.7046,22.1612],[87.7064,22.1786],[87.7111,22.1768],[87.7191,22.1818],[87.7266,22.19],[87.7203,22.2034],[87.7114,22.2038],[87.7051,22.2129],[87.6971,22.2247],[87.6975,22.2311],[87.7035,22.2552],[87.7021,22.2792],[87.7149,22.3213],[87.7043,22.3271],[87.6806,22.3232],[87.6655,22.3238],[87.6622,22.3293],[87.6524,22.3283],[87.647,22.3241],[87.644,22.3373],[87.6504,22.376],[87.6559,22.4052],[87.6512,22.4176],[87.6477,22.4381],[87.6541,22.4575],[87.6716,22.4655],[87.6723,22.4772],[87.69,22.5053],[87.6927,22.5063],[87.7074,22.4888],[87.7367,22.4848],[87.7449,22.475],[87.766,22.4762],[87.7702,22.4766],[87.7827,22.4848],[87.801,22.4876],[87.8135,22.4954],[87.8172,22.4975],[87.83,22.5025],[87.8379,22.5056],[87.8397,22.5081],[87.8568,22.5093],[87.8822,22.5056],[87.8826,22.5244],[87.8793,22.5261],[87.8719,22.5277],[87.8498,22.5443],[87.8418,22.5575],[87.8454,22.571],[87.8547,22.5854],[87.8512,22.594],[87.8124,22.6134],[87.7914,22.652],[87.7597,22.6942],[87.7595,22.7186],[87.7406,22.7355],[87.7415,22.7698],[87.7185,22.7857],[87.6793,22.7767],[87.6808,22.7993],[87.6319,22.8092],[87.6145,22.8477],[87.5878,22.8402],[87.558,22.8617],[87.525,22.8618],[87.529,22.8794],[87.5055,22.9006],[87.5203,22.9271]]]},"properties":{"NAME_1":"West Bengal","NAME_2":"West Midnapore"}}]}